{"type": "FeatureCollection", "name": "", "features": [{"type": "Feature", "id": 28, "geometry": {"type": "Polygon", "coordinates": [[[114.69429157400009, -3.4242404859999738, 0, null], [114.69421981400001, -3.424133210999969, 0, null], [114.6941298160001, -3.4240010679999386, 0, null], [114.69406866400004, -3.4239263789999654, 0, null], [114.69404461900001, -3.423903920999976, 0, null], [114.69401994600003, -3.4238918379999745, 0, null], [114.69399863600006, -3.4238918859999785, 0, null], [114.69398999300006, -3.4238949479999405, 0, null], [114.69396071500012, -3.4239091059999396, 0, null], [114.693889635, -3.423957214999973, 0, null], [114.69382361300006, -3.424004295999964, 0, null], [114.69373075700003, -3.42407396699997, 0, null], [114.69364687500001, -3.424134085999981, 0, null], [114.6935896110001, -3.424174905999962, 0, null], [114.69349475800004, -3.4242371769999522, 0, null], [114.69341437700007, -3.424296381999966, 0, null], [114.69335285400007, -3.424339171999975, 0, null], [114.6932942300001, -3.4243811279999363, 0, null], [114.69323773600001, -3.4244270389999656, 0, null], [114.69318829100007, -3.4244673989999797, 0, null], [114.6931460720001, -3.424502479999944, 0, null], [114.69309770000007, -3.4245455899999797, 0, null], [114.69305400300004, -3.4245854309999686, 0, null], [114.69301869700007, -3.4246225709999294, 0, null], [114.6929789300001, -3.424678339999957, 0, null], [114.69295053000008, -3.424723839999956, 0, null], [114.6929207930001, -3.424772030999975, 0, null], [114.6928884030001, -3.4248387549999393, 0, null], [114.69284770700006, -3.4249140569999668, 0, null], [114.69282110000006, -3.4249584039999377, 0, null], [114.69278883000004, -3.4249973959999807, 0, null], [114.69275596900002, -3.425031467999929, 0, null], [114.69267995400003, -3.425089236999952, 0, null], [114.69261316100005, -3.4251427169999715, 0, null], [114.69254963100002, -3.425189505999981, 0, null], [114.69246621500008, -3.4252466789999403, 0, null], [114.69239957900004, -3.4252868619999504, 0, null], [114.69227992700007, -3.4253674499999534, 0, null], [114.69220157000007, -3.425426515999959, 0, null], [114.6921075890001, -3.425496697999961, 0, null], [114.69200814600003, -3.4255748399999675, 0, null], [114.69192961100009, -3.425636815999951, 0, null], [114.69183911400012, -3.425705812999979, 0, null], [114.69174913000006, -3.425774386999933, 0, null], [114.69167586600008, -3.4258293429999753, 0, null], [114.69161861500004, -3.4258720519999315, 0, null], [114.69153234800001, -3.4259324999999308, 0, null], [114.69143493500007, -3.4260081239999636, 0, null], [114.69135638500006, -3.4260617109999316, 0, null], [114.69131858100002, -3.4261011319999284, 0, null], [114.69129782100003, -3.426141958999949, 0, null], [114.69128561600007, -3.426197269999932, 0, null], [114.69128410300004, -3.4262357479999537, 0, null], [114.69129120600007, -3.4262633179999398, 0, null], [114.69131047300004, -3.4263050199999725, 0, null], [114.6913570800001, -3.426383117999933, 0, null], [114.69142138200004, -3.426472358999945, 0, null], [114.69147537600008, -3.4265457289999404, 0, null], [114.6915405740001, -3.4266400349999344, 0, null], [114.69159959700005, -3.426728313999945, 0, null], [114.69164326200007, -3.4267878019999785, 0, null], [114.69172420000007, -3.4268866469999466, 0, null], [114.69180167700006, -3.426995915999953, 0, null], [114.69185801100002, -3.4270688939999445, 0, null], [114.69191700300007, -3.4271478539999407, 0, null], [114.69197276700004, -3.4272295539999504, 0, null], [114.69202580100011, -3.4273024779999446, 0, null], [114.69209796000007, -3.4274008329999788, 0, null], [114.69217610400005, -3.4275130869999657, 0, null], [114.69221962400002, -3.4275769299999297, 0, null], [114.69227412700002, -3.4276594769999633, 0, null], [114.69233980700005, -3.4277514969999743, 0, null], [114.6924171710001, -3.427859309999974, 0, null], [114.69247105500006, -3.4279373269999383, 0, null], [114.69254299400006, -3.4280341349999617, 0, null], [114.69260624500009, -3.42812246099993, 0, null], [114.69267331200001, -3.4282175669999333, 0, null], [114.69272342600004, -3.42829603499996, 0, null], [114.69279798600007, -3.4284026389999553, 0, null], [114.69289193200007, -3.4285310489999574, 0, null], [114.69295579800007, -3.4286258939999357, 0, null], [114.69302003700011, -3.4287109949999603, 0, null], [114.6930751000001, -3.4287890769999763, 0, null], [114.69315070900007, -3.428896813999927, 0, null], [114.69320338900002, -3.428967044999979, 0, null], [114.69326199900001, -3.4290477659999397, 0, null], [114.69329686900005, -3.4290989879999643, 0, null], [114.69331629700002, -3.429144621999967, 0, null], [114.69332805900001, -3.429187669999976, 0, null], [114.69333737600004, -3.4292335599999433, 0, null], [114.69333756300011, -3.4292681729999686, 0, null], [114.69332945600001, -3.4293068429999494, 0, null], [114.69330768500004, -3.429371215999936, 0, null], [114.6932920480001, -3.429409894999935, 0, null], [114.69328910800004, -3.4294279759999426, 0, null], [114.69329009100011, -3.429438536999953, 0, null], [114.69329375300003, -3.429449257999977, 0, null], [114.69331603, -3.429492674999949, 0, null], [114.69331901100009, -3.4295061059999625, 0, null], [114.6933200530001, -3.4295142809999675, 0, null], [114.69331976300009, -3.4295226779999552, 0, null], [114.69330911200007, -3.4295640899999285, 0, null], [114.69330655600004, -3.4295796769999356, 0, null], [114.693306817, -3.429590859999962, 0, null], [114.69330897700002, -3.429597671999943, 0, null], [114.69333370400011, -3.429632036999976, 0, null], [114.69336280700009, -3.4296686189999264, 0, null], [114.69337988000007, -3.4296799779999674, 0, null], [114.69339011400007, -3.429681177999953, 0, null], [114.69339866100006, -3.4296805389999463, 0, null], [114.69340473500006, -3.429679829999941, 0, null], [114.69341178200011, -3.4296746499999244, 0, null], [114.69346602300004, -3.429637889999981, 0, null], [114.69353044100001, -3.429584512999952, 0, null], [114.69361048000007, -3.429529582999976, 0, null], [114.69367966300001, -3.4294776909999314, 0, null], [114.69370310600004, -3.4294584839999516, 0, null], [114.69371876800005, -3.429435660999957, 0, null], [114.69372610300002, -3.4294150319999517, 0, null], [114.69373012200003, -3.429386051999927, 0, null], [114.69372825900007, -3.4293638999999416, 0, null], [114.69372069700012, -3.429332712999951, 0, null], [114.69370478500002, -3.4292946899999492, 0, null], [114.69369491700002, -3.4292758719999483, 0, null], [114.69366491300002, -3.429247486999941, 0, null], [114.69362171000012, -3.4292201279999404, 0, null], [114.69358027400006, -3.429198928999938, 0, null], [114.6935579530001, -3.4291815279999582, 0, null], [114.69353318000003, -3.429151519999948, 0, null], [114.69347455500008, -3.42907701799993, 0, null], [114.69340359000012, -3.4289756379999403, 0, null], [114.69334899400008, -3.428894130999936, 0, null], [114.6933137850001, -3.4288416789999587, 0, null], [114.69326790700006, -3.428763672999935, 0, null], [114.69320502800008, -3.428651292999973, 0, null], [114.69316401200001, -3.4285748809999745, 0, null], [114.69310091400007, -3.428460222999945, 0, null], [114.69302894900011, -3.4283332579999524, 0, null], [114.69295662600007, -3.428216453999937, 0, null], [114.6929110000001, -3.4281418649999296, 0, null], [114.69285671800003, -3.428060982999966, 0, null], [114.69280927000011, -3.42800310399997, 0, null], [114.69275476700011, -3.4279281239999477, 0, null], [114.69270606200007, -3.4278696459999765, 0, null], [114.69266767300007, -3.4278153329999554, 0, null], [114.69262460700008, -3.427753867999968, 0, null], [114.69254706100003, -3.427654767999968, 0, null], [114.69242908500007, -3.4275196559999586, 0, null], [114.69232079300002, -3.427397882999969, 0, null], [114.69223713300005, -3.4273014709999643, 0, null], [114.69214725500001, -3.4271945319999304, 0, null], [114.69207034600004, -3.4270960389999345, 0, null], [114.69200468000008, -3.4270055739999634, 0, null], [114.6919415430001, -3.426903769999967, 0, null], [114.69189635500004, -3.426837887999966, 0, null], [114.69185949100006, -3.426777784999956, 0, null], [114.69183718300008, -3.4267251469999565, 0, null], [114.6918028990001, -3.426643444999968, 0, null], [114.6917765290001, -3.426555316999952, 0, null], [114.6917573500001, -3.426462026999957, 0, null], [114.69172553500005, -3.4263074349999556, 0, null], [114.69172143200001, -3.4262515239999516, 0, null], [114.69172547700009, -3.4261888619999468, 0, null], [114.6917361290001, -3.4261472419999563, 0, null], [114.69175114400002, -3.426101419999952, 0, null], [114.69177763300002, -3.426042264999978, 0, null], [114.6918002000001, -3.425998196999956, 0, null], [114.6918199370001, -3.4259716959999764, 0, null], [114.69184922400007, -3.425935200999959, 0, null], [114.6918975420001, -3.425892044999955, 0, null], [114.69193661000008, -3.4258617299999514, 0, null], [114.69198763400004, -3.4258235799999284, 0, null], [114.6920551930001, -3.4257734649999634, 0, null], [114.6921325720001, -3.425717099999929, 0, null], [114.69224658200005, -3.4256409279999502, 0, null], [114.6923150230001, -3.425594430999979, 0, null], [114.69240442600005, -3.425542767999957, 0, null], [114.69249056700005, -3.4254938369999763, 0, null], [114.69258994400002, -3.4254469989999734, 0, null], [114.69266733800009, -3.4254064899999435, 0, null], [114.69275527400009, -3.4253665849999493, 0, null], [114.69283754800006, -3.425335749999931, 0, null], [114.69290197800001, -3.4253113909999797, 0, null], [114.69294179700012, -3.4252979639999808, 0, null], [114.69295688700004, -3.4252923499999497, 0, null], [114.69296678900002, -3.4252856759999304, 0, null], [114.69297787900007, -3.425274945999945, 0, null], [114.6930013220001, -3.4252407149999726, 0, null], [114.69303177000006, -3.4251923899999497, 0, null], [114.69305844500002, -3.425153547999969, 0, null], [114.69308866600011, -3.4251100949999795, 0, null], [114.69313908900006, -3.4250519379999673, 0, null], [114.69319014200005, -3.4249940909999737, 0, null], [114.6932412000001, -3.4249227649999625, 0, null], [114.6932763850001, -3.4248648329999583, 0, null], [114.69330740900011, -3.4248127489999547, 0, null], [114.69334132900008, -3.424753123999949, 0, null], [114.69338193300007, -3.4246901439999533, 0, null], [114.69342875200005, -3.4246234359999335, 0, null], [114.69345739200003, -3.4245900129999427, 0, null], [114.69350471400003, -3.424550027999942, 0, null], [114.693575624, -3.424493980999955, 0, null], [114.69366292000007, -3.424439384999971, 0, null], [114.69375503900005, -3.4243847189999315, 0, null], [114.69382637400008, -3.4243501879999485, 0, null], [114.69386134100012, -3.4243380779999484, 0, null], [114.69390449100001, -3.424334791999968, 0, null], [114.6939365830001, -3.4243401309999513, 0, null], [114.6939888060001, -3.4243570259999387, 0, null], [114.69405166800004, -3.4243939689999365, 0, null], [114.69412299800001, -3.424459317999947, 0, null], [114.69417713000007, -3.4245166969999445, 0, null], [114.69422214600002, -3.4245680419999758, 0, null], [114.69427590100008, -3.424602621999952, 0, null], [114.69431173800001, -3.4246178229999487, 0, null], [114.69434893000005, -3.424627078999947, 0, null], [114.69438151600002, -3.424625277999951, 0, null], [114.69442338500005, -3.4246162039999604, 0, null], [114.6944683690001, -3.424598259999925, 0, null], [114.6945193580001, -3.4245707949999655, 0, null], [114.69454816700011, -3.4245492859999445, 0, null], [114.69460959300011, -3.4245097329999794, 0, null], [114.69468223100012, -3.424461102999942, 0, null], [114.69474858600006, -3.4244064559999288, 0, null], [114.69476626300002, -3.4243945839999697, 0, null], [114.69478039400008, -3.424387648999925, 0, null], [114.69479031900005, -3.4243822129999444, 0, null], [114.69479834700007, -3.4243808579999495, 0, null], [114.69480690300009, -3.424380110999948, 0, null], [114.69481328300003, -3.4243791859999533, 0, null], [114.69481664500006, -3.4243762379999794, 0, null], [114.69481948600003, -3.424373396999954, 0, null], [114.69482199900006, -3.424368286999936, 0, null], [114.69482356800006, -3.4243627679999804, 0, null], [114.69482470000003, -3.424355809999952, 0, null], [114.6948249830001, -3.424346580999952, 0, null], [114.69482427100002, -3.424339853999925, 0, null], [114.69482357300001, -3.424334364999936, 0, null], [114.69482291400004, -3.4243317869999714, 0, null], [114.6948207160001, -3.4243293319999566, 0, null], [114.69481539900005, -3.4243257759999324, 0, null], [114.6948075250001, -3.4243231979999678, 0, null], [114.69480264600008, -3.4243207819999384, 0, null], [114.69479899300006, -3.424317617999975, 0, null], [114.69479664700009, -3.4243128849999493, 0, null], [114.69479251700011, -3.4242834059999723, 0, null], [114.69478841600005, -3.424249053999972, 0, null], [114.694781981, -3.424231835999933, 0, null], [114.69476649900002, -3.4242095699999595, 0, null], [114.69472111300001, -3.424173436999979, 0, null], [114.6946750940001, -3.424150572999963, 0, null], [114.69466426300005, -3.4241507279999723, 0, null], [114.69465962900006, -3.4241512139999486, 0, null], [114.69465328700005, -3.424155030999941, 0, null], [114.69464883, -3.4241603809999788, 0, null], [114.6946471220001, -3.424164037999958, 0, null], [114.69464660200003, -3.42417057199998, 0, null], [114.69464780500005, -3.4241755289999674, 0, null], [114.69465096900001, -3.424180046999936, 0, null], [114.69465453800001, -3.4241846569999552, 0, null], [114.69468132500003, -3.4241967089999434, 0, null], [114.69470589600007, -3.42420588899995, 0, null], [114.69472040500011, -3.424210235999965, 0, null], [114.69473427500009, -3.4242140839999706, 0, null], [114.6947441420001, -3.42421860099995, 0, null], [114.69475353300004, -3.4242260359999364, 0, null], [114.6947669010001, -3.424252056999933, 0, null], [114.69477373100005, -3.4243037899999536, 0, null], [114.69477560000007, -3.424319622999974, 0, null], [114.69477613700008, -3.4243282119999776, 0, null], [114.69477522000011, -3.42433568499996, 0, null], [114.69477362600003, -3.424339965999934, 0, null], [114.69476800400003, -3.424343568999973, 0, null], [114.6947617400001, -3.4243452169999387, 0, null], [114.69475522800008, -3.4243446859999267, 0, null], [114.69474911700001, -3.424342284999966, 0, null], [114.69474354700003, -3.4243353199999547, 0, null], [114.69473830700008, -3.4243222359999663, 0, null], [114.69473610000011, -3.4243123139999625, 0, null], [114.69473481300008, -3.4243016529999295, 0, null], [114.69473046700011, -3.4242719739999643, 0, null], [114.69472188600002, -3.4242488749999325, 0, null], [114.69470608300003, -3.4242333519999306, 0, null], [114.69469457000002, -3.424228858999925, 0, null], [114.6946842540001, -3.424228381999967, 0, null], [114.69467784900007, -3.424228166999967, 0, null], [114.6946685900001, -3.4242295459999355, 0, null], [114.69466244000012, -3.424232116999974, 0, null], [114.69464255900004, -3.4242436029999794, 0, null], [114.6945773440001, -3.4242992199999662, 0, null], [114.69450993900011, -3.424345457999948, 0, null], [114.69444781300001, -3.424376765999966, 0, null], [114.69442957700005, -3.424381602999972, 0, null], [114.69441790600001, -3.42438324699998, 0, null], [114.69440966500008, -3.424383706999947, 0, null], [114.69440079100002, -3.4243820219999748, 0, null], [114.69439030700005, -3.424376301999928, 0, null], [114.69437900700007, -3.4243617839999274, 0, null], [114.69429157400009, -3.4242404859999738, 0, null]]]}, "properties": {"OBJECTID": 28, "NAMOBJ": " ", "FCODE": "DA03080440", "REMARK": "Air Waduk", "SRS_ID": " ", "LCODE": "50406", "METADATA": "RBI500020141015BANJARMASIN", "JNSWDK": null, "SHAPE_Length": 0.017879384054553332, "SHAPE_Area": 2.0741326055469844e-06}}]}