{"type": "FeatureCollection", "name": "", "features": [{"type": "Feature", "id": 29, "geometry": {"type": "MultiPolygon", "coordinates": [[[[114.69866526400006, -3.422037287999956, 0, null], [114.6985712820001, -3.4219573489999675, 0, null], [114.69849418800004, -3.421917080999947, 0, null], [114.69842541500009, -3.421899504999942, 0, null], [114.69831080300003, -3.4218775699999355, 0, null], [114.69817230800004, -3.4218628079999576, 0, null], [114.69809881800006, -3.4218581019999306, 0, null], [114.69801914400011, -3.421858542999928, 0, null], [114.69796311400012, -3.421861508999939, 0, null], [114.69790895500012, -3.421871519999968, 0, null], [114.69782843300004, -3.421896103999927, 0, null], [114.69774776100007, -3.421926634999977, 0, null], [114.69770619500002, -3.4219445689999475, 0, null], [114.6976491040001, -3.4219770649999646, 0, null], [114.69758423600001, -3.4220269519999533, 0, null], [114.69752952200008, -3.422077424999941, 0, null], [114.69749304700008, -3.42211830399998, 0, null], [114.69745823700009, -3.4221665289999805, 0, null], [114.69742356600011, -3.4222126919999596, 0, null], [114.6973952940001, -3.4222649359999764, 0, null], [114.69737223800007, -3.4223145629999294, 0, null], [114.69734517800009, -3.4223678499999437, 0, null], [114.6973111310001, -3.4224276829999667, 0, null], [114.69725119000009, -3.422527643999956, 0, null], [114.69717929600006, -3.4226417679999486, 0, null], [114.69712503100004, -3.422726329999932, 0, null], [114.69706321400008, -3.422813160999965, 0, null], [114.69700035300002, -3.4228999079999767, 0, null], [114.6969192680001, -3.423009299999933, 0, null], [114.6968466730001, -3.42309677399993, 0, null], [114.69676545200002, -3.423176044999934, 0, null], [114.6967141450001, -3.423216482999976, 0, null], [114.6966314760001, -3.423269707999964, 0, null], [114.69653741800005, -3.4233078359999354, 0, null], [114.69647823000003, -3.423325735999981, 0, null], [114.6963860830001, -3.4233439639999688, 0, null], [114.69630320300007, -3.423360739999964, 0, null], [114.69619320100003, -3.423378237999941, 0, null], [114.69609352300006, -3.42339321999998, 0, null], [114.69598198500012, -3.423406057999955, 0, null], [114.69588855100005, -3.42341661699993, 0, null], [114.69579039700011, -3.423433690999957, 0, null], [114.69567420800001, -3.4234619399999247, 0, null], [114.69560099800003, -3.423486612999966, 0, null], [114.69553822000012, -3.423519907999946, 0, null], [114.69544787600012, -3.4235703479999415, 0, null], [114.69536751300006, -3.42361421399994, 0, null], [114.69528904300012, -3.4236530929999276, 0, null], [114.69521866700006, -3.423681434999935, 0, null], [114.69512016200008, -3.4237249669999414, 0, null], [114.69501481700001, -3.4237699289999455, 0, null], [114.69496323100009, -3.423798857999941, 0, null], [114.69492034200005, -3.423835978999932, 0, null], [114.69489840100005, -3.42386257499993, 0, null], [114.6948750790001, -3.4239029529999243, 0, null], [114.69486199200003, -3.4239400389999446, 0, null], [114.69485791200009, -3.4239644269999303, 0, null], [114.6948463110001, -3.4240235549999625, 0, null], [114.69484432200011, -3.424054031999958, 0, null], [114.69484408100004, -3.4240681779999704, 0, null], [114.69484860600005, -3.4240904449999334, 0, null], [114.6948559220001, -3.4241121669999757, 0, null], [114.69487027800005, -3.4241538289999767, 0, null], [114.69488482800011, -3.424189371999944, 0, null], [114.69490956200002, -3.4242285099999776, 0, null], [114.6949206910001, -3.4242389779999485, 0, null], [114.69493099300007, -3.4242419409999343, 0, null], [114.69494316500004, -3.4242413099999567, 0, null], [114.69495604200006, -3.4242355739999653, 0, null], [114.69497599800002, -3.4242265829999496, 0, null], [114.69500146100006, -3.4241976629999726, 0, null], [114.69505526800003, -3.424135319999948, 0, null], [114.695086231, -3.4240975449999382, 0, null], [114.69513823500006, -3.4240326759999675, 0, null], [114.69518348000008, -3.4239507859999776, 0, null], [114.6952194370001, -3.4239048069999285, 0, null], [114.69527336500005, -3.423855851999974, 0, null], [114.6953391180001, -3.4238085519999686, 0, null], [114.69542572700004, -3.423755453999945, 0, null], [114.69549840500008, -3.4237162529999523, 0, null], [114.69556795800008, -3.423682178999968, 0, null], [114.69561754800009, -3.423656580999932, 0, null], [114.69575792400008, -3.423614423999936, 0, null], [114.69578816900002, -3.4236057109999365, 0, null], [114.69590854900002, -3.4235819739999442, 0, null], [114.69603632400003, -3.4235616089999326, 0, null], [114.69610874300008, -3.4235515599999644, 0, null], [114.69622665200006, -3.4235340899999755, 0, null], [114.6963626810001, -3.4235150469999667, 0, null], [114.69644275500002, -3.423493869999959, 0, null], [114.69653203600001, -3.4234672469999623, 0, null], [114.69662291300006, -3.4234387919999563, 0, null], [114.69670190700003, -3.423406439999951, 0, null], [114.69675996700005, -3.4233785749999583, 0, null], [114.69679950700004, -3.4233536759999765, 0, null], [114.69684098000005, -3.4233220379999807, 0, null], [114.69689625000001, -3.4232685569999717, 0, null], [114.69694275400002, -3.4232207679999647, 0, null], [114.6969974220001, -3.4231591319999666, 0, null], [114.69704368500004, -3.4231067589999498, 0, null], [114.69710509900005, -3.4230231359999266, 0, null], [114.69714043900001, -3.4229751569999394, 0, null], [114.69717972700005, -3.422924150999961, 0, null], [114.6972053390001, -3.422897273999979, 0, null], [114.69726154000011, -3.4228606089999403, 0, null], [114.69728351200001, -3.422850908999976, 0, null], [114.69732732500006, -3.4228297349999366, 0, null], [114.69736527700002, -3.4228185809999445, 0, null], [114.697390014, -3.422814753999944, 0, null], [114.69745820700007, -3.4228154699999322, 0, null], [114.69754208800009, -3.4228199569999447, 0, null], [114.69766044500011, -3.422825502999956, 0, null], [114.69777072400007, -3.422824132999949, 0, null], [114.69788295400008, -3.4228226499999437, 0, null], [114.69798768500004, -3.422816285999943, 0, null], [114.69802038800003, -3.4228144119999797, 0, null], [114.69802925200008, -3.4228166209999245, 0, null], [114.69803404400011, -3.422821603999978, 0, null], [114.6980379580001, -3.4228249409999307, 0, null], [114.69803984800001, -3.4228283889999602, 0, null], [114.69804373400007, -3.4228359199999545, 0, null], [114.69805081200002, -3.4228667799999357, 0, null], [114.6980655860001, -3.4229819999999336, 0, null], [114.69808268400004, -3.4231148069999335, 0, null], [114.69809893900003, -3.4232389429999444, 0, null], [114.69810117500003, -3.423274491999962, 0, null], [114.69809997800007, -3.4232858249999367, 0, null], [114.69809777600005, -3.4232962609999618, 0, null], [114.69809366600009, -3.4233071889999565, 0, null], [114.69808712400004, -3.4233234629999743, 0, null], [114.69807799000012, -3.42335130999993, 0, null], [114.69807474000004, -3.4233673479999425, 0, null], [114.69807515200011, -3.423387090999938, 0, null], [114.69807935500012, -3.4234088959999553, 0, null], [114.69808547100001, -3.423428029999968, 0, null], [114.69809977000011, -3.423459684999955, 0, null], [114.69811299700007, -3.4234769469999264, 0, null], [114.69813345400007, -3.4234913149999784, 0, null], [114.69816545000003, -3.42350700399993, 0, null], [114.69819634400005, -3.4235127549999333, 0, null], [114.6982129490001, -3.42351309299994, 0, null], [114.69822907200012, -3.423507825999934, 0, null], [114.69824114500011, -3.423500107999928, 0, null], [114.698254012, -3.4234870589999673, 0, null], [114.69827140500001, -3.423454918999937, 0, null], [114.69827837500009, -3.4234293449999313, 0, null], [114.69828126400012, -3.423409870999933, 0, null], [114.69828083700008, -3.4233926769999243, 0, null], [114.69827838900005, -3.4233743199999367, 0, null], [114.69827502800001, -3.4233618279999405, 0, null], [114.69826604800005, -3.423332870999957, 0, null], [114.69824393700003, -3.42329136099994, 0, null], [114.69822863500008, -3.4232576599999334, 0, null], [114.69821622600011, -3.4232294539999657, 0, null], [114.69821363000005, -3.4232167019999338, 0, null], [114.69820161100006, -3.4231077349999737, 0, null], [114.69818435800005, -3.4229798989999267, 0, null], [114.69817187000001, -3.422863925999934, 0, null], [114.69817158900003, -3.422842012999979, 0, null], [114.69817304900005, -3.4228297949999273, 0, null], [114.69817841700001, -3.422819249999975, 0, null], [114.69818517400006, -3.422811256999978, 0, null], [114.69819534300007, -3.42280595699998, 0, null], [114.69820640500006, -3.4227992669999594, 0, null], [114.69824232000008, -3.4227896359999477, 0, null], [114.69830717500008, -3.42277160499998, 0, null], [114.69835844400006, -3.4227587379999704, 0, null], [114.69840096700011, -3.4227467189999743, 0, null], [114.69843561200003, -3.4227374639999653, 0, null], [114.69850005900003, -3.422724918999961, 0, null], [114.69857679800009, -3.4227140839999493, 0, null], [114.6986539290001, -3.4227009639999437, 0, null], [114.69872027200006, -3.422689064999929, 0, null], [114.69882139600008, -3.422667396999941, 0, null], [114.69893304700008, -3.4226452649999715, 0, null], [114.69900283700008, -3.4226286739999523, 0, null], [114.69909049600005, -3.422614195999927, 0, null], [114.69915960700007, -3.422606895999934, 0, null], [114.69920043600007, -3.4226040379999745, 0, null], [114.699292678, -3.422610352999925, 0, null], [114.69935638700008, -3.422620088999963, 0, null], [114.69940344600002, -3.422637639999948, 0, null], [114.69943392200003, -3.422652565999954, 0, null], [114.69953734700005, -3.4227188769999657, 0, null], [114.69959951400006, -3.422768057999974, 0, null], [114.6996384470001, -3.4228015359999517, 0, null], [114.69967760800012, -3.422845173999974, 0, null], [114.69971903800001, -3.422902955999973, 0, null], [114.69976154200003, -3.422970720999956, 0, null], [114.69982144500011, -3.4230791879999742, 0, null], [114.69987100100002, -3.4231732839999722, 0, null], [114.69989352000005, -3.423235965999936, 0, null], [114.69990976000008, -3.423317569999938, 0, null], [114.69991707600002, -3.42338786199997, 0, null], [114.69991918400001, -3.423443289999966, 0, null], [114.69991538300008, -3.423520822999933, 0, null], [114.69990355300001, -3.423596330999942, 0, null], [114.69989715400004, -3.4236657669999317, 0, null], [114.69989468200004, -3.42371387999998, 0, null], [114.69989003300009, -3.4238036059999786, 0, null], [114.69988683800011, -3.4238457409999796, 0, null], [114.69986740800005, -3.4239473999999746, 0, null], [114.69984541800011, -3.423994651999976, 0, null], [114.6998046430001, -3.4240395619999617, 0, null], [114.69978503400012, -3.4240538609999476, 0, null], [114.6997661900001, -3.4240647079999462, 0, null], [114.69970501000012, -3.4240728049999802, 0, null], [114.69956089800007, -3.4240863509999713, 0, null], [114.69945050800004, -3.4240930099999787, 0, null], [114.69930833400008, -3.424104616999955, 0, null], [114.69918672500012, -3.424119464999933, 0, null], [114.69904543300004, -3.424134672999969, 0, null], [114.69894560400007, -3.4241484349999496, 0, null], [114.6989402150001, -3.424152751999941, 0, null], [114.69893586600006, -3.4241579749999573, 0, null], [114.69893522300003, -3.424167564999948, 0, null], [114.69893770500005, -3.424179267999932, 0, null], [114.6989413770001, -3.4241896269999756, 0, null], [114.69894715800001, -3.42419849099997, 0, null], [114.69895454800007, -3.4242114179999703, 0, null], [114.69898699700002, -3.424255627999969, 0, null], [114.69904913900007, -3.424326811999947, 0, null], [114.69910685600007, -3.4244198519999713, 0, null], [114.69914622400006, -3.424489841999957, 0, null], [114.69917602800001, -3.4245642559999396, 0, null], [114.699199797, -3.4246461859999613, 0, null], [114.69922101000009, -3.4247618369999486, 0, null], [114.69923689400002, -3.4248722049999287, 0, null], [114.699247506, -3.4249295059999554, 0, null], [114.69926568000005, -3.424996126999929, 0, null], [114.6992887670001, -3.4250657699999465, 0, null], [114.69932975200004, -3.4251329619999638, 0, null], [114.69936423100012, -3.4251859539999714, 0, null], [114.69947670700003, -3.4253039859999603, 0, null], [114.69955141800006, -3.4253702189999444, 0, null], [114.69962732500005, -3.425421566999944, 0, null], [114.69975823900006, -3.4254921479999325, 0, null], [114.69985563500006, -3.425540311999953, 0, null], [114.69988588500007, -3.4255485569999564, 0, null], [114.69990939600007, -3.4255536479999478, 0, null], [114.69994337800006, -3.4255584309999563, 0, null], [114.70002287800003, -3.4255595539999604, 0, null], [114.70009489000006, -3.425558136999939, 0, null], [114.70015432600007, -3.42556062999995, 0, null], [114.70020523700009, -3.4255769789999704, 0, null], [114.70027339400008, -3.4256154269999683, 0, null], [114.70038965900005, -3.4257102439999585, 0, null], [114.70048091300009, -3.4257917039999484, 0, null], [114.7005326520001, -3.4258381029999327, 0, null], [114.70056700300006, -3.42586167099995, 0, null], [114.70067965100009, -3.4259345499999654, 0, null], [114.70073057700006, -3.4259596219999366, 0, null], [114.70075072100008, -3.4259663479999745, 0, null], [114.7007883340001, -3.4258879189999334, 0, null], [114.70077130600009, -3.4258771519999414, 0, null], [114.7007547290001, -3.4258235699999773, 0, null], [114.70077669500006, -3.4257636259999344, 0, null], [114.70082447400011, -3.425747089999959, 0, null], [114.70089120000011, -3.425778184999956, 0, null], [114.70090230500011, -3.4258292769999343, 0, null], [114.70087573400008, -3.425881037999943, 0, null], [114.70082413300008, -3.4259012249999614, 0, null], [114.700800619, -3.4258935479999764, 0, null], [114.70076855500008, -3.425972301999934, 0, null], [114.70079976900001, -3.4259827229999473, 0, null], [114.70090195700004, -3.4260244429999602, 0, null], [114.70090390600001, -3.42602203499996, 0, null], [114.70098032300007, -3.4259354559999338, 0, null], [114.70097957200005, -3.4259332029999428, 0, null], [114.70095305000007, -3.425908252999932, 0, null], [114.70095275000006, -3.4259059919999686, 0, null], [114.70095259300001, -3.4259037409999564, 0, null], [114.70101870300005, -3.4258388049999553, 0, null], [114.70102214400004, -3.4258366889999365, 0, null], [114.7010255890001, -3.425837139999942, 0, null], [114.70110034000004, -3.4259131729999694, 0, null], [114.70110124500002, -3.425918137999929, 0, null], [114.70110093800008, -3.4259187339999357, 0, null], [114.70104081700003, -3.4259807819999537, 0, null], [114.70103588200004, -3.425982893999958, 0, null], [114.70103408300008, -3.4259830439999632, 0, null], [114.70103034200008, -3.4259825919999685, 0, null], [114.70102914600011, -3.4259822909999684, 0, null], [114.70100861500009, -3.425961250999933, 0, null], [114.70100711200007, -3.425961255999937, 0, null], [114.70100562400012, -3.425962906999928, 0, null], [114.70093832100008, -3.4260379009999724, 0, null], [114.70093713300002, -3.4260419569999385, 0, null], [114.70093608200011, -3.4260449739999785, 0, null], [114.70100261900006, -3.4261138089999577, 0, null], [114.70100801100011, -3.4261162079999394, 0, null], [114.70100981100006, -3.4261159049999605, 0, null], [114.7010105600001, -3.4261148579999485, 0, null], [114.70102476500006, -3.42610295999998, 0, null], [114.70108295700004, -3.4260503899999435, 0, null], [114.70109228700005, -3.426043303999961, 0, null], [114.70104645000004, -3.4259853759999714, 0, null], [114.70112305200007, -3.425924165999959, 0, null], [114.70117039400009, -3.4259839949999673, 0, null], [114.70118214100012, -3.42597507499994, 0, null], [114.70120398600011, -3.4259592169999564, 0, null], [114.70118296200008, -3.4259328289999758, 0, null], [114.70120056000007, -3.4259186699999304, 0, null], [114.7011726390001, -3.4258836249999263, 0, null], [114.70115665700007, -3.4258964839999635, 0, null], [114.70113273100003, -3.425866452999969, 0, null], [114.70116298100004, -3.4258421149999663, 0, null], [114.70117628100002, -3.4258588099999656, 0, null], [114.70120934900001, -3.4258322049999492, 0, null], [114.70119621700007, -3.4258157209999354, 0, null], [114.70122578700011, -3.4257919289999563, 0, null], [114.70124909300011, -3.4258211839999717, 0, null], [114.70123428200009, -3.425833099999977, 0, null], [114.70126352400007, -3.4258698039999445, 0, null], [114.70128160000002, -3.425855260999981, 0, null], [114.70130563200007, -3.425885424999933, 0, null], [114.7013145410001, -3.425878958999931, 0, null], [114.70131872800005, -3.4258771519999414, 0, null], [114.70132037500002, -3.425876703999961, 0, null], [114.70133971100006, -3.4258975959999702, 0, null], [114.70134121300009, -3.4259013509999363, 0, null], [114.70134046300007, -3.4259025599999404, 0, null], [114.70134076500005, -3.425904513999967, 0, null], [114.70125877800001, -3.4259655239999347, 0, null], [114.7010354360001, -3.42613950599997, 0, null], [114.7010358870001, -3.426143113999956, 0, null], [114.70103813000003, -3.4261453709999614, 0, null], [114.70104053200009, -3.426145366999947, 0, null], [114.70104800700005, -3.426141750999932, 0, null], [114.70110261900004, -3.4261036359999366, 0, null], [114.70110681300002, -3.4261030309999683, 0, null], [114.701108008, -3.4261036309999326, 0, null], [114.70116421700004, -3.4261730829999806, 0, null], [114.70116481800005, -3.4261772879999626, 0, null], [114.70116347700002, -3.4261813519999578, 0, null], [114.70109930300009, -3.4262342249999733, 0, null], [114.70109466000008, -3.4262384349999593, 0, null], [114.70109271900003, -3.4262417479999385, 0, null], [114.70109227400008, -3.426243409999927, 0, null], [114.70109481800012, -3.4262476199999696, 0, null], [114.70109631800005, -3.4262486719999288, 0, null], [114.70109856900001, -3.426248062999946, 0, null], [114.70109976600008, -3.4262476139999762, 0, null], [114.7011530200001, -3.42620573399995, 0, null], [114.70127405200003, -3.4261203119999664, 0, null], [114.70138550500008, -3.4260340069999415, 0, null], [114.70138894500008, -3.426032197999973, 0, null], [114.70139193300008, -3.426031888999944, 0, null], [114.70139448600003, -3.4260326369999348, 0, null], [114.70140812500006, -3.4260505319999766, 0, null], [114.70141127400007, -3.426054290999957, 0, null], [114.70141337300004, -3.4260601539999698, 0, null], [114.70141292700009, -3.426062710999929, 0, null], [114.70141188500008, -3.426065871999981, 0, null], [114.70140993700011, -3.4260676759999455, 0, null], [114.70140305600012, -3.42607129299995, 0, null], [114.70125404600003, -3.426176598999973, 0, null], [114.70125090700003, -3.4261802159999775, 0, null], [114.70125075300007, -3.4261844279999423, 0, null], [114.70125180900004, -3.426186988999973, 0, null], [114.70133608800006, -3.4263373509999724, 0, null], [114.70133908600008, -3.4263439659999335, 0, null], [114.70133894600008, -3.4263460719999443, 0, null], [114.70133774600004, -3.4263511859999767, 0, null], [114.70132383400005, -3.426360977999934, 0, null], [114.70131740200009, -3.426361134999979, 0, null], [114.70131470600006, -3.4263600889999566, 0, null], [114.70131230600009, -3.4263591879999353, 0, null], [114.70121530000006, -3.4262079369999583, 0, null], [114.70121320600003, -3.4262071809999384, 0, null], [114.70121035500006, -3.4262067309999793, 0, null], [114.70120960600002, -3.426207786999953, 0, null], [114.70111805600004, -3.426276629999961, 0, null], [114.70111521400008, -3.4262802389999365, 0, null], [114.70111282300002, -3.426283405999925, 0, null], [114.70111267400011, -3.426285357999973, 0, null], [114.70111522200011, -3.4262883659999375, 0, null], [114.70111656900008, -3.4262894179999535, 0, null], [114.70111701500002, -3.426290774999927, 0, null], [114.70114245100001, -3.426273298999945, 0, null], [114.7011450010001, -3.4262717859999725, 0, null], [114.701146042, -3.4262726929999303, 0, null], [114.70114709300003, -3.426273291999962, 0, null], [114.70129462700004, -3.426496105999945, 0, null], [114.7012988140001, -3.4264980599999717, 0, null], [114.70130121400007, -3.426498806999973, 0, null], [114.70130360500002, -3.426499408999973, 0, null], [114.7013042100001, -3.426498659999936, 0, null], [114.701400852, -3.426429359999929, 0, null], [114.7014031010001, -3.4264293559999714, 0, null], [114.70140564500002, -3.426429958999961, 0, null], [114.70144117300003, -3.4264806219999286, 0, null], [114.70144807300005, -3.426495508999949, 0, null], [114.70144837900011, -3.4264994239999282, 0, null], [114.70144748300004, -3.42650152799996, 0, null], [114.70144778500003, -3.426503028999946, 0, null], [114.70132668100007, -3.4265850529999398, 0, null], [114.70132668300005, -3.4265882079999415, 0, null], [114.70132668500003, -3.4265909189999775, 0, null], [114.70139035900002, -3.4266761999999744, 0, null], [114.70139125500009, -3.4266777119999574, 0, null], [114.70139409900003, -3.426677103999964, 0, null], [114.70139888400001, -3.426673490999974, 0, null], [114.70140398000001, -3.4266713779999805, 0, null], [114.70140696600004, -3.426671520999946, 0, null], [114.70141056300008, -3.4266721269999607, 0, null], [114.701412215, -3.4266734769999516, 0, null], [114.70145762300001, -3.426726685999938, 0, null], [114.70152199500001, -3.4268057579999436, 0, null], [114.70152709500007, -3.4268099649999613, 0, null], [114.70153248100007, -3.426810709999927, 0, null], [114.70153667000011, -3.4268119129999377, 0, null], [114.70153937000009, -3.426811458999964, 0, null], [114.70154071200011, -3.426810702999944, 0, null], [114.70154744400008, -3.4268055839999647, 0, null], [114.70156434400008, -3.4267876629999705, 0, null], [114.70168652200005, -3.4266404119999265, 0, null], [114.70174422800005, -3.426546157999951, 0, null], [114.70178581900007, -3.4264799519999656, 0, null], [114.7018281170001, -3.426404237999975, 0, null], [114.70186230500008, -3.4263041599999724, 0, null], [114.70190711100008, -3.426191433999975, 0, null], [114.70194624900012, -3.4261089509999465, 0, null], [114.7019561190001, -3.4260967529999675, 0, null], [114.70196375300009, -3.426090578999947, 0, null], [114.7019658480001, -3.4260908739999536, 0, null], [114.7019737820001, -3.4260908659999245, 0, null], [114.70198351500005, -3.426094621999937, 0, null], [114.70203502600009, -3.426104951999946, 0, null], [114.7021564470001, -3.4261164179999355, 0, null], [114.7022289140001, -3.426120406999928, 0, null], [114.70230466400005, -3.426120634999961, 0, null], [114.70231844200009, -3.4261185169999635, 0, null], [114.7023329540001, -3.426113688999976, 0, null], [114.70234328100003, -3.4261097629999426, 0, null], [114.70235241300009, -3.426105391999954, 0, null], [114.70236332800005, -3.4260965049999754, 0, null], [114.7023718480001, -3.4260844659999634, 0, null], [114.70237753000004, -3.426070920999962, 0, null], [114.70240187000002, -3.4260074029999714, 0, null], [114.70242976500003, -3.4259056829999395, 0, null], [114.70245300700003, -3.4257824009999354, 0, null], [114.70246116500005, -3.425699652999981, 0, null], [114.70245363600009, -3.425654526999949, 0, null], [114.70244297400006, -3.425625347999926, 0, null], [114.70241629300006, -3.425591375999943, 0, null], [114.70239816700007, -3.4255763439999782, 0, null], [114.70234709600004, -3.425558945999967, 0, null], [114.70232882900007, -3.425557762999972, 0, null], [114.70227269200007, -3.42555600999998, 0, null], [114.70219019800004, -3.425554581999961, 0, null], [114.70210381800007, -3.4255605379999565, 0, null], [114.70199559600007, -3.42557071899995, 0, null], [114.7018816640001, -3.4255762479999703, 0, null], [114.70175681500007, -3.4255801319999364, 0, null], [114.70159303300011, -3.4255808939999497, 0, null], [114.701468309, -3.4255778999999507, 0, null], [114.70128775, -3.425563479999937, 0, null], [114.70106582900007, -3.4255339819999335, 0, null], [114.70092080200004, -3.4255087279999543, 0, null], [114.7007800670001, -3.425474941999937, 0, null], [114.70059446100004, -3.4254156189999776, 0, null], [114.70047928700001, -3.4253801319999297, 0, null], [114.70039677900002, -3.4253429959999266, 0, null], [114.70036230500011, -3.425317836999966, 0, null], [114.70034710900006, -3.4253001549999453, 0, null], [114.70033578800007, -3.4252871559999676, 0, null], [114.70032881300006, -3.4252734169999712, 0, null], [114.70032055600007, -3.425246882999943, 0, null], [114.70031199100004, -3.4252209549999293, 0, null], [114.70030699300003, -3.4252006029999507, 0, null], [114.70029793200001, -3.4251865609999754, 0, null], [114.70028541900001, -3.4251718949999486, 0, null], [114.70026856300001, -3.4251561619999507, 0, null], [114.70019933000003, -3.425101177999977, 0, null], [114.70003779600006, -3.4249891389999334, 0, null], [114.69991521200006, -3.424907404999942, 0, null], [114.69982688000005, -3.4248343049999335, 0, null], [114.69975335000004, -3.424770505999959, 0, null], [114.69970550400001, -3.4247213499999702, 0, null], [114.69969151800001, -3.424701862999939, 0, null], [114.69968466000012, -3.4246956539999474, 0, null], [114.69967825700007, -3.4246873499999424, 0, null], [114.69968270600009, -3.4246664429999782, 0, null], [114.6996924550001, -3.4246332269999584, 0, null], [114.69969669800003, -3.4246233119999374, 0, null], [114.69970137400003, -3.424616407999963, 0, null], [114.69970571800002, -3.4246165809999525, 0, null], [114.69971244200008, -3.42461842299997, 0, null], [114.69972125200002, -3.4246244829999455, 0, null], [114.6997357250001, -3.42463644999998, 0, null], [114.69974768600002, -3.4246413239999356, 0, null], [114.69976325300001, -3.4246430609999265, 0, null], [114.69979024300005, -3.424637774999951, 0, null], [114.69983032300001, -3.4246203519999767, 0, null], [114.6998703380001, -3.424585175999937, 0, null], [114.69989403800002, -3.4245487129999788, 0, null], [114.69989649600006, -3.42453653299998, 0, null], [114.69989774900012, -3.424524341999927, 0, null], [114.69988710000007, -3.424497042999974, 0, null], [114.69983134300003, -3.4244419829999515, 0, null], [114.69979090100003, -3.424411222999936, 0, null], [114.69978943600006, -3.424402938999947, 0, null], [114.69979067700001, -3.42439571999995, 0, null], [114.69979294600012, -3.424391213999968, 0, null], [114.69988112700003, -3.4243087049999303, 0, null], [114.69995281500007, -3.4242283699999803, 0, null], [114.69999062000011, -3.42417663599997, 0, null], [114.70001298800003, -3.4241368609999654, 0, null], [114.70003993400007, -3.4240484819999324, 0, null], [114.70005843600006, -3.42393973399993, 0, null], [114.7000715900001, -3.423821633999978, 0, null], [114.70007871900009, -3.423650059999943, 0, null], [114.70008172700011, -3.4235318819999634, 0, null], [114.70008375900011, -3.4234232569999676, 0, null], [114.70008593400007, -3.423314586999936, 0, null], [114.70008219800002, -3.4232516429999578, 0, null], [114.70006427400006, -3.4231782429999384, 0, null], [114.70002690500007, -3.4230696759999546, 0, null], [114.69997459500007, -3.422953814999971, 0, null], [114.69992823300004, -3.422859237999944, 0, null], [114.69988236400002, -3.422776929999941, 0, null], [114.69984296700011, -3.422715020999931, 0, null], [114.69977999000002, -3.4226358259999756, 0, null], [114.6997014210001, -3.4225580669999545, 0, null], [114.6996358990001, -3.4225085259999446, 0, null], [114.6995624220001, -3.422464360999925, 0, null], [114.69951345900006, -3.422445937999953, 0, null], [114.69941952800002, -3.422415970999964, 0, null], [114.69930987000009, -3.422387131999926, 0, null], [114.69922472600001, -3.422369253999932, 0, null], [114.69914320200007, -3.422345825999969, 0, null], [114.6990386870001, -3.4223070739999457, 0, null], [114.69890876300008, -3.4222554059999766, 0, null], [114.69880399100009, -3.4222073239999418, 0, null], [114.69877113300004, -3.422187592999933, 0, null], [114.69874466700003, -3.422157959999936, 0, null], [114.69869753300009, -3.422085465999942, 0, null], [114.69866526400006, -3.422037287999956, 0, null]], [[114.69797980100009, -3.4226072419999696, 0, null], [114.6979324350001, -3.4225867519999724, 0, null], [114.69791142300005, -3.4225708999999256, 0, null], [114.69789037900011, -3.422538604999943, 0, null], [114.6978573350001, -3.4224613259999614, 0, null], [114.69783711000002, -3.4224022839999293, 0, null], [114.69782743400003, -3.4223559239999304, 0, null], [114.69782432000011, -3.4223076169999445, 0, null], [114.69782623700007, -3.4222695279999584, 0, null], [114.69782864800004, -3.422246844999961, 0, null], [114.69784473000004, -3.422209756999962, 0, null], [114.69787431500004, -3.4221689149999293, 0, null], [114.6978902940001, -3.422152202999939, 0, null], [114.69793410500006, -3.4221247379999795, 0, null], [114.69796900200004, -3.422104066999964, 0, null], [114.69801953700005, -3.4220898429999806, 0, null], [114.69806705300005, -3.4220815049999374, 0, null], [114.69811052600005, -3.4220744229999696, 0, null], [114.69815421800001, -3.4220704699999374, 0, null], [114.698193747, -3.422069163999936, 0, null], [114.698226997, -3.4220717569999692, 0, null], [114.69826362700007, -3.4220752899999525, 0, null], [114.69834436300005, -3.4220969989999617, 0, null], [114.69836011500001, -3.422103788999948, 0, null], [114.69840410400002, -3.4221336539999356, 0, null], [114.69843968100008, -3.4221637699999405, 0, null], [114.69846930100005, -3.42220988899993, 0, null], [114.69848969300006, -3.4222817769999665, 0, null], [114.6984975800001, -3.422342614999934, 0, null], [114.6984948270001, -3.4223879879999686, 0, null], [114.6984766270001, -3.422434217999978, 0, null], [114.6984418940001, -3.422491599999944, 0, null], [114.69841318700003, -3.4225187849999656, 0, null], [114.6983752640001, -3.4225443029999383, 0, null], [114.69832757500001, -3.422565024999926, 0, null], [114.69822959600003, -3.422595577999971, 0, null], [114.69818400400004, -3.422604190999948, 0, null], [114.69809949700004, -3.422613622999961, 0, null], [114.6980384090001, -3.4226174899999364, 0, null], [114.69797980100009, -3.4226072419999696, 0, null]], [[114.70138026200004, -3.4262589299999604, 0, null], [114.70136935900007, -3.4262393609999435, 0, null], [114.70140412, -3.4262198019999346, 0, null], [114.70142324400001, -3.4262541259999466, 0, null], [114.7014001870001, -3.426267098999972, 0, null], [114.70142054400003, -3.4263036339999644, 0, null], [114.70144390600001, -3.426290488999939, 0, null], [114.7014633870001, -3.426325452999947, 0, null], [114.70142906900003, -3.426344763999964, 0, null], [114.70141887700004, -3.426326470999925, 0, null], [114.70137974600004, -3.4263484879999737, 0, null], [114.70139269700007, -3.426371729999971, 0, null], [114.70135649100007, -3.42639209999993, 0, null], [114.70133721500008, -3.426357502999963, 0, null], [114.70135800000003, -3.426345807999951, 0, null], [114.70133415100008, -3.4263030039999762, 0, null], [114.70132543300008, -3.426305232999937, 0, null], [114.70131150800012, -3.426273705999961, 0, null], [114.70132758700004, -3.4262640659999306, 0, null], [114.70133798000006, -3.4262827199999606, 0, null], [114.70138026200004, -3.4262589299999604, 0, null]], [[114.7013104880001, -3.4259516899999767, 0, null], [114.70132384400006, -3.4259401579999462, 0, null], [114.70132048500011, -3.425936229999934, 0, null], [114.70135957700006, -3.425902479999934, 0, null], [114.70143198700009, -3.4259871759999783, 0, null], [114.7013921250001, -3.4260215909999374, 0, null], [114.70138587200006, -3.4260142779999683, 0, null], [114.70137328700002, -3.4260251439999365, 0, null], [114.7013104880001, -3.4259516899999767, 0, null]], [[114.69485471000007, -3.4240107139999623, 0, null], [114.69489879800005, -3.424005051999927, 0, null], [114.69490141300003, -3.4240256179999733, 0, null], [114.69491017100006, -3.4240244929999335, 0, null], [114.69491328000004, -3.4240489329999377, 0, null], [114.69486043400002, -3.424055720999945, 0, null], [114.69485471000007, -3.4240107139999623, 0, null]], [[114.70116980800003, -3.4256942429999526, 0, null], [114.70119157700003, -3.425672782999925, 0, null], [114.70121206400006, -3.4256937679999737, 0, null], [114.70119029500006, -3.4257152279999445, 0, null], [114.70116980800003, -3.4256942429999526, 0, null]]], [[[114.70127333700009, -3.425908869999944, 0, null], [114.70125929700009, -3.4258912489999602, 0, null], [114.70122130400011, -3.42592181699996, 0, null], [114.70123383600003, -3.4259375469999327, 0, null], [114.70127333700009, -3.425908869999944, 0, null]]]]}, "properties": {"OBJECTID": 29, "NAMOBJ": " ", "FCODE": "DA03080440", "REMARK": "Air Waduk", "SRS_ID": " ", "LCODE": "50406", "METADATA": "RBI500020141015BANJARMASIN", "JNSWDK": null, "SHAPE_Length": 0.03397109195026962, "SHAPE_Area": 4.500902959956329e-06}}]}