{"type": "FeatureCollection", "name": "", "features": [{"type": "Feature", "id": 328, "geometry": {"type": "Polygon", "coordinates": [[[117.54010650200007, 3.358600964000061, 6.008400000006077, null], [117.54010059900008, 3.358604178000064, 6.008400000006077, null], [117.540095543, 3.3586095450000357, 6.008400000006077, null], [117.54009114600001, 3.358617600000059, 6.008499999996275, null], [117.54008634200011, 3.358623120000061, 6.008400000006077, null], [117.54008072700003, 3.3586268230000655, 6.008400000006077, null], [117.54007415600006, 3.3586278310000353, 6.008400000006077, null], [117.54006940300007, 3.358627790000071, 6.008400000006077, null], [117.54006334400003, 3.358626806000075, 6.008400000006077, null], [117.54006068800004, 3.358625269000072, 6.008400000006077, null], [117.5400588230001, 3.3586221770000293, 6.008400000006077, null], [117.54005756000004, 3.3586170390000234, 6.008400000006077, null], [117.54005756600009, 3.3586110420000637, 6.008400000006077, null], [117.54005865900001, 3.3586028990000614, 6.008400000006077, null], [117.54005960900008, 3.358594955000058, 6.008400000006077, null], [117.54005947100006, 3.3585891480000214, 6.008400000006077, null], [117.5400575320001, 3.3585835670000392, 6.008400000006077, null], [117.54005319200007, 3.3585803130000613, 6.008400000006077, null], [117.54001235200008, 3.358565145000057, 6.008400000006077, null], [117.54000531000008, 3.3585608800000273, 6.008499999996275, null], [117.53992654100011, 3.358521056000029, 6.008499999996275, null], [117.53983968800003, 3.3584791550000546, 6.008499999996275, null], [117.53968104, 3.358410958000036, 6.008400000006077, null], [117.53946800000006, 3.358317914000054, 6.008400000006077, null], [117.53943611600005, 3.3583021650000546, 6.008499999996275, null], [117.53942767800004, 3.3582962800000473, 6.008499999996275, null], [117.53942074300005, 3.358289318000061, 6.008499999996275, null], [117.53941146600005, 3.3582784310000307, 6.008499999996275, null], [117.5393444880001, 3.3581057320000696, 6.008400000006077, null], [117.5393430790001, 3.3580965680000645, 6.008400000006077, null], [117.53934365000009, 3.3580868700000224, 6.008400000006077, null], [117.53934527500007, 3.3580801300000758, 6.006899999993038, null], [117.53934721700011, 3.358075705000033, 6.008400000006077, null], [117.53935151500002, 3.3580670000000623, 6.008400000006077, null], [117.53935485900001, 3.3580581500000335, 6.008400000006077, null], [117.5393565820001, 3.3580476460000455, 6.008400000006077, null], [117.53935643900002, 3.3580338500000266, 6.008400000006077, null], [117.53935343900002, 3.3580132610000533, 6.008400000006077, null], [117.53932897300001, 3.3579325600000516, 6.008199999996577, null], [117.53932840400012, 3.3579281200000537, 6.008300000001327, null], [117.539328995, 3.357923208000045, 6.00800000000163, null], [117.53933100000006, 3.3579189890000407, 6.0086000000010245, null], [117.53935696700012, 3.357896758000038, 6.008400000006077, null], [117.53936169000008, 3.3578920860000494, 6.008400000006077, null], [117.53938605600001, 3.357872705000034, 6.008400000006077, null], [117.5393889180001, 3.3578721960000735, 6.008400000006077, null], [117.53939513900002, 3.357872248000035, 6.008400000006077, null], [117.53949565900007, 3.357885346000046, 6.008400000006077, null], [117.53950457100007, 3.3578871860000277, 6.008400000006077, null], [117.53951541200001, 3.3578910420000625, 6.008400000006077, null], [117.53952646900007, 3.3578971970000566, 6.008400000006077, null], [117.53953651000006, 3.3579038320000336, 6.008400000006077, null], [117.53954792900004, 3.357912873000032, 6.008400000006077, null], [117.53956041900005, 3.3579218660000265, 6.008400000006077, null], [117.53956776700011, 3.3579257430000666, 6.008400000006077, null], [117.53959745200007, 3.357938556000022, 6.008400000006077, null], [117.5396451900001, 3.357958576000044, 6.008400000006077, null], [117.53968321200011, 3.357973083000047, 6.008400000006077, null], [117.53970503700009, 3.3579812410000613, 6.008400000006077, null], [117.53972646500006, 3.357988955000053, 6.008400000006077, null], [117.53982797700007, 3.358020841000041, 6.008400000006077, null], [117.53998181500003, 3.3580854210000552, 6.008400000006077, null], [117.53999109900008, 3.3580899030000637, 6.008400000006077, null], [117.54000047200009, 3.358094286000039, 6.008400000006077, null], [117.54001125000002, 3.35809980800002, 6.008400000006077, null], [117.54002536000007, 3.3581072540000605, 6.008400000006077, null], [117.54003937900006, 3.358113633000073, 6.008400000006077, null], [117.54005519800012, 3.3581196320000686, 6.008400000006077, null], [117.54007602200011, 3.358125246000043, 6.008400000006077, null], [117.54014558100005, 3.35814698300004, 6.008400000006077, null], [117.54018504200008, 3.3581586230000653, 6.008400000006077, null], [117.54020484900002, 3.3581642750000356, 6.008400000006077, null], [117.54021396000007, 3.3581664040000305, 6.008400000006077, null], [117.54022376300009, 3.3581666440000504, 6.008400000006077, null], [117.54023240400011, 3.3581662850000384, 6.008400000006077, null], [117.54024033400003, 3.358164896000062, 6.008400000006077, null], [117.5402488850001, 3.358164196000075, 6.008400000006077, null], [117.54025873300009, 3.358164489000046, 6.008400000006077, null], [117.54026780800007, 3.358165697000061, 6.008400000006077, null], [117.54027991600003, 3.3581681510000294, 6.008400000006077, null], [117.54028882900002, 3.3581706240000244, 6.008400000006077, null], [117.54030460400008, 3.3581765770000516, 6.008400000006077, null], [117.54030942200006, 3.35818032800006, 6.008400000006077, null], [117.54031108000004, 3.358184832000063, 6.008400000006077, null], [117.54031093000003, 3.35818996200004, 6.008400000006077, null], [117.5403097630001, 3.3581954640000617, 6.008400000006077, null], [117.54030699300006, 3.358200848000024, 6.008499999996275, null], [117.54030361100001, 3.3582047660000285, 6.008400000006077, null], [117.54029775300012, 3.358208280000042, 6.008400000006077, null], [117.54029206400003, 3.3582093960000634, 6.008400000006077, null], [117.54028598000002, 3.3582110450000755, 6.008400000006077, null], [117.54027990700001, 3.3582163050000418, 6.008400000006077, null], [117.54027619300007, 3.358224278000023, 6.008400000006077, null], [117.54024889800007, 3.358334624000065, 6.008400000006077, null], [117.54024434000007, 3.3583448780000253, 6.008400000006077, null], [117.5402368020001, 3.358356082000057, 6.008400000006077, null], [117.54022719400007, 3.3583665260000544, 6.008400000006077, null], [117.54021788500006, 3.358380200000056, 6.008400000006077, null], [117.54021277900006, 3.358392353000056, 6.008400000006077, null], [117.5402103990001, 3.358402478000073, 6.008400000006077, null], [117.54020907300003, 3.3584146640000654, 6.008400000006077, null], [117.5402076800001, 3.3584343140000215, 6.008400000006077, null], [117.54020524300006, 3.3584560530000545, 6.008400000006077, null], [117.54020253800002, 3.3584798850000652, 6.008400000006077, null], [117.54019810700004, 3.3585081400000263, 6.008400000006077, null], [117.54017575400007, 3.358588196000028, 6.008400000006077, null], [117.54017139400003, 3.3585975710000753, 6.008400000006077, null], [117.54016389100002, 3.3586053550000656, 6.008400000006077, null], [117.54015396300008, 3.3586079940000673, 6.008499999996275, null], [117.54014280100012, 3.3586076020000633, 6.008499999996275, null], [117.54013209700008, 3.358605346000047, 6.008499999996275, null], [117.54012071700004, 3.358602122000036, 6.008400000006077, null], [117.54011209200007, 3.3586005270000214, 6.008499999996275, null], [117.54010650200007, 3.358600964000061, 6.008400000006077, null]]]}, "properties": {"OBJECTID": 328, "NAMOBJ": " ", "FCODE": "DA03080440", "REMARK": "Waduk", "SRS_ID": " ", "LCODE": "DA032000", "METADATA": "RBI500020161207TARAKAN", "JNSWDK": null, "SHAPE_Length": 0.002776545019848652, "SHAPE_Area": 3.892694498229739e-07}}]}