{"type": "FeatureCollection", "name": "Bendungan Teritip", "features": [{"type": "Feature", "properties": {"name": "Waduk Teritip", "kind": "reservoir", "source": "OpenStreetMap relation 18448206"}, "geometry": {"type": "Polygon", "coordinates": [[[116.9686526, -1.1502945], [116.9686627, -1.150322], [116.9688149, -1.1504045], [116.9689308, -1.1504456], [116.9689968, -1.15049], [116.9690833, -1.1506688], [116.9691353, -1.1507394], [116.9691615, -1.1508145], [116.9691859, -1.1509563], [116.9691307, -1.1511595], [116.9692219, -1.151242], [116.9693047, -1.1512914], [116.9696378, -1.1514224], [116.9698098, -1.1514194], [116.9701491, -1.1515095], [116.9702331, -1.1515349], [116.9704469, -1.1516361], [116.9704649, -1.151617], [116.9704987, -1.1515051], [116.9705273, -1.151471], [116.9706142, -1.1514666], [116.9706998, -1.1514864], [116.9707664, -1.1515492], [116.9709026, -1.1515231], [116.9709923, -1.1514891], [116.9711524, -1.1515252], [116.971211, -1.1516956], [116.9712325, -1.151867], [116.9712599, -1.151918], [116.9713287, -1.1519937], [116.971366, -1.1521333], [116.9715787, -1.1522585], [116.9716827, -1.1523388], [116.9717464, -1.1524313], [116.9717715, -1.1525305], [116.9717534, -1.1526105], [116.9717023, -1.152699], [116.9716535, -1.1527392], [116.9715913, -1.1527632], [116.9715071, -1.1528599], [116.9714575, -1.1530038], [116.9714422, -1.1531152], [116.9714001, -1.1531941], [116.9713838, -1.1532075], [116.9713244, -1.1532018], [116.9712398, -1.1532191], [116.9711149, -1.1531875], [116.9711004, -1.1531953], [116.9709306, -1.153535], [116.9708723, -1.1535663], [116.9708493, -1.1536021], [116.9707876, -1.1536445], [116.9707517, -1.1536826], [116.9707398, -1.1537218], [116.9706417, -1.1537838], [116.9705187, -1.1539573], [116.9703544, -1.154036], [116.9702221, -1.1540694], [116.9701055, -1.1541319], [116.9698668, -1.1541943], [116.969781, -1.1542356], [116.9697274, -1.1544332], [116.9696214, -1.1545417], [116.9693725, -1.1546376], [116.9694078, -1.1549132], [116.9696116, -1.1552457], [116.9697297, -1.1553422], [116.9699013, -1.1554173], [116.9701052, -1.1554495], [116.9704163, -1.1554173], [116.9705959, -1.155361], [116.9706924, -1.1552435], [116.9709292, -1.1550462], [116.9710906, -1.1549972], [116.971566, -1.1547986], [116.9718777, -1.1546361], [116.9720046, -1.154479], [116.9720255, -1.1543692], [116.9720835, -1.1541974], [116.972164, -1.1542158], [116.9722694, -1.1542109], [116.9723916, -1.1541501], [116.9723547, -1.1540901], [116.9723548, -1.1540291], [116.9724171, -1.153944], [116.9724571, -1.1538523], [116.9726109, -1.1536666], [116.9726961, -1.1536068], [116.9728219, -1.1534126], [116.9729468, -1.1534442], [116.9729747, -1.1535137], [116.9729712, -1.153586], [116.9729846, -1.1536022], [116.9731016, -1.1536803], [116.9731648, -1.1536932], [116.9731817, -1.1536373], [116.9731114, -1.1535061], [116.9731142, -1.1534764], [116.9731754, -1.1534155], [116.9733396, -1.1533368], [116.9734776, -1.153244], [116.9735003, -1.1530676], [116.9735189, -1.1530061], [116.9735565, -1.1529624], [116.9736041, -1.1529463], [116.9736903, -1.1529845], [116.9737834, -1.1529393], [116.9737826, -1.1527802], [116.9738445, -1.1526157], [116.9738917, -1.15252], [116.9740196, -1.1523998], [116.9740862, -1.1524016], [116.974159, -1.1524235], [116.9742246, -1.1523883], [116.974251, -1.1523413], [116.9743391, -1.1522519], [116.9743829, -1.1522284], [116.974616, -1.1521644], [116.9747601, -1.1520918], [116.9748162, -1.1520477], [116.9749973, -1.151974], [116.9750925, -1.1520028], [116.9752074, -1.1519458], [116.9754494, -1.1519333], [116.9757124, -1.1518111], [116.975847, -1.1516473], [116.975817, -1.1515039], [116.9758418, -1.1514014], [116.9760175, -1.151143], [116.976053, -1.1510254], [116.9761018, -1.1509852], [116.9762392, -1.150935], [116.9762873, -1.1509373], [116.9764325, -1.1509017], [116.9764717, -1.1509135], [116.9767912, -1.1510894], [116.9771053, -1.1512025], [116.9773738, -1.151143], [116.9780664, -1.1513581], [116.9781812, -1.1513622], [116.978254, -1.1513841], [116.9783727, -1.1513955], [116.9786203, -1.1513848], [116.9787436, -1.1513609], [116.9788736, -1.1513756], [116.9789128, -1.1513875], [116.9789961, -1.1514554], [116.979042, -1.1515059], [116.9790794, -1.1515843], [116.9791532, -1.1516433], [116.9795318, -1.1517453], [116.9795749, -1.1517644], [116.9795871, -1.1518047], [116.9795787, -1.1518327], [116.9794194, -1.1519557], [116.9790258, -1.1521667], [116.979001, -1.1522081], [116.9790126, -1.1523521], [116.9790007, -1.1523913], [116.9788257, -1.1525461], [116.978694, -1.152598], [116.9785428, -1.1525524], [116.9783493, -1.1527078], [116.978185, -1.1527865], [116.9779579, -1.1529317], [116.9779494, -1.1529597], [116.9780014, -1.1530304], [116.9780399, -1.1531458], [116.9780464, -1.1532455], [116.978016, -1.1533463], [116.9779896, -1.1533933], [116.9777993, -1.1535985], [116.9777774, -1.1536713], [116.9777772, -1.1537934], [116.9776994, -1.1540509], [116.9775805, -1.1541616], [116.9774873, -1.1543489], [116.9772977, -1.1545115], [116.9771691, -1.1546743], [116.9770755, -1.154701], [116.9769225, -1.1547831], [116.9768175, -1.1549286], [116.9767384, -1.1550085], [116.9767092, -1.1550242], [116.9766241, -1.1550229], [116.9764264, -1.1549694], [116.9763698, -1.154995], [116.9762491, -1.1551113], [116.9761997, -1.1551941], [116.9758761, -1.1553958], [116.9758396, -1.1554764], [116.9758927, -1.155523], [116.9759845, -1.1555629], [116.9760999, -1.1555855], [116.9761686, -1.1553985], [116.9762706, -1.1553438], [116.9764281, -1.1552875], [116.9765648, -1.1552799], [116.9767944, -1.1553491], [116.9768633, -1.1553028], [116.9769795, -1.1551607], [116.9770794, -1.1550931], [116.9771971, -1.1550675], [116.9772186, -1.1549152], [116.9774546, -1.1548215], [116.977654, -1.1548084], [116.9777236, -1.1547805], [116.9778353, -1.1546127], [116.9781072, -1.154481], [116.9782553, -1.1543546], [116.9782831, -1.1541614], [116.9783197, -1.1540198], [116.9784622, -1.1539313], [116.9785502, -1.1539029], [116.9787661, -1.1537543], [116.9788344, -1.1537505], [116.9789464, -1.1537843], [116.9791975, -1.1537012], [116.9793046, -1.1536297], [116.9794046, -1.1535011], [116.9795627, -1.1534022], [116.9796457, -1.1533295], [116.979685, -1.1532803], [116.9797576, -1.1531006], [116.979929, -1.1530791], [116.9805314, -1.1532811], [116.9809882, -1.1517877], [116.9810379, -1.1516254], [116.9810388, -1.1515524], [116.9811223, -1.1515571], [116.9811787, -1.1515678], [116.9812833, -1.1516018], [116.9814466, -1.1516548], [116.981503, -1.1514812], [116.9813405, -1.1514278], [116.9812605, -1.1514015], [116.9812068, -1.1513761], [116.981121, -1.1513224], [116.9811961, -1.1511481], [116.981251, -1.1509943], [116.9813731, -1.1501237], [116.9816154, -1.1471966], [116.9814792, -1.1470814], [116.9812755, -1.1469091], [116.9808677, -1.1465643], [116.9808515, -1.1465167], [116.9807576, -1.1464029], [116.9807263, -1.1463446], [116.9806873, -1.1462106], [116.9806874, -1.1461496], [116.9807528, -1.1459128], [116.9807512, -1.1458573], [116.9805965, -1.1455602], [116.9804937, -1.1453948], [116.9804558, -1.1452979], [116.9804486, -1.1452407], [116.9804056, -1.1451606], [116.9803828, -1.1450743], [116.9803873, -1.145039], [116.9803655, -1.1449897], [116.9802732, -1.1449313], [116.9801811, -1.1448033], [116.9801204, -1.1446201], [116.9801323, -1.1445199], [116.9800249, -1.1443897], [116.9800167, -1.1442956], [116.9800399, -1.1441377], [116.9800339, -1.1440565], [116.9800143, -1.1440201], [116.9797747, -1.1439233], [116.9796443, -1.1438901], [116.9796079, -1.1438486], [116.9795957, -1.1438082], [116.9795742, -1.1435757], [116.9794108, -1.1434898], [116.9792416, -1.1434632], [116.979217, -1.1434435], [116.9790127, -1.1430276], [116.9790128, -1.1429666], [116.9789765, -1.142864], [116.9788297, -1.1425815], [116.9787296, -1.1424475], [116.9785998, -1.1423716], [116.9784693, -1.1423384], [116.9784161, -1.1423529], [116.9783313, -1.1424311], [116.97831, -1.1424613], [116.9782852, -1.1425638], [116.9783248, -1.1426551], [116.9783208, -1.1427089], [116.9781292, -1.1427366], [116.977945, -1.1426383], [116.9777995, -1.1425943], [116.9776324, -1.1426417], [116.9775675, -1.1426343], [116.9774718, -1.1425871], [116.9772519, -1.1424047], [116.9771372, -1.1423395], [116.9770399, -1.1422369], [116.9770024, -1.1422195], [116.9768597, -1.1420848], [116.9767825, -1.1420371], [116.9765682, -1.1419174], [116.9764338, -1.1418769], [116.9764175, -1.1418903], [116.9764012, -1.1419647], [116.9764285, -1.1420158], [116.9764948, -1.1422617], [116.9765589, -1.1424338], [116.9765717, -1.1424926], [116.976548, -1.142571], [116.9766476, -1.1426865], [116.9767443, -1.1427707], [116.9766943, -1.1428961], [116.9766382, -1.1429402], [116.9765646, -1.1430829], [116.9765303, -1.1431154], [116.976537, -1.143154], [116.9766254, -1.1432051], [116.9767542, -1.143244], [116.9769365, -1.1434089], [116.97697, -1.1434801], [116.977031, -1.1435413], [116.9770797, -1.1435621], [116.9771223, -1.1435627], [116.9772355, -1.1435114], [116.9772596, -1.1435125], [116.9776605, -1.1436213], [116.9777036, -1.1436404], [116.9778507, -1.1438008], [116.978154, -1.1439901], [116.9781885, -1.1440982], [116.9781632, -1.1441822], [116.9781166, -1.1442353], [116.9780832, -1.1444268], [116.9780826, -1.1447933], [116.9781126, -1.1449368], [116.978151, -1.1450522], [116.9783702, -1.1453382], [116.9784584, -1.1455114], [116.9785298, -1.1456796], [116.978557, -1.1458527], [116.978522, -1.1459887], [116.9784312, -1.1460468], [116.9783516, -1.1460472], [116.9783297, -1.146059], [116.9782944, -1.1461155], [116.9782366, -1.1461652], [116.9781503, -1.146188], [116.9780505, -1.1461946], [116.9778254, -1.1461511], [116.9777628, -1.1460955], [116.9776873, -1.1459812], [116.9776649, -1.1459744], [116.9776151, -1.1459777], [116.9774525, -1.1460508], [116.9771725, -1.1459663], [116.9770258, -1.1459465], [116.9769744, -1.1458943], [116.976932, -1.1457716], [116.9768727, -1.1457048], [116.9766459, -1.1456669], [116.9766411, -1.1455006], [116.976573, -1.1453823], [116.9764718, -1.1452723], [116.9763078, -1.1451679], [116.9762669, -1.1451616], [116.9762036, -1.1452097], [116.9761486, -1.1452298], [116.9759778, -1.1452088], [116.9759502, -1.1452799], [116.9758891, -1.1453408], [116.9757709, -1.1453479], [116.9757278, -1.1453288], [116.9757127, -1.1453181], [116.9756982, -1.1452649], [116.9757461, -1.1450656], [116.9757445, -1.1450101], [116.9757228, -1.1449608], [116.9755997, -1.1448626], [116.9755087, -1.1449206], [116.9754129, -1.1449345], [116.9753199, -1.1449186], [116.9752819, -1.1448827], [116.9752483, -1.1448726], [116.9751581, -1.1448881], [116.975106, -1.1448785], [116.9750428, -1.1448045], [116.9749273, -1.1448429], [116.9747481, -1.1448499], [116.9746339, -1.1448032], [116.974607, -1.1447707], [116.9745449, -1.1447336], [116.9744458, -1.1446976], [116.974299, -1.1447388], [116.9742664, -1.1447657], [116.9742372, -1.1448424], [116.9742444, -1.1448995], [116.9742314, -1.1449628], [116.9741714, -1.1449996], [116.9739999, -1.1450212], [116.9737832, -1.1450107], [116.9734659, -1.1451105], [116.973308, -1.1450872], [116.9729976, -1.1451035], [116.972717, -1.1450616], [116.9726487, -1.1450654], [116.9726178, -1.1450867], [116.9727032, -1.1452895], [116.9727676, -1.1453395], [116.9731287, -1.1454179], [116.9735659, -1.1456293], [116.9738765, -1.1456968], [116.9739721, -1.145805], [116.974098, -1.1458736], [116.9741361, -1.1459095], [116.9742503, -1.1459562], [116.9744279, -1.1459548], [116.9745533, -1.1460048], [116.9746103, -1.1460587], [116.9746314, -1.1461506], [116.9746778, -1.1462195], [116.9748541, -1.1463033], [116.9750852, -1.146489], [116.9751562, -1.1465777], [116.9752533, -1.1468024], [116.9753646, -1.1468788], [116.9757605, -1.1470043], [116.9758327, -1.1470078], [116.9759246, -1.1469867], [116.9760254, -1.1470171], [116.9763107, -1.1472864], [116.9763387, -1.1472948], [116.9764732, -1.1472743], [116.9765924, -1.1473042], [116.9766624, -1.1473559], [116.976792, -1.1475538], [116.9768815, -1.1476419], [116.9771794, -1.1477073], [116.9772533, -1.1477663], [116.9773101, -1.1479422], [116.9773699, -1.1480275], [116.9776047, -1.1480189], [116.9778361, -1.1479605], [116.9781086, -1.1480488], [116.9783453, -1.1481752], [116.9784125, -1.1481955], [116.9784512, -1.1481888], [116.9784579, -1.1481664], [116.9785443, -1.1480826], [116.9786463, -1.1480889], [116.978723, -1.1481181], [116.9788968, -1.1480484], [116.9790065, -1.1480693], [116.9790349, -1.1481573], [116.9790482, -1.1482957], [116.9791331, -1.148419], [116.979245, -1.1485139], [116.9792567, -1.1485357], [116.9792505, -1.1485766], [116.9792077, -1.1486981], [116.9791023, -1.148764], [116.9790345, -1.1487863], [116.9789337, -1.1487559], [116.9789062, -1.1487659], [116.9788589, -1.1489226], [116.9788101, -1.1489629], [116.9786197, -1.1489054], [116.9785498, -1.1488538], [116.9783735, -1.14877], [116.9783047, -1.1486943], [116.9782291, -1.148641], [116.9781659, -1.148628], [116.9781091, -1.1487147], [116.9780368, -1.1487723], [116.9780131, -1.1488507], [116.9780113, -1.1489173], [116.9780331, -1.1489666], [116.9780302, -1.1489963], [116.9780223, -1.1490428], [116.9780044, -1.1490618], [116.9778109, -1.1491561], [116.9777734, -1.1491387], [116.9777198, -1.1490736], [116.9777014, -1.1490131], [116.9776151, -1.1490359], [116.9775887, -1.1490829], [116.9775264, -1.1491069], [116.9774871, -1.1491561], [116.9774334, -1.1491521], [116.977397, -1.1491106], [116.9773256, -1.1489425], [116.9773624, -1.1487398], [116.9773121, -1.1486635], [116.9772253, -1.1486068], [116.9770702, -1.1485539], [116.9770109, -1.1485482], [116.9767487, -1.1485668], [116.9764949, -1.1485575], [116.9764361, -1.1485702], [116.9763263, -1.1485493], [116.9762491, -1.1485016], [116.9760964, -1.1483395], [116.9760231, -1.148299], [116.9758546, -1.1482299], [116.9756838, -1.1482089], [116.9756351, -1.1481881], [116.9756178, -1.1481645], [116.9754443, -1.1480511], [116.975306, -1.1480032], [116.9752707, -1.1479987], [116.97519, -1.1480232], [116.9750493, -1.1480846], [116.9749496, -1.1480911], [116.9748656, -1.1480658], [116.9747322, -1.1480711], [116.9746573, -1.1479752], [116.9746064, -1.1479415], [116.9745828, -1.1479588], [116.974571, -1.147998], [116.9745139, -1.1480052], [116.9744758, -1.1479693], [116.9743745, -1.1479204], [116.9742373, -1.1479095], [116.9741969, -1.1479218], [116.9741577, -1.14791], [116.9741209, -1.14785], [116.9740679, -1.1476813], [116.9740351, -1.1475065], [116.9739911, -1.1473894], [116.9738865, -1.1472906], [116.9737253, -1.1472175], [116.973644, -1.1472236], [116.9735874, -1.1472492], [116.9735284, -1.1473841], [116.9734555, -1.1474232], [116.9733535, -1.1474169], [116.9732359, -1.1473814], [116.9731823, -1.1473163], [116.9731595, -1.14723], [116.973086, -1.1472506], [116.9729544, -1.1472415], [116.9727799, -1.1470911], [116.9727128, -1.1470097], [116.9727545, -1.1468513], [116.9725766, -1.1467121], [116.972391, -1.1464973], [116.9720304, -1.1463763], [116.9719855, -1.1464238], [116.9719379, -1.14644], [116.9718208, -1.146423], [116.9717492, -1.1463769], [116.9716665, -1.1462665], [116.9715971, -1.1462333], [116.9714183, -1.1462588], [116.9712767, -1.1462221], [116.971046, -1.1461159], [116.9709687, -1.1461292], [116.9706472, -1.1460811], [116.9704998, -1.146116], [116.9703295, -1.1461135], [116.9701654, -1.1460701], [116.9700987, -1.1460683], [116.9700236, -1.1460945], [116.9700067, -1.1461504], [116.9700506, -1.1463897], [116.9700106, -1.1465425], [116.9699909, -1.1465671], [116.9698994, -1.1466678], [116.969854, -1.1466968], [116.9694656, -1.14683], [116.9695259, -1.1469337], [116.9697671, -1.1470859], [116.9699334, -1.1471422], [116.9701115, -1.1471593], [116.9702683, -1.1472066], [116.9703757, -1.1472757], [116.9704406, -1.1473441], [116.9705195, -1.1473863], [116.9706287, -1.1473887], [116.97072, -1.1474101], [116.9708465, -1.1474971], [116.9709904, -1.1475467], [116.9711142, -1.1475413], [116.9716242, -1.1477135], [116.9717771, -1.1477535], [116.9718365, -1.1477592], [116.9718953, -1.1477465], [116.9719681, -1.1477684], [116.9720269, -1.1478167], [116.9720609, -1.1479064], [116.9720658, -1.1480117], [116.9721388, -1.1481089], [116.9723469, -1.1482694], [116.9727074, -1.1483904], [116.9728227, -1.148474], [116.97292, -1.1485767], [116.9730157, -1.1486239], [116.9730717, -1.1486408], [116.9732489, -1.1485599], [116.9734319, -1.1486212], [116.9735588, -1.1487878], [116.9736175, -1.1488971], [116.9738299, -1.1491444], [116.973972, -1.1492606], [116.9740581, -1.1493599], [116.9741352, -1.1495297], [116.9741936, -1.1497611], [116.9741603, -1.1498916], [116.9739319, -1.1501219], [116.9737442, -1.1501569], [116.9735522, -1.1501051], [116.9734194, -1.15012], [116.9733969, -1.1501743], [116.973484, -1.1503105], [116.9734324, -1.1503804], [116.9733096, -1.1504228], [116.9732814, -1.1505364], [116.9732618, -1.150561], [116.9731648, -1.150599], [116.9730213, -1.150629], [116.9728303, -1.1506141], [116.9728012, -1.1506297], [116.9727355, -1.150726], [116.972685, -1.1507718], [116.9726004, -1.150789], [116.9724816, -1.1507776], [116.9723218, -1.1508821], [116.9721704, -1.1509586], [116.9720124, -1.1509964], [116.9718847, -1.1509945], [116.9718287, -1.1509776], [116.9717067, -1.1509164], [116.971616, -1.1508524], [116.9714497, -1.1507961], [116.9713787, -1.1507075], [116.9713, -1.1505432], [116.9710347, -1.1504509], [116.9709614, -1.1503494], [116.9709425, -1.1502704], [116.9709057, -1.1502104], [116.9707636, -1.1500943], [116.9706831, -1.1499967], [116.9707459, -1.1502539], [116.9708219, -1.1503867], [116.9708717, -1.1505732], [116.9708907, -1.1505911], [116.970885, -1.1506505], [116.9707257, -1.1507734], [116.9706394, -1.1507963], [116.9704563, -1.1507349], [116.9704361, -1.150741], [116.9704141, -1.1508138], [116.9703692, -1.1508613], [116.9703379, -1.1508641], [116.9701923, -1.1508202], [116.9700015, -1.1506832], [116.9698247, -1.1505199], [116.9696635, -1.1504468], [116.969561, -1.150422], [116.9693358, -1.1504396], [116.9691662, -1.1503945], [116.9691107, -1.1503961], [116.9688139, -1.1503065], [116.9686616, -1.150285], [116.9686526, -1.1502945]]]}}, {"type": "Feature", "properties": {"name": "Bendungan Teritip", "kind": "dam", "source": "OpenStreetMap relation 18448205"}, "geometry": {"type": "MultiPolygon", "coordinates": [[[[116.9805088, -1.1533578], [116.9813208, -1.1536135], [116.9813845, -1.1534175], [116.981393, -1.153391], [116.9814027, -1.1533605], [116.9814187, -1.1533102], [116.9814377, -1.153256], [116.9816427, -1.1526713], [116.9819505, -1.1517898], [116.9818437, -1.1517539], [116.9818481, -1.1517408], [116.9816317, -1.1516691], [116.9814885, -1.1516684], [116.9814466, -1.1516548], [116.9812833, -1.1516018], [116.9811787, -1.1515678], [116.9811223, -1.1515571], [116.9810388, -1.1515524], [116.9810379, -1.1516254], [116.9809882, -1.1517877], [116.9805314, -1.1532811], [116.9805088, -1.1533578]]], [[[116.981121, -1.1513224], [116.9812068, -1.1513761], [116.9812605, -1.1514015], [116.9813405, -1.1514278], [116.981503, -1.1514812], [116.981553, -1.1514976], [116.9818895, -1.151608], [116.9819055, -1.1516013], [116.9819538, -1.1516187], [116.9819579, -1.1516442], [116.9822914, -1.151748], [116.9823387, -1.151612], [116.9823495, -1.1515678], [116.9823106, -1.1514753], [116.9823052, -1.1514297], [116.9823293, -1.1513372], [116.9823508, -1.1513063], [116.9823588, -1.1512835], [116.9823508, -1.1512098], [116.9823267, -1.1511722], [116.9822797, -1.1511468], [116.9822516, -1.1511427], [116.9821563, -1.1511025], [116.9821376, -1.1510797], [116.9821134, -1.1510167], [116.9820786, -1.1509805], [116.9820718, -1.1509229], [116.9820933, -1.1508866], [116.9821148, -1.1508612], [116.9821671, -1.150837], [116.982218, -1.1506869], [116.9822066, -1.150659], [116.9821818, -1.1505984], [116.9822784, -1.1499467], [116.9824406, -1.1484678], [116.9825193, -1.147292], [116.982357, -1.147016], [116.9818808, -1.1468885], [116.9815408, -1.146966], [116.9814792, -1.1470814], [116.9816154, -1.1471966], [116.9813731, -1.1501237], [116.981251, -1.1509943], [116.9811961, -1.1511481], [116.981121, -1.1513224]]]]}}]}