{"type": "FeatureCollection", "name": "Bendungan Manggar", "features": [{"type": "Feature", "properties": {"name": "Waduk Manggar", "kind": "reservoir", "source": "OpenStreetMap relation 384266"}, "geometry": {"type": "Polygon", "coordinates": [[[116.8959763, -1.1512828], [116.8959877, -1.1513293], [116.896021, -1.1513652], [116.8960605, -1.1513802], [116.896143, -1.1513766], [116.896229, -1.1513679], [116.8963659, -1.1513519], [116.8964558, -1.1513574], [116.8965725, -1.1514065], [116.8966501, -1.1514688], [116.8967247, -1.1515486], [116.8969089, -1.1518872], [116.8969598, -1.1520679], [116.8969458, -1.1522012], [116.8969212, -1.1523451], [116.8969388, -1.1524416], [116.8969861, -1.1525802], [116.8972713, -1.1529424], [116.8973932, -1.1530468], [116.8975555, -1.1531451], [116.8979319, -1.1534161], [116.8980574, -1.1534521], [116.8981723, -1.1534775], [116.8982943, -1.1535135], [116.8983355, -1.153553], [116.8983671, -1.1536144], [116.8983627, -1.1536701], [116.8983329, -1.1537315], [116.8983153, -1.1537929], [116.8983153, -1.1538424], [116.8983311, -1.1538968], [116.8983575, -1.1539398], [116.8984119, -1.1539898], [116.8984452, -1.154003], [116.8985268, -1.1540082], [116.8986075, -1.1540021], [116.8986584, -1.1540315], [116.8986689, -1.1540499], [116.898683, -1.1541078], [116.8986781, -1.154156], [116.8985794, -1.1542885], [116.8985448, -1.1543468], [116.8985373, -1.1543951], [116.8985487, -1.1544288], [116.8985685, -1.1544451], [116.8986163, -1.1544543], [116.8987084, -1.1544731], [116.8987856, -1.1544968], [116.898826, -1.1545582], [116.898847, -1.1546179], [116.8988365, -1.1547196], [116.8988567, -1.1547933], [116.8988804, -1.154824], [116.8989392, -1.1548644], [116.899076, -1.1549293], [116.8991401, -1.1549416], [116.8991962, -1.154988], [116.8992173, -1.1551021], [116.8992015, -1.1551758], [116.8991918, -1.1552468], [116.8992024, -1.1553021], [116.8992234, -1.1553328], [116.8995419, -1.1554828], [116.8997893, -1.1556389], [116.899956, -1.1557609], [116.9000227, -1.1558223], [116.9000745, -1.1559196], [116.9000911, -1.1560609], [116.9001078, -1.1561161], [116.9001631, -1.1561503], [116.9002324, -1.1561345], [116.9002754, -1.1561126], [116.9003623, -1.1560696], [116.9004377, -1.1560398], [116.9005298, -1.1560354], [116.9006184, -1.1560398], [116.9009782, -1.1560854], [116.9011028, -1.1561275], [116.9011861, -1.1561898], [116.9013326, -1.1562793], [116.9014449, -1.1563696], [116.9015239, -1.1564766], [116.9015564, -1.1565494], [116.901559, -1.1566758], [116.9015177, -1.1567547], [116.9013787, -1.1569122], [116.9013703, -1.1569416], [116.9013752, -1.1569964], [116.9014002, -1.1570652], [116.901455, -1.1571639], [116.9015134, -1.1572078], [116.9015607, -1.1572161], [116.901616, -1.1572065], [116.9016735, -1.157174], [116.9018003, -1.1571187], [116.9018902, -1.1571183], [116.9019363, -1.1571389], [116.9020459, -1.1572687], [116.9021486, -1.1573942], [116.9022144, -1.1574837], [116.9022547, -1.1575872], [116.9022854, -1.157717], [116.9023372, -1.1578933], [116.9023916, -1.1580644], [116.9024653, -1.1582012], [116.9025039, -1.1583503], [116.9025434, -1.1585231], [116.9025776, -1.1587038], [116.9026259, -1.1587977], [116.9026768, -1.1588652], [116.9027513, -1.1589354], [116.9028426, -1.1589898], [116.9029198, -1.1590328], [116.9029637, -1.1590714], [116.9030558, -1.1592047], [116.9032646, -1.1594222], [116.9033756, -1.1595652], [116.9034462, -1.1596841], [116.9034949, -1.1597819], [116.9035076, -1.1598262], [116.9035045, -1.1598661], [116.903501, -1.1598937], [116.9034852, -1.1599222], [116.9034563, -1.1599385], [116.9034072, -1.1599481], [116.9032593, -1.1599573], [116.9031032, -1.1599652], [116.9029198, -1.1599828], [116.9027522, -1.16001], [116.9027162, -1.1600152], [116.9026846, -1.1600091], [116.9026311, -1.1599328], [116.9025855, -1.1598635], [116.9025495, -1.1597986], [116.9025206, -1.1597635], [116.9024969, -1.1597459], [116.9024337, -1.1597512], [116.9023863, -1.1597968], [116.9023512, -1.1598275], [116.9022872, -1.1598398], [116.9022275, -1.1598179], [116.902153, -1.1597635], [116.9021126, -1.1597047], [116.9020652, -1.1596082], [116.9020205, -1.1595556], [116.901967, -1.15951], [116.9018731, -1.159424], [116.9017459, -1.1592933], [116.9016616, -1.1591994], [116.9015274, -1.1590898], [116.9013853, -1.1589898], [116.9012072, -1.1588845], [116.9009141, -1.158731], [116.9006869, -1.1585661], [116.900593, -1.1584942], [116.9005184, -1.1584152], [116.9004781, -1.1583451], [116.90045, -1.1582766], [116.9004447, -1.158167], [116.9004465, -1.1581144], [116.9004307, -1.1580696], [116.9003868, -1.1580503], [116.9003473, -1.1580494], [116.9002657, -1.1580731], [116.9001412, -1.1581258], [116.9000701, -1.1581793], [116.9000341, -1.1582494], [116.8999784, -1.158385], [116.8999157, -1.158513], [116.8998915, -1.1585341], [116.899845, -1.1585455], [116.8997477, -1.1585367], [116.8996182, -1.1585065], [116.8995428, -1.1584968], [116.8992936, -1.1585644], [116.8991366, -1.1585828], [116.8989585, -1.1585661], [116.8988462, -1.158531], [116.8987703, -1.1584902], [116.8987378, -1.1584841], [116.898711, -1.1584898], [116.8986452, -1.158524], [116.8985277, -1.1585354], [116.8983969, -1.1585363], [116.8982899, -1.1585126], [116.8981908, -1.1584898], [116.8981048, -1.1584828], [116.897989, -1.1584951], [116.8978758, -1.158517], [116.8977179, -1.1585258], [116.8975143, -1.1585214], [116.8974275, -1.1585284], [116.8973485, -1.1585451], [116.8972476, -1.1585328], [116.8971774, -1.15851], [116.8971204, -1.1584766], [116.8970862, -1.1584275], [116.8970572, -1.1583819], [116.8970291, -1.1583494], [116.89698, -1.1583187], [116.8968537, -1.1582521], [116.8967721, -1.1582012], [116.896672, -1.1581012], [116.8965975, -1.158031], [116.8965387, -1.1579977], [116.8964676, -1.1579828], [116.8963992, -1.1579915], [116.8963588, -1.158017], [116.8963176, -1.1580819], [116.8962412, -1.1582845], [116.8960737, -1.1587293], [116.8959991, -1.1590547], [116.8960052, -1.1591503], [116.8960438, -1.1592722], [116.8961053, -1.1593319], [116.8961737, -1.1593442], [116.8962439, -1.1593258], [116.8963246, -1.159281], [116.8964018, -1.1592354], [116.8964913, -1.1592222], [116.8965738, -1.1592249], [116.8967098, -1.1592924], [116.8968019, -1.159388], [116.896851, -1.1594538], [116.8968975, -1.1595319], [116.8969221, -1.1595977], [116.8969756, -1.1596494], [116.8970326, -1.1596643], [116.8970853, -1.1596652], [116.8971616, -1.1596591], [116.897216, -1.1596354], [116.8972704, -1.1595854], [116.8973046, -1.1595407], [116.8973476, -1.1595135], [116.897402, -1.1595021], [116.8975038, -1.1595012], [116.8975933, -1.159488], [116.8976678, -1.1594372], [116.8977565, -1.1593749], [116.8977951, -1.159367], [116.8978091, -1.1593705], [116.8978442, -1.1594021], [116.8978749, -1.1594486], [116.8979004, -1.1594749], [116.8979407, -1.1594889], [116.8979776, -1.1594758], [116.8980162, -1.1594503], [116.8980793, -1.1593714], [116.8981258, -1.1593538], [116.8981601, -1.1593643], [116.8981916, -1.159381], [116.8982513, -1.1594056], [116.8983882, -1.1594744], [116.8984408, -1.1595113], [116.8984926, -1.159581], [116.8985119, -1.1596477], [116.8985193, -1.1597679], [116.8985461, -1.1599731], [116.8985645, -1.160067], [116.8985636, -1.1601424], [116.8985391, -1.1602643], [116.8985119, -1.1603661], [116.898477, -1.1604455], [116.8984704, -1.1604898], [116.8984687, -1.1605176], [116.8984744, -1.1605378], [116.8984963, -1.1605639], [116.8985268, -1.1605689], [116.8985606, -1.160563], [116.898604, -1.1605415], [116.8987005, -1.1604345], [116.8988163, -1.1602328], [116.8989707, -1.1599924], [116.8990392, -1.1598784], [116.8990743, -1.1598029], [116.8991059, -1.1597336], [116.8991085, -1.159645], [116.8991006, -1.1595836], [116.8991067, -1.15951], [116.8991322, -1.1594512], [116.8991734, -1.1594143], [116.8992401, -1.1594108], [116.8994454, -1.1594258], [116.8996972, -1.1595073], [116.8999543, -1.159595], [116.9001122, -1.159631], [116.9002622, -1.159667], [116.9003728, -1.1597179], [116.9005377, -1.1597907], [116.9006667, -1.1598565], [116.9007658, -1.1599056], [116.900815, -1.1599503], [116.9008466, -1.1600021], [116.9008422, -1.1600705], [116.9008167, -1.1601126], [116.9007465, -1.160145], [116.9006088, -1.1601626], [116.9004544, -1.1601828], [116.9002986, -1.160185], [116.9002328, -1.1601753], [116.9001701, -1.1601788], [116.9000749, -1.1602288], [116.8999192, -1.1603398], [116.8997591, -1.160456], [116.8996955, -1.1605043], [116.8996397, -1.1605301], [116.8996073, -1.1605499], [116.8995836, -1.1605832], [116.8995796, -1.1606165], [116.899588, -1.160667], [116.8995875, -1.1607275], [116.899581, -1.160781], [116.8995353, -1.1608341], [116.8994765, -1.1608692], [116.8994375, -1.1608924], [116.8994134, -1.1609179], [116.8993967, -1.1609714], [116.8993954, -1.1610442], [116.8993919, -1.1610924], [116.8993805, -1.1611442], [116.8993515, -1.1612025], [116.8992905, -1.1612863], [116.8992234, -1.1613955], [116.8991826, -1.1614332], [116.8991221, -1.16147], [116.8990747, -1.161513], [116.8990352, -1.1616021], [116.8989637, -1.1618266], [116.8989453, -1.1619696], [116.89894, -1.162031], [116.8989813, -1.162117], [116.899012, -1.1621319], [116.8990813, -1.1621205], [116.899148, -1.1620731], [116.8992322, -1.1619784], [116.8992866, -1.1618766], [116.8993454, -1.161788], [116.8994279, -1.1617301], [116.8995682, -1.1617222], [116.8996805, -1.1617354], [116.8997305, -1.1617293], [116.8997525, -1.1617108], [116.8997718, -1.1616652], [116.8997744, -1.1615968], [116.8997691, -1.1615459], [116.8997893, -1.1614126], [116.899813, -1.1613652], [116.8998613, -1.1613231], [116.8999157, -1.1613082], [116.8999587, -1.1613095], [116.899978, -1.1613108], [116.9000017, -1.1613218], [116.9000201, -1.161335], [116.9000486, -1.1613516], [116.9000767, -1.1613591], [116.9000929, -1.1613499], [116.9001078, -1.1613196], [116.9001069, -1.1612836], [116.9001157, -1.1612297], [116.9001618, -1.161185], [116.9002241, -1.1611573], [116.9002947, -1.1611459], [116.9003377, -1.1611442], [116.9004145, -1.1611784], [116.900457, -1.1612069], [116.9005132, -1.1612275], [116.90055, -1.1612279], [116.900582, -1.1612108], [116.9006136, -1.1611722], [116.9006772, -1.1611218], [116.9007751, -1.1610972], [116.9008452, -1.1610968], [116.9009356, -1.1611139], [116.9009847, -1.1611336], [116.9009979, -1.1611643], [116.9010163, -1.1612705], [116.9010457, -1.1613468], [116.9010984, -1.1614091], [116.9011602, -1.1614678], [116.9012519, -1.1614959], [116.901337, -1.1615012], [116.9014054, -1.1614784], [116.9014247, -1.1614578], [116.9014493, -1.1613942], [116.9014616, -1.1613367], [116.9014914, -1.1612648], [116.9015169, -1.1612429], [116.9015621, -1.1612236], [116.9016099, -1.1612165], [116.9016428, -1.1612209], [116.901677, -1.161238], [116.9017055, -1.1612828], [116.901727, -1.1613231], [116.9017998, -1.161417], [116.9019091, -1.1614687], [116.9020029, -1.1615477], [116.9020626, -1.1616135], [116.9021345, -1.1616714], [116.9022091, -1.1616959], [116.9023056, -1.1617064], [116.9025451, -1.1616994], [116.9027057, -1.1616678], [116.9028005, -1.1616319], [116.9028505, -1.1616266], [116.9028671, -1.1616371], [116.9028777, -1.1616687], [116.902875, -1.1617056], [116.9028443, -1.1617477], [116.9027934, -1.1617942], [116.9026838, -1.1618757], [116.9025601, -1.1619749], [116.9023687, -1.1620947], [116.902088, -1.1622275], [116.9019863, -1.1622678], [116.9018696, -1.1623038], [116.9017555, -1.1623336], [116.90163, -1.1623652], [116.9015335, -1.1623968], [116.9014265, -1.1624766], [116.9013177, -1.1625898], [116.901208, -1.1626828], [116.9011615, -1.1627442], [116.9011528, -1.1627898], [116.9011624, -1.1628292], [116.9011984, -1.1628635], [116.9012659, -1.1628696], [116.90138, -1.1628626], [116.901473, -1.1628608], [116.9015625, -1.1628906], [116.9016169, -1.1629713], [116.9016099, -1.1630415], [116.90158, -1.1633126], [116.9015441, -1.1635003], [116.9015441, -1.163581], [116.9015695, -1.1636222], [116.9016064, -1.1636275], [116.9016336, -1.1635924], [116.9016625, -1.163524], [116.9017046, -1.1634547], [116.901766, -1.1633915], [116.9019292, -1.1632117], [116.9021916, -1.162924], [116.9022381, -1.1628687], [116.9022828, -1.1628433], [116.9023188, -1.1628459], [116.9023574, -1.1628617], [116.9023758, -1.1628828], [116.9024162, -1.1629538], [116.9024521, -1.1630512], [116.9025109, -1.1631529], [116.902575, -1.1632363], [116.9026224, -1.163274], [116.9026465, -1.1632817], [116.9026719, -1.1632626], [116.9027259, -1.1631718], [116.9027636, -1.1630485], [116.9027864, -1.1629985], [116.9028206, -1.1629906], [116.9028803, -1.1630143], [116.9029207, -1.1630792], [116.9029505, -1.1631319], [116.9030102, -1.1631863], [116.903247, -1.1633047], [116.9034708, -1.1634099], [116.9035462, -1.1634354], [116.9036068, -1.1634415], [116.9036612, -1.1634275], [116.9037313, -1.1633757], [116.9038349, -1.1631836], [116.9038559, -1.1631038], [116.9038858, -1.163081], [116.9039288, -1.1630784], [116.9040376, -1.1631012], [116.9040841, -1.1630959], [116.904113, -1.1630731], [116.9041332, -1.1630292], [116.9041227, -1.1629582], [116.9040832, -1.1628836], [116.9039691, -1.1627854], [116.9037928, -1.1626292], [116.9037638, -1.1625257], [116.9037743, -1.1624328], [116.9038217, -1.1623626], [116.9039042, -1.1622994], [116.9040542, -1.1622494], [116.9041621, -1.1622398], [116.9042183, -1.1622556], [116.9042516, -1.1622959], [116.9042639, -1.1623564], [116.9042736, -1.1624547], [116.9043192, -1.1625661], [116.9043788, -1.1626512], [116.9044596, -1.1627161], [116.9045341, -1.1627485], [116.9046587, -1.1627398], [116.9047781, -1.1626977], [116.9049439, -1.1625959], [116.905079, -1.1624494], [116.9052123, -1.1622205], [116.9053861, -1.1619924], [116.9055071, -1.1618415], [116.9056581, -1.1616994], [116.9057756, -1.1616626], [116.905902, -1.1616415], [116.906009, -1.161624], [116.9061195, -1.1615801], [116.9061827, -1.1615047], [116.9062038, -1.1614117], [116.9062029, -1.1612972], [116.9061845, -1.1612253], [116.9061709, -1.1611889], [116.9061533, -1.1611556], [116.9061213, -1.1611279], [116.9060967, -1.161106], [116.9060827, -1.1610709], [116.9060805, -1.1610279], [116.9060989, -1.1609801], [116.9061419, -1.1608898], [116.9061818, -1.1608266], [116.9062051, -1.1607784], [116.9062275, -1.1607398], [116.906252, -1.1607218], [116.9062968, -1.16072], [116.9063415, -1.160735], [116.9063845, -1.160763], [116.9064271, -1.1607994], [116.9065486, -1.160888], [116.9069548, -1.1612152], [116.9070794, -1.161317], [116.9071329, -1.1613898], [116.9071496, -1.1614635], [116.9071373, -1.161524], [116.9071013, -1.1615705], [116.9070338, -1.1616082], [116.9069583, -1.1616214], [116.9067561, -1.1616442], [116.9066354, -1.1616678], [116.9065372, -1.1617183], [116.9064889, -1.1617564], [116.9064486, -1.1618082], [116.9064205, -1.1618543], [116.9063823, -1.1619034], [116.9063455, -1.1619249], [116.906299, -1.1619437], [116.9062604, -1.1619556], [116.9062033, -1.1619902], [116.9061709, -1.1620529], [116.9061603, -1.1621292], [116.9061301, -1.1622143], [116.9060792, -1.1622985], [116.9060125, -1.162367], [116.9058949, -1.1624161], [116.905816, -1.1624363], [116.9057239, -1.1624643], [116.90563, -1.1625126], [116.9055931, -1.1625319], [116.9055045, -1.1626012], [116.9054343, -1.1627108], [116.9053772, -1.1628465], [116.9052957, -1.1629775], [116.905197, -1.1630643], [116.9051145, -1.1631187], [116.9049908, -1.1631424], [116.9048267, -1.1631538], [116.9047008, -1.1631595], [116.9045574, -1.1631494], [116.9044131, -1.1630955], [116.9043495, -1.1630613], [116.9043008, -1.1630586], [116.9042534, -1.1630801], [116.9042288, -1.1631139], [116.9042187, -1.1631547], [116.9042301, -1.1632389], [116.9042626, -1.1633056], [116.9043148, -1.1634494], [116.9043587, -1.1635108], [116.9044359, -1.1635705], [116.9045043, -1.1636257], [116.9046201, -1.1637161], [116.9047956, -1.163845], [116.9049518, -1.1639231], [116.9050448, -1.1639529], [116.9051395, -1.1639898], [116.905186, -1.1640371], [116.9052615, -1.1641257], [116.9053036, -1.1641924], [116.9053317, -1.1643161], [116.9053282, -1.1643731], [116.9053124, -1.164417], [116.9052229, -1.1644906], [116.905065, -1.1645766], [116.9048289, -1.1646406], [116.9044894, -1.1647056], [116.9043481, -1.1647582], [116.904242, -1.1648196], [116.9041656, -1.1648827], [116.9040533, -1.1649994], [116.9039156, -1.1650889], [116.9037656, -1.1651275], [116.9036436, -1.1651547], [116.9035313, -1.165117], [116.9034497, -1.1650327], [116.9033979, -1.1649687], [116.9033532, -1.1649547], [116.9033058, -1.1649643], [116.9032699, -1.1650029], [116.9032497, -1.1650731], [116.9032374, -1.1651213], [116.9032119, -1.1651863], [116.9031865, -1.165217], [116.9031295, -1.1652424], [116.9030619, -1.1652722], [116.9029961, -1.1652845], [116.9029531, -1.1652836], [116.9029014, -1.1652652], [116.9028575, -1.1652336], [116.9028127, -1.1651819], [116.9027768, -1.1651564], [116.9026759, -1.1651257], [116.9025372, -1.1651196], [116.9024013, -1.1651503], [116.9022302, -1.165188], [116.9020547, -1.1652178], [116.9019828, -1.1652441], [116.9019477, -1.1652854], [116.9019424, -1.1653327], [116.9019406, -1.1653766], [116.9019354, -1.1654143], [116.901902, -1.1654468], [116.9018322, -1.1654575], [116.9017249, -1.1654896], [116.9015564, -1.1655827], [116.9013923, -1.1657248], [116.9012817, -1.1657591], [116.9011519, -1.1657424], [116.9008887, -1.1656968], [116.9007158, -1.165652], [116.9006439, -1.1656547], [116.9005483, -1.1657003], [116.9004491, -1.165802], [116.900321, -1.1658582], [116.9002394, -1.1658573], [116.9001517, -1.1658126], [116.9001008, -1.1657161], [116.9001052, -1.1656468], [116.900128, -1.1655713], [116.9001745, -1.1654573], [116.9001815, -1.1653959], [116.9001666, -1.165345], [116.9001131, -1.1653091], [116.9000341, -1.1652898], [116.8998797, -1.1653029], [116.8997858, -1.1653257], [116.8997086, -1.1653161], [116.8996507, -1.1652775], [116.8996244, -1.1652257], [116.8996182, -1.1651503], [116.8996674, -1.1649687], [116.8996805, -1.1649073], [116.8996691, -1.1648696], [116.8996428, -1.1648336], [116.8995463, -1.1647845], [116.8994621, -1.1647608], [116.8994015, -1.1647591], [116.8993656, -1.164781], [116.8993471, -1.1648196], [116.8993533, -1.1648819], [116.8993515, -1.164945], [116.8993296, -1.1649959], [116.8992936, -1.1650292], [116.8992296, -1.165031], [116.8991673, -1.1650099], [116.899105, -1.164945], [116.8990234, -1.1648415], [116.8989558, -1.1648091], [116.8987549, -1.1647538], [116.8985531, -1.1646977], [116.8984803, -1.1646371], [116.8984478, -1.1645757], [116.8984303, -1.1645091], [116.8984233, -1.1644327], [116.8984048, -1.1643713], [116.8983689, -1.1643143], [116.8983145, -1.1642775], [116.8982101, -1.1642275], [116.8979969, -1.1641573], [116.8977705, -1.1640819], [116.8976161, -1.1640538], [116.8974494, -1.1640608], [116.8973248, -1.1641275], [116.8973073, -1.1641924], [116.8973318, -1.1643082], [116.8974301, -1.1644047], [116.8975477, -1.1645134], [116.8976257, -1.1645661], [116.8977056, -1.1646073], [116.8977942, -1.1646319], [116.8978828, -1.1646643], [116.8979144, -1.1646906], [116.897939, -1.1647284], [116.8979565, -1.164795], [116.8978942, -1.165038], [116.8978872, -1.165095], [116.8978986, -1.1651371], [116.8979539, -1.1651827], [116.8980328, -1.1651994], [116.8981127, -1.1651863], [116.8981802, -1.1652029], [116.8982627, -1.1652398], [116.8983443, -1.165302], [116.8984566, -1.1653481], [116.8985207, -1.1653626], [116.8986101, -1.1653959], [116.8986439, -1.1654235], [116.8986562, -1.1654687], [116.8986694, -1.165549], [116.8986939, -1.1655819], [116.8987347, -1.165602], [116.8988453, -1.1656064], [116.8989321, -1.1656275], [116.8989927, -1.1656591], [116.8990278, -1.1657091], [116.8990365, -1.1657582], [116.8990374, -1.1658196], [116.8990383, -1.165881], [116.8990576, -1.1659117], [116.8990839, -1.1659336], [116.8991203, -1.165956], [116.8991664, -1.1660055], [116.8992076, -1.1660871], [116.8992586, -1.1662244], [116.8992653, -1.1662834], [116.8992653, -1.1663907], [116.8992452, -1.166447], [116.8991674, -1.1664792], [116.8990736, -1.1665127], [116.8989073, -1.1666092], [116.8988134, -1.166691], [116.898682, -1.16686], [116.8986619, -1.1669471], [116.8986538, -1.1670396], [116.8986779, -1.1670825], [116.8987893, -1.1671885], [116.898808, -1.1672475], [116.8987839, -1.1673078], [116.8987048, -1.1673815], [116.8985639, -1.1674459], [116.8984942, -1.1674459], [116.8984124, -1.1674298], [116.8983333, -1.1673936], [116.8982582, -1.1673266], [116.8981938, -1.1672582], [116.8981093, -1.1671911], [116.898057, -1.1671616], [116.8980074, -1.1671683], [116.8979564, -1.1671898], [116.8979095, -1.1672542], [116.8979135, -1.167348], [116.8979859, -1.1674593], [116.8983205, -1.1676665], [116.8983708, -1.1677308], [116.8983769, -1.1677677], [116.8983702, -1.1678193], [116.8983373, -1.167877], [116.8982079, -1.1679501], [116.8979055, -1.1680815], [116.8977821, -1.168115], [116.8976614, -1.1681378], [116.8974575, -1.1681512], [116.8973382, -1.1681351], [116.8972899, -1.168115], [116.8972188, -1.1680815], [116.8971826, -1.168068], [116.8971477, -1.168064], [116.8971062, -1.1680908], [116.89707, -1.1681659], [116.8970726, -1.1682598], [116.8970954, -1.1683362], [116.897137, -1.1683872], [116.8972859, -1.1685092], [116.897373, -1.1686352], [116.8974213, -1.1687572], [116.8975098, -1.1688296], [116.8976279, -1.1688699], [116.8977707, -1.168959], [116.8977801, -1.1690106], [116.8977566, -1.169083], [116.8976869, -1.1692453], [116.8976493, -1.1695027], [116.8976788, -1.169555], [116.8978183, -1.169606], [116.8979028, -1.169606], [116.8979578, -1.1695805], [116.8980235, -1.1695135], [116.8980771, -1.1694089], [116.8981495, -1.169252], [116.8982159, -1.1690308], [116.8982501, -1.168953], [116.8982964, -1.1689061], [116.898338, -1.1688846], [116.898393, -1.1688967], [116.8984319, -1.1689282], [116.8984902, -1.1689751], [116.8986002, -1.1689972], [116.8987155, -1.1689651], [116.8987611, -1.1689208], [116.8988161, -1.1688068], [116.8988536, -1.1686459], [116.8988905, -1.1685642], [116.8989227, -1.1685447], [116.8989804, -1.1685447], [116.8990615, -1.1685534], [116.8991902, -1.1685595], [116.8993371, -1.1685541], [116.899374, -1.1685481], [116.8994021, -1.1685306], [116.8994109, -1.1684911], [116.8994001, -1.1684522], [116.899372, -1.1684207], [116.8993351, -1.1683791], [116.8992989, -1.1683054], [116.8992949, -1.1682417], [116.8993834, -1.1680654], [116.8994625, -1.1679018], [116.8995993, -1.1677087], [116.8996911, -1.1675518], [116.8998487, -1.1673876], [116.8999963, -1.1672448], [116.900062, -1.1672099], [116.9001143, -1.1672032], [116.9001277, -1.1672066], [116.9001518, -1.1672294], [116.9002497, -1.1674298], [116.9003436, -1.1675796], [116.9003855, -1.1676031], [116.9004469, -1.1676162], [116.9005042, -1.1675984], [116.9005944, -1.1675381], [116.9008197, -1.1673078], [116.9008727, -1.1672153], [116.9008955, -1.167157], [116.900935, -1.1670939], [116.9009719, -1.1670658], [116.9010403, -1.167047], [116.9010651, -1.167053], [116.9011087, -1.1670926], [116.9011248, -1.1671556], [116.9011375, -1.1672421], [116.9011697, -1.167285], [116.9012281, -1.1673065], [116.9013843, -1.1673058], [116.9018248, -1.1673279], [116.9019355, -1.16734], [116.9019898, -1.1673306], [116.9020756, -1.1672998], [116.9021863, -1.1672334], [116.9022325, -1.1671885], [116.9022788, -1.1671697], [116.9023271, -1.1671556], [116.9023747, -1.1671221], [116.9023854, -1.1670859], [116.9023801, -1.1670383], [116.9023512, -1.1669679], [116.9023023, -1.1668874], [116.902252, -1.166801], [116.9022037, -1.1666843], [116.902193, -1.1665804], [116.9022024, -1.1665147], [116.9022473, -1.1664383], [116.9023653, -1.1663659], [116.9024458, -1.1663417], [116.9025081, -1.1663484], [116.902537, -1.1663732], [116.9025692, -1.1664684], [116.9025752, -1.1665972], [116.9026, -1.1668673], [116.9026355, -1.166929], [116.9026919, -1.1669612], [116.902765, -1.1669719], [116.9028689, -1.1669605], [116.9031154, -1.1669441], [116.9033021, -1.1669538], [116.9035448, -1.1669914], [116.9037567, -1.1669914], [116.9039471, -1.1669136], [116.9041228, -1.1668305], [116.9042717, -1.1667621], [116.9043535, -1.1667393], [116.904446, -1.1667326], [116.904505, -1.1667567], [116.9045117, -1.1668171], [116.904497, -1.1669069], [116.9044125, -1.1669833], [116.9042355, -1.1670691], [116.9040544, -1.1671657], [116.9039069, -1.1672542], [116.9038117, -1.1673413], [116.9037312, -1.1674861], [116.9036669, -1.167647], [116.903522, -1.1679085], [116.9033343, -1.1683188], [116.9032645, -1.1685279], [116.9031519, -1.1687237], [116.9029319, -1.1689624], [116.9028112, -1.1690549], [116.9026852, -1.1692252], [116.9026007, -1.1692976], [116.9024424, -1.1693566], [116.9022574, -1.1693928], [116.9021702, -1.1694478], [116.9020991, -1.1695456], [116.902075, -1.1696502], [116.9020964, -1.1697266], [116.9021273, -1.1697736], [116.902205, -1.1698071], [116.902315, -1.1697964], [116.9024572, -1.1697387], [116.9027562, -1.1695805], [116.9029762, -1.1694866], [116.9031639, -1.1694692], [116.9032833, -1.1694773], [116.9033262, -1.1694987], [116.9033852, -1.169547], [116.9036588, -1.1698379], [116.9037929, -1.1699331], [116.9039404, -1.1699868], [116.9040021, -1.1699586], [116.9040383, -1.1698701], [116.9040102, -1.1697226], [116.9039646, -1.1694746], [116.9039364, -1.1692131], [116.9039579, -1.1691005], [116.9040276, -1.1689235], [116.9041658, -1.1687023], [116.9042362, -1.1685253], [116.9043461, -1.1683107], [116.904389, -1.1682276], [116.9044494, -1.1681847], [116.9044843, -1.168182], [116.9045372, -1.1681994], [116.9045781, -1.1682403], [116.9046291, -1.168367], [116.904676, -1.1684562], [116.9047042, -1.1684971], [116.9048932, -1.1687677], [116.9050254, -1.1689148], [116.9051018, -1.1689892], [116.9052091, -1.1690542], [116.9053493, -1.1691166], [116.9055162, -1.1691387], [116.9057476, -1.1691601], [116.9059052, -1.1692051], [116.9060319, -1.1692661], [116.9060829, -1.1693217], [116.9061117, -1.169441], [116.9061258, -1.1695329], [116.9061486, -1.1696033], [116.9061834, -1.1696623], [116.9062404, -1.1697065], [116.9063021, -1.1697085], [116.9063276, -1.1696918], [116.9063403, -1.1696368], [116.906341, -1.1695725], [116.906337, -1.1694933], [116.9063008, -1.1693727], [116.9062217, -1.1692654], [116.9061103, -1.16914], [116.9060044, -1.1690589], [116.9059145, -1.1689818], [116.9057033, -1.1688055], [116.9056081, -1.1687116], [116.9054908, -1.1685206], [116.9054425, -1.1682866], [116.9054103, -1.1680077], [116.9053969, -1.1678414], [116.9053861, -1.1676417], [116.9054264, -1.1675143], [116.9054613, -1.1674566], [116.9054961, -1.1674231], [116.9055779, -1.1674057], [116.9057362, -1.1673963], [116.9057992, -1.1673695], [116.9058193, -1.1673225], [116.9058153, -1.1672595], [116.9057094, -1.1671174], [116.9056503, -1.1670343], [116.9056128, -1.1668988], [116.9056503, -1.1667433], [116.9057067, -1.16662], [116.9057657, -1.1665596], [116.9058743, -1.166504], [116.9059695, -1.1664611], [116.9060768, -1.1663927], [116.906223, -1.1662579], [116.9063759, -1.166085], [116.9064778, -1.165967], [116.9065368, -1.1658248], [116.9066066, -1.1656291], [116.9066897, -1.1653958], [116.9067889, -1.1652241], [116.9070598, -1.1650311], [116.9072154, -1.1649077], [116.907371, -1.1645866], [116.9074327, -1.1645149], [116.9075038, -1.1644827], [116.9075715, -1.1644864], [116.907609, -1.1645088], [116.9076503, -1.1645494], [116.9076952, -1.1646221], [116.9077629, -1.1646975], [116.9078558, -1.1647726], [116.9078984, -1.1647958], [116.9079621, -1.1648008], [116.9079798, -1.1647948], [116.9079916, -1.164781], [116.9079939, -1.1647636], [116.9079852, -1.1647431], [116.9079416, -1.1646942], [116.9078347, -1.1645511], [116.9077954, -1.1644897], [116.9077767, -1.164426], [116.9077586, -1.1643003], [116.9077586, -1.1641468], [116.9078082, -1.1638833], [116.9079088, -1.1637425], [116.9079691, -1.1636983], [116.9080617, -1.1637157], [116.9080965, -1.1637519], [116.908122, -1.1638042], [116.9081569, -1.1638337], [116.9081984, -1.1638391], [116.9082494, -1.1638002], [116.9082682, -1.1637479], [116.9083165, -1.1636138], [116.9083728, -1.1634623], [116.9084506, -1.1634107], [116.9085082, -1.1634093], [116.9085418, -1.1634221], [116.9086993, -1.1635025], [116.9091292, -1.163827], [116.9092036, -1.1638827], [116.9093089, -1.1639329], [116.9094343, -1.1639732], [116.9094986, -1.1639685], [116.9095597, -1.1639309], [116.9095979, -1.1638612], [116.909612, -1.1637734], [116.9096307, -1.1637378], [116.9096696, -1.1637151], [116.9096898, -1.163713], [116.9097561, -1.1637513], [116.9098628, -1.1638639], [116.9100498, -1.164012], [116.9102255, -1.1641448], [116.9102617, -1.1642091], [116.9102671, -1.1642433], [116.910245, -1.1642936], [116.9102155, -1.1643211], [116.9101544, -1.1643365], [116.9100894, -1.1643251], [116.9100418, -1.1643023], [116.90997, -1.1642742], [116.9099117, -1.1642795], [116.9097964, -1.1643667], [116.9096777, -1.1645095], [116.909557, -1.1646878], [116.9094712, -1.1648554], [116.9093987, -1.1649312], [116.9093437, -1.1649882], [116.9093142, -1.1650425], [116.9093035, -1.1651229], [116.9093062, -1.1651906], [116.9092888, -1.1652369], [116.9092291, -1.1652899], [116.9091734, -1.165314], [116.9091332, -1.1653475], [116.9091111, -1.1654179], [116.9091325, -1.1654876], [116.9092653, -1.1655929], [116.9093987, -1.1656747], [116.9094282, -1.1657531], [116.9094175, -1.1658302], [116.9093659, -1.1658885], [116.9092794, -1.1659187], [116.9091386, -1.1659086], [116.9090326, -1.1658382], [116.9089119, -1.1657793], [116.908818, -1.1657283], [116.9087282, -1.1657337], [116.9086584, -1.1657699], [116.908574, -1.1658584], [116.9085552, -1.1659241], [116.9085672, -1.1660286], [116.908574, -1.1661185], [116.9085337, -1.1661614], [116.9084787, -1.1661654], [116.9083835, -1.1661171], [116.9083098, -1.1660206], [116.9082507, -1.1659469], [116.9081931, -1.1659174], [116.9081233, -1.1659187], [116.9080804, -1.1659442], [116.9080697, -1.1659951], [116.9080938, -1.1660823], [116.908114, -1.1661373], [116.90813, -1.1662016], [116.9081354, -1.1662807], [116.9081287, -1.1663277], [116.9080965, -1.1663585], [116.9079477, -1.1664202], [116.9077277, -1.1664229], [116.9073334, -1.1664617], [116.9071765, -1.1664899], [116.9070545, -1.1665864], [116.9069391, -1.1667165], [116.906805, -1.1668693], [116.9066696, -1.1669578], [116.9065408, -1.1670128], [116.9061472, -1.1672381], [116.9060446, -1.1673554], [116.9060232, -1.1674318], [116.9060487, -1.1674828], [116.9061097, -1.1675082], [116.9062109, -1.1675438], [116.9064389, -1.1676524], [116.9065623, -1.1676805], [116.9066213, -1.1676671], [116.9067018, -1.1676175], [116.9068064, -1.1674754], [116.9068895, -1.167403], [116.9070438, -1.1673306], [116.9071551, -1.1673051], [116.9073375, -1.1673212], [116.9074662, -1.1673494], [116.9076513, -1.1673587], [116.9078404, -1.1672863], [116.9080617, -1.167226], [116.9081998, -1.1672206], [116.9084345, -1.1672448], [116.9087966, -1.1672676], [116.9093759, -1.1673266], [116.9096763, -1.1673628], [116.910084, -1.1673748], [116.9104086, -1.1674043], [116.910709, -1.1673802], [116.911047, -1.1672877], [116.9111261, -1.1672756], [116.9113071, -1.1672676], [116.9113822, -1.1673011], [116.9114144, -1.1673561], [116.911397, -1.1674097], [116.9113219, -1.1674915], [116.9112428, -1.1675853], [116.9111623, -1.1677208], [116.9111314, -1.1678468], [116.91111, -1.1679715], [116.9111569, -1.1680788], [116.9112508, -1.1681726], [116.911342, -1.1682236], [116.9114386, -1.1682477], [116.9115324, -1.1682517], [116.9116075, -1.1682866], [116.9116531, -1.168363], [116.9116585, -1.1685762], [116.9117269, -1.1687023], [116.9118328, -1.1687867], [116.9121118, -1.168827], [116.9124256, -1.1688149], [116.9126831, -1.1687023], [116.9129527, -1.1685695], [116.9132182, -1.1682692], [116.9133899, -1.1680104], [116.9135146, -1.1678911], [116.9136393, -1.1678213], [116.913823, -1.1677945], [116.9139625, -1.1677194], [116.9140577, -1.1676604], [116.9141328, -1.1675853], [116.9141851, -1.1675505], [116.9142267, -1.1675585], [116.9142763, -1.1675961], [116.9143367, -1.1676497], [116.9145124, -1.1678481], [116.9146277, -1.1680117], [116.9146518, -1.1681592], [116.9146277, -1.1682303], [116.9145848, -1.1682946], [116.9144171, -1.1684515], [116.914224, -1.1687143], [116.9141704, -1.1688202], [116.9141154, -1.1689731], [116.9140483, -1.1692091], [116.9139531, -1.1693968], [116.9138418, -1.1695778], [116.9138029, -1.1696636], [116.9137989, -1.1697628], [116.9138364, -1.1698312], [116.9139571, -1.1699157], [116.9140577, -1.1699278], [116.914161, -1.1699036], [116.9142213, -1.1698151], [116.9143045, -1.169665], [116.9144292, -1.1695336], [116.9145754, -1.1694424], [116.9147739, -1.1693981], [116.9149831, -1.1694035], [116.9151132, -1.1693499], [116.9151963, -1.1692855], [116.9152406, -1.1692238], [116.9153009, -1.16913], [116.9153921, -1.1690616], [116.9155236, -1.1690388], [116.9157998, -1.1690482], [116.9159272, -1.1690817], [116.9161271, -1.1692171], [116.9165478, -1.1695175], [116.9166068, -1.1695688], [116.9166397, -1.1696224], [116.916697, -1.1696988], [116.9167188, -1.1697203], [116.91675, -1.1697354], [116.9167829, -1.1697384], [116.9168888, -1.1698245], [116.916917, -1.1699291], [116.9168901, -1.1699908], [116.9167694, -1.170212], [116.9166233, -1.170448], [116.9166045, -1.1705888], [116.9166018, -1.1707752], [116.916579, -1.1708663], [116.9164352, -1.1712052], [116.9163966, -1.1712632], [116.9163477, -1.1713025], [116.9162813, -1.1713437], [116.9162313, -1.1714], [116.9162156, -1.1715099], [116.9162558, -1.1717365], [116.9163068, -1.1718371], [116.9163497, -1.1719162], [116.9163738, -1.1719658], [116.9164013, -1.1720429], [116.9164181, -1.1721844], [116.9163993, -1.1723278], [116.9162893, -1.1725236], [116.9162008, -1.1726349], [116.9160533, -1.172767], [116.9158642, -1.1728648], [116.9156677, -1.1728467], [116.9154827, -1.1727569], [116.9153633, -1.1726429], [116.9152573, -1.1724854], [116.9152285, -1.1724458], [116.9151051, -1.1723158], [116.9150394, -1.1722206], [116.9150046, -1.1721361], [116.9149965, -1.1719658], [116.9150019, -1.1718425], [116.9150166, -1.1717607], [116.9149958, -1.1716896], [116.9149663, -1.1716246], [116.9149073, -1.171575], [116.9148637, -1.1715669], [116.9148369, -1.171579], [116.9148175, -1.1716132], [116.9148215, -1.1716541], [116.914847, -1.1717694], [116.9148403, -1.1718619], [116.9148081, -1.1719893], [116.9147082, -1.1722675], [116.914684, -1.1723701], [116.914678, -1.1724358], [116.9146813, -1.172472], [116.9146914, -1.1724968], [116.9147531, -1.1725799], [116.9148624, -1.1727569], [116.9151175, -1.1733258], [116.9152071, -1.1733908], [116.9153288, -1.173435], [116.9153988, -1.1734511], [116.9156389, -1.1735513], [116.915832, -1.1735902], [116.9159628, -1.1735768], [116.9160922, -1.1735741], [116.9162558, -1.1735902], [116.9163879, -1.1736063], [116.9166018, -1.1736573], [116.9168003, -1.1736372], [116.9169542, -1.1736151], [116.9170152, -1.1735919], [116.917041, -1.1735708], [116.9170524, -1.1735445], [116.9170568, -1.1735178], [116.9170504, -1.1734821], [116.917052, -1.1734704], [116.9170588, -1.1734586], [116.9171034, -1.1734377], [116.9171269, -1.1734365], [116.9171493, -1.1734467], [116.917183, -1.1734605], [116.9172054, -1.1734595], [116.917232, -1.1734491], [116.9173763, -1.1733315], [116.9174319, -1.1732188], [116.9175104, -1.1730619], [116.9175372, -1.1730251], [116.917621, -1.1729647], [116.9177755, -1.1728783], [116.9179329, -1.1727904], [116.9181072, -1.1726852], [116.9182426, -1.1725839], [116.9182581, -1.1725605], [116.9182634, -1.1725377], [116.9182628, -1.1724988], [116.918244, -1.1724338], [116.9182239, -1.1723901], [116.9182151, -1.1723705], [116.918183, -1.172295], [116.9181501, -1.172242], [116.9181079, -1.1721985], [116.9180294, -1.1722145], [116.9177391, -1.1723064], [116.917676, -1.1723051], [116.9176472, -1.1722756], [116.9176371, -1.1722414], [116.9176707, -1.1721086], [116.9178081, -1.1718814], [116.9179362, -1.1717064], [116.9180073, -1.1715515], [116.9181119, -1.1712337], [116.9181461, -1.1711633], [116.9182027, -1.1711003], [116.9182262, -1.1710854], [116.9182581, -1.1710467], [116.9183121, -1.1709941], [116.9183698, -1.1710323], [116.9184364, -1.1709267], [116.9185591, -1.1707604], [116.9186993, -1.1706123], [116.9188736, -1.1704762], [116.919001, -1.1703904], [116.9201785, -1.1695215], [116.9208779, -1.1689899], [116.9210382, -1.1688598], [116.9211448, -1.1687224], [116.9211964, -1.1686117], [116.9212145, -1.1684931], [116.9212152, -1.1684059], [116.9212058, -1.1683181], [116.9211756, -1.1682222], [116.921116, -1.1680841], [116.9207089, -1.1674647], [116.9205192, -1.1671603], [116.9204602, -1.1670366], [116.9204337, -1.1669464], [116.9204065, -1.1667969], [116.9203784, -1.1664517], [116.9203609, -1.166266], [116.9203408, -1.1661634], [116.9203073, -1.166083], [116.9192612, -1.1644572], [116.9192015, -1.1643808], [116.919166, -1.1643405], [116.9190996, -1.1643043], [116.9190611, -1.1642876], [116.919045, -1.1641954], [116.9190466, -1.1641434], [116.9190641, -1.1640945], [116.9191298, -1.1638994], [116.9191546, -1.163821], [116.9191626, -1.1637908], [116.919164, -1.1637694], [116.9191586, -1.1637425], [116.9191553, -1.1637197], [116.9191559, -1.1637037], [116.919215, -1.1636172], [116.9186738, -1.1632934], [116.918474, -1.1635602], [116.9183714, -1.1637151], [116.9182095, -1.1638873], [116.9181672, -1.1639105], [116.918131, -1.1639138], [116.9180928, -1.1639098], [116.9180723, -1.1638994], [116.9178886, -1.1637372], [116.9178564, -1.1636775], [116.9178289, -1.1634824], [116.9178209, -1.1632491], [116.917837, -1.1631325], [116.9178329, -1.1629997], [116.9178075, -1.1628978], [116.9177726, -1.1628227], [116.9176948, -1.1627034], [116.9175862, -1.162395], [116.9175754, -1.1623333], [116.9175433, -1.1623011], [116.917495, -1.1622971], [116.9173729, -1.1623441], [116.9173314, -1.1623575], [116.9172791, -1.1623494], [116.9172415, -1.1623159], [116.917212, -1.1622287], [116.9172053, -1.1621362], [116.9172254, -1.1620249], [116.9172201, -1.1618828], [116.9171999, -1.1617688], [116.9171087, -1.1615717], [116.9170591, -1.161443], [116.9170471, -1.1613371], [116.9170779, -1.1612298], [116.9171932, -1.1611199], [116.9172925, -1.1610354], [116.9173837, -1.1609751], [116.9174226, -1.1609228], [116.9174333, -1.1608772], [116.9174199, -1.1608437], [116.9173823, -1.1608142], [116.9173233, -1.1607874], [116.9172066, -1.1607444], [116.9170564, -1.1606895], [116.9169331, -1.1606238], [116.9168539, -1.160546], [116.9168137, -1.1604615], [116.9168177, -1.1603643], [116.916809, -1.160241], [116.9168311, -1.1601914], [116.9168915, -1.1601357], [116.9170625, -1.1600392], [116.9171845, -1.1599688], [116.9172878, -1.159893], [116.9173642, -1.1598615], [116.9174232, -1.1598481], [116.9174547, -1.159828], [116.9174675, -1.1598005], [116.9174755, -1.1597241], [116.9174735, -1.1596792], [116.9174849, -1.1596175], [116.9175084, -1.1595632], [116.917562, -1.1595149], [116.9176244, -1.1594807], [116.9176687, -1.1594505], [116.9176955, -1.159415], [116.9177055, -1.1593634], [116.9176995, -1.1593104], [116.9176928, -1.1592622], [116.9177243, -1.1591368], [116.9177089, -1.1590751], [116.9176894, -1.1590342], [116.9176619, -1.1589973], [116.917613, -1.1589705], [116.9175185, -1.1589263], [116.9174065, -1.1588693], [116.9173555, -1.1588579], [116.9173106, -1.1588659], [116.9172254, -1.1589102], [116.9170919, -1.1589749], [116.9169893, -1.1590108], [116.9168893, -1.1590187], [116.9167909, -1.1590235], [116.9167124, -1.159061], [116.9166306, -1.1591482], [116.916581, -1.1591737], [116.9165133, -1.1591549], [116.9164932, -1.1591314], [116.9164764, -1.1590832], [116.9164798, -1.1590181], [116.9164798, -1.1588519], [116.9164677, -1.1587788], [116.9164509, -1.1587211], [116.9164221, -1.1586648], [116.9164074, -1.1585763], [116.9163396, -1.1583256], [116.916345, -1.1582545], [116.9163591, -1.1581312], [116.9164127, -1.1580024], [116.9166347, -1.1577356], [116.9166756, -1.1576438], [116.916687, -1.1575761], [116.9166843, -1.1575291], [116.9166588, -1.1574755], [116.9166213, -1.1574118], [116.9166172, -1.1573595], [116.916634, -1.157273], [116.9166695, -1.1571946], [116.9167238, -1.1571249], [116.9167808, -1.1570625], [116.9168211, -1.1569941], [116.9168157, -1.1569097], [116.9167929, -1.1568453], [116.9167339, -1.1567515], [116.9166789, -1.156614], [116.9166514, -1.1565999], [116.9166159, -1.1566046], [116.9165844, -1.1566227], [116.916571, -1.1566495], [116.916573, -1.1567394], [116.9165891, -1.1568601], [116.916583, -1.1569291], [116.9165757, -1.1569767], [116.9165173, -1.1570531], [116.9164295, -1.1571001], [116.9163249, -1.1571785], [116.916235, -1.1572415], [116.9161787, -1.1572636], [116.9161264, -1.1572657], [116.916062, -1.1572288], [116.9160218, -1.157204], [116.9159903, -1.1571979], [116.9159567, -1.157208], [116.9159292, -1.1572422], [116.9159031, -1.157322], [116.9158494, -1.1574815], [116.9157764, -1.1576458], [116.9157314, -1.1577175], [116.9156657, -1.1577705], [116.9156134, -1.1577839], [116.9155638, -1.1577812], [116.9155142, -1.1577839], [116.9154525, -1.1577852], [116.9154102, -1.1577866], [116.9153854, -1.1578053], [116.9153673, -1.1578342], [116.915368, -1.1578637], [116.9154002, -1.157922], [116.915419, -1.1579622], [116.9154304, -1.1580125], [116.9154337, -1.1580755], [116.915423, -1.1581727], [116.9153465, -1.1585978], [116.9153331, -1.1586729], [116.9152956, -1.1587547], [116.9152446, -1.1588016], [116.9151762, -1.1588338], [116.9151199, -1.1588539], [116.9150582, -1.158882], [116.9150314, -1.1589236], [116.9150287, -1.1589598], [116.9150434, -1.1590255], [116.9150595, -1.1590657], [116.9150676, -1.1591354], [116.9150609, -1.159177], [116.9149382, -1.1594881], [116.9149147, -1.1595766], [116.9149127, -1.1596376], [116.9149122, -1.1597459], [116.9149063, -1.1597816], [116.9148947, -1.1598032], [116.9148835, -1.1598112], [116.9148668, -1.1598136], [116.9148503, -1.1598102], [116.9148359, -1.1598003], [116.9148238, -1.1597832], [116.9147203, -1.1596623], [116.9146277, -1.1595571], [116.9145271, -1.1594231], [116.9144936, -1.1593473], [116.9144721, -1.1592782], [116.9144634, -1.1592166], [116.9144601, -1.1591489], [116.9144373, -1.1590744], [116.9143789, -1.1589377], [116.9143541, -1.158868], [116.9143313, -1.1587466], [116.9143219, -1.158689], [116.9142964, -1.1586018], [116.9142555, -1.1585334], [116.9142133, -1.1584798], [116.9141784, -1.1584302], [116.9141462, -1.1583779], [116.9141221, -1.158286], [116.9141194, -1.1581969], [116.9141449, -1.1580588], [116.9141623, -1.1580092], [116.9141912, -1.1579394], [116.9141972, -1.1579012], [116.9141798, -1.157859], [116.9141389, -1.1578167], [116.9140926, -1.1577705], [116.9140658, -1.1577222], [116.9140651, -1.1575942], [116.9140638, -1.1574527], [116.9140718, -1.1574219], [116.9140805, -1.1573944], [116.9141208, -1.1573595], [116.9141811, -1.157334], [116.9143146, -1.1572677], [116.9144145, -1.1572221], [116.9145311, -1.1571524], [116.9145633, -1.157092], [116.9145888, -1.1570263], [116.9146096, -1.1568963], [116.9146129, -1.1567602], [116.9145969, -1.1566904], [116.9145788, -1.1566529], [116.9145613, -1.1566368], [116.9144882, -1.156616], [116.9143052, -1.1565892], [116.9141898, -1.1565584], [116.9141516, -1.1565316], [116.9141369, -1.1565034], [116.9141509, -1.1564343], [116.9141757, -1.1563693], [116.9142133, -1.1563184], [116.9143099, -1.15625], [116.9144654, -1.1561709], [116.9145083, -1.156132], [116.9145432, -1.1560837], [116.9145472, -1.1560341], [116.9145419, -1.1559671], [116.9145539, -1.1558933], [116.9145848, -1.155833], [116.9146646, -1.1557706], [116.914743, -1.1557277], [116.9147652, -1.1556976], [116.9147766, -1.1556399], [116.9147766, -1.155589], [116.9147611, -1.1555192], [116.9147383, -1.1554535], [116.9147457, -1.1554167], [116.9147645, -1.1553858], [116.9148047, -1.155361], [116.9148738, -1.1553382], [116.9149449, -1.1553114], [116.9150401, -1.1552625], [116.9151641, -1.1552088], [116.91525, -1.1551632], [116.9152848, -1.1551156], [116.915305, -1.1550674], [116.9153137, -1.1550017], [116.9153063, -1.1549527], [116.9152976, -1.1549018], [116.9153016, -1.1548595], [116.9153204, -1.1548253], [116.9153646, -1.1547791], [116.9153908, -1.1547489], [116.9154109, -1.1546913], [116.9154096, -1.1546417], [116.9153982, -1.1545947], [116.9153774, -1.1545424], [116.9153499, -1.1545183], [116.9153257, -1.1545183], [116.9152942, -1.1545404], [116.9152627, -1.15458], [116.9151822, -1.1546604], [116.9151373, -1.1546893], [116.9150897, -1.1546899], [116.9150488, -1.1546712], [116.915024, -1.1546396], [116.9150052, -1.1545894], [116.9149764, -1.1545049], [116.914916, -1.1543929], [116.9148865, -1.1543614], [116.9148463, -1.154348], [116.9147953, -1.1543527], [116.9147108, -1.1543896], [116.91456, -1.1544915], [116.9144802, -1.1545625], [116.9144225, -1.1546323], [116.9143199, -1.1547643], [116.9142569, -1.1548797], [116.9142153, -1.1549943], [116.9141684, -1.1550426], [116.9141194, -1.1550607], [116.9140651, -1.155058], [116.9140209, -1.1550338], [116.913982, -1.1549976], [116.9138981, -1.1549521], [116.9135233, -1.1547925], [116.9134261, -1.1547234], [116.9133583, -1.1546577], [116.9133081, -1.1546457], [116.9132806, -1.1546537], [116.9132578, -1.1546839], [116.913249, -1.1547348], [116.9132417, -1.1548153], [116.9132175, -1.154942], [116.9132068, -1.1550318], [116.9131988, -1.1551626], [116.9132216, -1.1552745], [116.9132906, -1.1554535], [116.9133134, -1.1555708], [116.9133268, -1.1556191], [116.9133329, -1.1556741], [116.9133302, -1.1557103], [116.9132866, -1.1558632], [116.9132309, -1.1559604], [116.9132055, -1.1560931], [116.9132008, -1.1562091], [116.91319, -1.1562761], [116.9131257, -1.1564431], [116.9131039, -1.1565074], [116.9130938, -1.1565456], [116.9130754, -1.1565979], [116.9130603, -1.1566422], [116.9130408, -1.156675], [116.9130103, -1.1566971], [116.9129852, -1.1567032], [116.9129647, -1.1566988], [116.9129399, -1.1566737], [116.9129302, -1.1566506], [116.9129175, -1.156617], [116.9128749, -1.156549], [116.91284, -1.1564122], [116.91284, -1.1563184], [116.9128695, -1.1562151], [116.9128869, -1.1561038], [116.9128937, -1.1559765], [116.9128776, -1.1558719], [116.9128601, -1.1557901], [116.9128387, -1.1557297], [116.9127233, -1.1556158], [116.9126844, -1.1555393], [116.9126751, -1.1554656], [116.9126844, -1.1553261], [116.9127247, -1.1551223], [116.9127904, -1.1549547], [116.9129084, -1.154759], [116.9130251, -1.1545243], [116.9131471, -1.1542709], [116.9132557, -1.1540872], [116.9132866, -1.1539853], [116.9133201, -1.1538861], [116.9133577, -1.1538244], [116.9134113, -1.1537614], [116.9135642, -1.1536488], [116.9137922, -1.1535147], [116.9139773, -1.153394], [116.9141047, -1.1533256], [116.9142187, -1.1532479], [116.9142522, -1.1531835], [116.9142978, -1.1530494], [116.9143447, -1.1530092], [116.9144158, -1.1529864], [116.9144694, -1.1529851], [116.9145271, -1.1529904], [116.9145995, -1.1529757], [116.9147028, -1.1528161], [116.9147712, -1.152745], [116.9148409, -1.1527303], [116.9148825, -1.1527477], [116.9149375, -1.1527759], [116.9149657, -1.152788], [116.915018, -1.152796], [116.9150864, -1.1527799], [116.9151279, -1.1527303], [116.9151869, -1.1526271], [116.9152312, -1.1525614], [116.9153613, -1.1524286], [116.9154377, -1.1523549], [116.9155048, -1.1522999], [116.9155826, -1.1522717], [116.9156764, -1.1522717], [116.9157609, -1.152261], [116.9158226, -1.1522181], [116.9158401, -1.1521712], [116.9158334, -1.1521095], [116.9157958, -1.1520572], [116.9157609, -1.1520129], [116.9157019, -1.1519003], [116.9156899, -1.1518145], [116.9157261, -1.1517569], [116.9157945, -1.1516348], [116.9158481, -1.1515718], [116.9158521, -1.1515302], [116.9158334, -1.1514645], [116.9157717, -1.1514176], [116.9156845, -1.1513707], [116.9155437, -1.1512715], [116.9155289, -1.1512339], [116.9155343, -1.1511857], [116.915592, -1.1510985], [116.9158494, -1.1507847], [116.916064, -1.1505608], [116.9161311, -1.1504616], [116.9162343, -1.1502913], [116.9163591, -1.1499883], [116.9164194, -1.1499011], [116.9165334, -1.1497952], [116.9166273, -1.1497134], [116.916687, -1.1496021], [116.9167513, -1.1494144], [116.9168003, -1.1492991], [116.9169136, -1.1492006], [116.9170336, -1.1491436], [116.9172026, -1.1491181], [116.9172885, -1.1491315], [116.9173629, -1.149165], [116.917391, -1.1492012], [116.9173971, -1.1494171], [116.9173984, -1.1496289], [116.9174078, -1.1497443], [116.9174628, -1.149822], [116.9175915, -1.149869], [116.9177176, -1.1498636], [116.9178008, -1.1497751], [116.917845, -1.1496625], [116.9178678, -1.1495525], [116.9179027, -1.1494721], [116.9179523, -1.1494171], [116.9180194, -1.149401], [116.9180891, -1.149393], [116.9181897, -1.1493836], [116.9183117, -1.1493206], [116.9183506, -1.1492495], [116.9183519, -1.1491918], [116.9183399, -1.1491261], [116.9182675, -1.1490309], [116.9181521, -1.148921], [116.9181012, -1.1488298], [116.9181105, -1.148736], [116.9181307, -1.148693], [116.9181964, -1.1486273], [116.9183975, -1.1485335], [116.9185826, -1.1484477], [116.9187301, -1.1483672], [116.9187999, -1.1482841], [116.9188589, -1.1481178], [116.9188669, -1.1479811], [116.9187945, -1.1477719], [116.9187301, -1.1476727], [116.9186014, -1.1475681], [116.9184539, -1.147493], [116.9183198, -1.147493], [116.9179738, -1.1475734], [116.9178584, -1.1476485], [116.9176653, -1.1477585], [116.9175151, -1.1477638], [116.9174024, -1.1477209], [116.9173381, -1.1476459], [116.9173032, -1.1475332], [116.9172683, -1.1473589], [116.9172066, -1.1469915], [116.9171691, -1.146777], [116.9171959, -1.1466644], [116.9171745, -1.1465464], [116.9167373, -1.1460529], [116.9166863, -1.145758], [116.9167185, -1.1455461], [116.9167614, -1.1453959], [116.9168801, -1.1452458], [116.9169827, -1.145176], [116.9170558, -1.1451371], [116.9171342, -1.1451459], [116.9172576, -1.1451573], [116.9173019, -1.1451459], [116.9173294, -1.1451083], [116.9173421, -1.1450601], [116.9173381, -1.1450098], [116.9173267, -1.1448831], [116.9173481, -1.1447657], [116.9173837, -1.1446906], [116.91744, -1.144637], [116.9175386, -1.144582], [116.9177464, -1.144507], [116.9179845, -1.1444439], [116.9182862, -1.1443501], [116.9185015, -1.1442783], [116.9185994, -1.1442482], [116.9186819, -1.14422], [116.9188026, -1.1442033], [116.9188864, -1.1442126], [116.9189226, -1.1442428], [116.9189695, -1.1443541], [116.9190601, -1.1446236], [116.9191764, -1.1448951], [116.9192206, -1.1449682], [116.9192478, -1.144995], [116.9192864, -1.1450064], [116.9193199, -1.1450057], [116.9193481, -1.144993], [116.9193692, -1.1449669], [116.9193789, -1.1449179], [116.9193739, -1.1442039], [116.9194027, -1.1441248], [116.9194403, -1.1440752], [116.9195294, -1.1440417], [116.9196475, -1.1440336], [116.9197655, -1.1440256], [116.9198848, -1.143984], [116.9199935, -1.1439036], [116.9200994, -1.143795], [116.9201732, -1.1437387], [116.9202845, -1.1437105], [116.9203998, -1.1437266], [116.9208977, -1.1438875], [116.9209349, -1.1438972], [116.9209584, -1.1438955], [116.9209708, -1.1438885], [116.9209842, -1.1438727], [116.9209872, -1.1438499], [116.9209852, -1.1438218], [116.9209668, -1.1437852], [116.9207954, -1.1436233], [116.9205259, -1.1433552], [116.9204213, -1.1432801], [116.9203167, -1.1432251], [116.9201101, -1.1432291], [116.9200243, -1.1432479], [116.9198956, -1.1433351], [116.9197923, -1.1434008], [116.9196528, -1.1434544], [116.9194932, -1.1434718], [116.9191794, -1.1434061], [116.9190118, -1.1433257], [116.9188549, -1.1432372], [116.9186658, -1.1430562], [116.9185987, -1.1429382], [116.9185571, -1.1428001], [116.9185182, -1.1426888], [116.9184713, -1.1426217], [116.918427, -1.1425949], [116.9183587, -1.1425989], [116.9182983, -1.1426284], [116.918242, -1.1426968], [116.9181709, -1.1428242], [116.9181427, -1.1429395], [116.9180971, -1.1430803], [116.9179979, -1.1432023], [116.917951, -1.1432305], [116.9178611, -1.1432452], [116.9177632, -1.1432492], [116.9175741, -1.1432935], [116.9174011, -1.143323], [116.9172201, -1.1433605], [116.9170873, -1.1433485], [116.9169545, -1.1432935], [116.9168901, -1.1432144], [116.9168647, -1.1431473], [116.9168352, -1.1430066], [116.9168137, -1.1428725], [116.9167922, -1.1427639], [116.9167493, -1.1426646], [116.9166715, -1.1425453], [116.9166313, -1.1422919], [116.9166072, -1.1421229], [116.9165441, -1.1419822], [116.916461, -1.1418762], [116.9163872, -1.1418119], [116.9162974, -1.1417703], [116.9162008, -1.141663], [116.9161391, -1.141541], [116.9161203, -1.1413694], [116.9161351, -1.1412192], [116.9162343, -1.1410355], [116.9163564, -1.1408974], [116.9165522, -1.1407432], [116.9167721, -1.1406132], [116.9169532, -1.1405206], [116.9171315, -1.1404818], [116.9173166, -1.1404777], [116.9175138, -1.1404818], [116.9177726, -1.1404549], [116.9180985, -1.1403799], [116.9185129, -1.1402364], [116.9188602, -1.1400929], [116.9192988, -1.1398529], [116.9197011, -1.1395981], [116.9198915, -1.1394627], [116.9200471, -1.1393903], [116.9206694, -1.1392898], [116.9210985, -1.1392093], [116.9211803, -1.1391771], [116.9212581, -1.1391181], [116.9213533, -1.1390028], [116.9213708, -1.1389183], [116.9213574, -1.1388513], [116.921301, -1.1387749], [116.9212179, -1.1387266], [116.9210878, -1.138685], [116.9209, -1.1386837], [116.9206895, -1.1387253], [116.9205125, -1.1387266], [116.9203784, -1.1386984], [116.9198218, -1.1384718], [116.9195133, -1.1382948], [116.9192156, -1.1380133], [116.919001, -1.1377612], [116.9189025, -1.1375748], [116.9188683, -1.1375071], [116.9188502, -1.1374354], [116.9188529, -1.1373717], [116.9189233, -1.1372021], [116.9190359, -1.136828], [116.9191298, -1.1366778], [116.9192478, -1.1365638], [116.9193511, -1.1365169], [116.9194356, -1.1365035], [116.9195147, -1.1364673], [116.9196193, -1.1363667], [116.9197172, -1.1362112], [116.9198634, -1.135998], [116.9198902, -1.1359283], [116.9198848, -1.1358518], [116.9198553, -1.1357553], [116.919803, -1.1357017], [116.919748, -1.1356829], [116.9197065, -1.1356802], [116.9196179, -1.1356869], [116.9195214, -1.135707], [116.9194195, -1.1357338], [116.919347, -1.1357499], [116.9192746, -1.1357513], [116.9192223, -1.1357593], [116.9191901, -1.1358022], [116.9191727, -1.1358612], [116.9191606, -1.1359752], [116.9191298, -1.1361012], [116.9190466, -1.1362045], [116.9189152, -1.136301], [116.9188059, -1.1363661], [116.9187241, -1.1364499], [116.9186765, -1.1365122], [116.9186302, -1.1365303], [116.9185994, -1.136527], [116.9185625, -1.1365129], [116.9185196, -1.1364814], [116.9184592, -1.1364137], [116.9183902, -1.1363647], [116.9182701, -1.1363386], [116.9178879, -1.136297], [116.917786, -1.1363292], [116.9177538, -1.1364364], [116.9177645, -1.1365437], [116.9178343, -1.1366832], [116.9178879, -1.1367851], [116.9179496, -1.1368669], [116.9180153, -1.1369111], [116.9181119, -1.1369513], [116.9181669, -1.1369848], [116.9181843, -1.1370425], [116.9181602, -1.1370975], [116.9180609, -1.1372007], [116.917908, -1.1373268], [116.917794, -1.1374112], [116.917731, -1.1374944], [116.9177163, -1.1375681], [116.9177015, -1.1376767], [116.917672, -1.1378121], [116.9176412, -1.1378966], [116.917609, -1.1379368], [116.9175446, -1.1380066], [116.9175258, -1.1380991], [116.9175406, -1.1381862], [116.9175902, -1.138268], [116.9176278, -1.1383391], [116.9176801, -1.1384826], [116.9176948, -1.1386032], [116.9176626, -1.1387682], [116.9175073, -1.1389196], [116.9173387, -1.1389757], [116.917251, -1.1390033], [116.9170932, -1.1390085], [116.9170123, -1.1390029], [116.916885, -1.1389629], [116.9168297, -1.1389641], [116.9167817, -1.1389785], [116.9167368, -1.1389977], [116.9166944, -1.1390157], [116.9165959, -1.1390277], [116.9164469, -1.1390245], [116.9163316, -1.1390021], [116.9162667, -1.1389405], [116.9162531, -1.1388684], [116.9162555, -1.1387731], [116.9162683, -1.1386978], [116.9163844, -1.1384953], [116.9164173, -1.1384112], [116.9164221, -1.1383303], [116.9164109, -1.138267], [116.9163596, -1.138187], [116.9163228, -1.1381341], [116.9162803, -1.1380629], [116.9162907, -1.1379035], [116.916358, -1.1376529], [116.9164197, -1.1374967], [116.9165862, -1.1372245], [116.9166551, -1.137094], [116.91668, -1.1370227], [116.9166727, -1.1369867], [116.9166527, -1.1369707], [116.9166159, -1.1369619], [116.9165726, -1.1369611], [116.916503, -1.1370091], [116.9164101, -1.1370411], [116.9162066, -1.1370659], [116.9161129, -1.1370788], [116.9160464, -1.1371156], [116.9159584, -1.1372629], [116.9158366, -1.1375808], [116.9157309, -1.1378306], [116.9156284, -1.1379828], [116.9155867, -1.1380661], [116.9155787, -1.1382134], [116.9156156, -1.1384408], [116.9156508, -1.1386602], [116.9156925, -1.1389453], [116.9157069, -1.1391422], [116.9156812, -1.1393104], [116.9156604, -1.139368], [116.9155531, -1.1394113], [116.9154746, -1.1394193], [116.9153977, -1.1393584], [116.9152215, -1.13928], [116.9150373, -1.1392672], [116.9149765, -1.139304], [116.9149188, -1.1394225], [116.914882, -1.1395522], [116.9148856, -1.139577], [116.9149192, -1.1396431], [116.9149624, -1.1396755], [116.9151162, -1.1396927], [116.9151503, -1.1397028], [116.9152143, -1.1397372], [116.91524, -1.1397796], [116.9152343, -1.1398517], [116.9151911, -1.1399398], [116.9150918, -1.1400118], [116.9148884, -1.1400839], [116.9147442, -1.1401512], [116.9146881, -1.14022], [116.9146978, -1.1402889], [116.9147746, -1.1403642], [116.9148227, -1.140465], [116.9148932, -1.1406092], [116.9149412, -1.1407093], [116.91495, -1.1408214], [116.9149276, -1.1409447], [116.9148611, -1.1411152], [116.9147834, -1.1412378], [116.9147186, -1.1413491], [116.9146745, -1.1414003], [116.9146353, -1.1414259], [116.9145848, -1.1414075], [116.9145248, -1.1413434], [116.9144727, -1.141269], [116.9144182, -1.1412209], [116.9144038, -1.1412177], [116.9143606, -1.1412313], [116.9143301, -1.1412594], [116.9143093, -1.1413098], [116.9143029, -1.1413507], [116.9143061, -1.1414684], [116.9144206, -1.1416677], [116.9145424, -1.1417959], [116.9146833, -1.1419928], [116.9147538, -1.1421802], [116.9148003, -1.1423708], [116.9148003, -1.1424893], [116.9147586, -1.1425902], [116.9146961, -1.1426142], [116.9145744, -1.1425806], [116.9144495, -1.1425197], [116.9142909, -1.1424108], [116.9141275, -1.1423083], [116.9140586, -1.1423099], [116.914009, -1.1423484], [116.9139721, -1.1424332], [116.9139577, -1.1426062], [116.9139962, -1.1428288], [116.9141259, -1.1431026], [116.9141932, -1.1432948], [116.914182, -1.1434678], [116.9141243, -1.1436455], [116.9140314, -1.143708], [116.9139401, -1.143724], [116.9137895, -1.1436712], [116.9136758, -1.1435751], [116.9134516, -1.1433269], [116.9129262, -1.1429201], [116.9128141, -1.1427567], [116.9127772, -1.1426382], [116.9127676, -1.1425533], [116.9128205, -1.1424444], [116.9128605, -1.1423708], [116.9129198, -1.1422603], [116.9129534, -1.1421706], [116.9129454, -1.1420505], [116.912923, -1.1419128], [116.912923, -1.1417734], [116.9129502, -1.1416918], [116.9130079, -1.1416341], [116.9130735, -1.1416133], [116.9131761, -1.1415652], [116.9132834, -1.1414916], [116.9133555, -1.1414115], [116.9134372, -1.1412642], [116.9135076, -1.1411697], [116.9135637, -1.1411264], [116.9136502, -1.1410816], [116.913695, -1.1410256], [116.9137127, -1.1409679], [116.9137127, -1.1408846], [116.913663, -1.1407101], [116.9135765, -1.1405755], [116.9132882, -1.1401752], [116.9131825, -1.1399093], [116.9131216, -1.1395762], [116.9131024, -1.1392944], [116.9131312, -1.1389773], [116.9131761, -1.1388844], [116.9132626, -1.1388139], [116.91349, -1.1386634], [116.9137655, -1.138452], [116.9139545, -1.1382438], [116.9141083, -1.1379716], [116.9141884, -1.1377089], [116.9142989, -1.137371], [116.9143005, -1.1372717], [116.9142973, -1.1372029], [116.9142749, -1.1371148], [116.9142493, -1.137078], [116.9142028, -1.1370379], [116.9141499, -1.1370347], [116.9141147, -1.1370523], [116.9140282, -1.1371212], [116.9139689, -1.1372173], [116.9138857, -1.1373662], [116.9137351, -1.1375424], [116.9135877, -1.1376369], [116.9133154, -1.1377602], [116.9130944, -1.1378322], [116.9129678, -1.1379107], [116.9128717, -1.1379812], [116.9128028, -1.1380757], [116.9126715, -1.1384136], [116.9124521, -1.1386938], [116.9123528, -1.1387851], [116.9122518, -1.1388284], [116.9120997, -1.1388203], [116.9120036, -1.1387563], [116.9119187, -1.1386698], [116.9118866, -1.1385113], [116.9118866, -1.1382999], [116.9118914, -1.1381173], [116.9119331, -1.1378931], [116.9119972, -1.1376913], [116.9120756, -1.1375055], [116.9122502, -1.1372349], [116.9123544, -1.1370908], [116.912396, -1.1369274], [116.9123912, -1.1368281], [116.912356, -1.1367673], [116.9122999, -1.1367112], [116.912231, -1.1366776], [116.9121637, -1.1366696], [116.9120356, -1.1367016], [116.9119315, -1.1367529], [116.911829, -1.1368554], [116.9117056, -1.1371036], [116.9116159, -1.1374655], [116.9115583, -1.1378274], [116.9115262, -1.1381573], [116.9114622, -1.1384969], [116.9113308, -1.1387979], [116.9112123, -1.1389677], [116.9110553, -1.139115], [116.9110073, -1.1392239], [116.9109816, -1.1393456], [116.9110265, -1.139589], [116.9110777, -1.1397908], [116.9110841, -1.1400118], [116.9110393, -1.1401271], [116.91094, -1.1401656], [116.9107894, -1.1401496], [116.9106324, -1.1400983], [116.9103858, -1.1399926], [116.9101295, -1.1399286], [116.9099309, -1.1398997], [116.9097515, -1.1398485], [116.9096073, -1.1397524], [116.9094663, -1.1395186], [116.9093126, -1.1391583], [116.9092037, -1.1389533], [116.9091268, -1.1388812], [116.909013, -1.138862], [116.9089201, -1.138894], [116.9086343, -1.1391664], [116.908414, -1.1392832], [116.908241, -1.1393104], [116.9080504, -1.139328], [116.9078902, -1.1393696], [116.907738, -1.1394914], [116.9076515, -1.1396227], [116.9075907, -1.139778], [116.9075843, -1.1399974], [116.9076195, -1.1400599], [116.9077204, -1.1401255], [116.9083964, -1.1403818], [116.908989, -1.1405948], [116.9093126, -1.1407677], [116.9094631, -1.1409022], [116.9096297, -1.1411905], [116.9097098, -1.1414275], [116.9097226, -1.1416645], [116.9097547, -1.1418695], [116.9098956, -1.1420873], [116.9102112, -1.1423724], [116.9103281, -1.1425197], [116.9103746, -1.1426062], [116.9104194, -1.1429329], [116.9105411, -1.1433909], [116.9107109, -1.1437304], [116.9107702, -1.1439626], [116.9107782, -1.144094], [116.9107414, -1.1442813], [116.9107205, -1.1445119], [116.9107269, -1.1446945], [116.9107862, -1.1447762], [116.9108375, -1.1448178], [116.9110361, -1.1448675], [116.9111979, -1.1448819], [116.911342, -1.1448851], [116.9114333, -1.1448594], [116.9115294, -1.1447698], [116.9115551, -1.1446865], [116.911507, -1.144544], [116.9115118, -1.1443774], [116.9115775, -1.1442973], [116.9116496, -1.1442877], [116.9117409, -1.1443246], [116.9119315, -1.1444719], [116.9120212, -1.1446096], [116.9121253, -1.1447249], [116.9122903, -1.1448771], [116.9124905, -1.1451589], [116.9125482, -1.1452982], [116.9125674, -1.1454296], [116.912601, -1.1455641], [116.9126811, -1.1456938], [116.912742, -1.1457435], [116.9128845, -1.1458139], [116.9130671, -1.1459052], [116.9132305, -1.1460189], [116.9133907, -1.1462383], [116.9134275, -1.1462895], [116.9136053, -1.1463856], [116.9136966, -1.1464017], [116.9139097, -1.1464241], [116.9139802, -1.1464609], [116.9140602, -1.1466002], [116.9140811, -1.1467203], [116.9140923, -1.1468164], [116.9141163, -1.1478846], [116.9141339, -1.1482882], [116.9141387, -1.1484691], [116.9141179, -1.1485668], [116.9140554, -1.1486661], [116.9139329, -1.1487198], [116.9138792, -1.1487198], [116.9138376, -1.1487126], [116.9137944, -1.1486845], [116.9137591, -1.1486365], [116.9137167, -1.1485644], [116.9136478, -1.1485188], [116.9135741, -1.1485004], [116.9135036, -1.1485004], [116.913466, -1.1485172], [116.9133867, -1.1485724], [116.9133058, -1.1486821], [116.9131392, -1.1490633], [116.9130559, -1.149233], [116.9129582, -1.1494028], [116.9129198, -1.1495293], [116.9129006, -1.1497135], [116.9129006, -1.1497631], [116.912919, -1.1498656], [116.9129406, -1.1499593], [116.912927, -1.1500466], [116.912911, -1.1501202], [116.9128653, -1.1502099], [116.9128205, -1.1502499], [116.9127724, -1.1502924], [116.9127356, -1.1503492], [116.9127348, -1.1504389], [116.9127308, -1.1505166], [116.9127452, -1.1506423], [116.9127988, -1.1507808], [116.9128085, -1.1508449], [116.91279, -1.1509338], [116.9127712, -1.1510002], [116.9127416, -1.1510739], [116.9127252, -1.1511231], [116.9127011, -1.1511572], [116.9126403, -1.1511944], [116.9125758, -1.1512537], [116.9125362, -1.1512937], [116.9125173, -1.1513037], [116.9124889, -1.1512993], [116.9124725, -1.1512881], [116.9124569, -1.1512609], [116.9124565, -1.15121], [116.9125041, -1.1510699], [116.9125426, -1.1509866], [116.912561, -1.1509113], [116.912565, -1.1508201], [116.912545, -1.1507208], [116.9125289, -1.1506407], [116.9124809, -1.1505286], [116.912432, -1.1504397], [116.9123479, -1.1503268], [116.9123087, -1.1502964], [116.9122542, -1.1502596], [116.9121149, -1.1501995], [116.911994, -1.1501226], [116.9118338, -1.1499361], [116.9117441, -1.1497855], [116.9117152, -1.1496702], [116.9117217, -1.1495501], [116.9117425, -1.149446], [116.9118583, -1.1492495], [116.9122016, -1.1487721], [116.9125418, -1.1482017], [116.9127436, -1.1477693], [116.9128717, -1.1473353], [116.9128893, -1.1472208], [116.912895, -1.1471087], [116.9128557, -1.1469349], [116.9127924, -1.1468068], [116.9127099, -1.1466731], [116.9126619, -1.1466211], [116.912609, -1.1465954], [116.9125722, -1.1465994], [116.9125209, -1.1466194], [116.9124969, -1.1466531], [116.9124857, -1.1467051], [116.9125249, -1.146802], [116.9126106, -1.1469197], [116.9126275, -1.1469758], [116.9126235, -1.1470342], [116.912613, -1.1470983], [116.9125321, -1.14718], [116.912404, -1.1472825], [116.9122566, -1.1474106], [116.9121701, -1.1475195], [116.9120708, -1.1476332], [116.9119607, -1.1477116], [116.9119371, -1.1477152], [116.9119023, -1.1477068], [116.9118758, -1.1476868], [116.9118522, -1.1476528], [116.9118286, -1.147624], [116.9118089, -1.1475935], [116.9117749, -1.1475531], [116.9117457, -1.1475363], [116.9117096, -1.1475355], [116.911644, -1.1475563], [116.9116251, -1.1475767], [116.9115943, -1.1476156], [116.9115843, -1.1476544], [116.9115787, -1.1477293], [116.9115455, -1.1479743], [116.9114942, -1.1482417], [116.9114558, -1.1483586], [116.9114109, -1.1484307], [116.91135, -1.1484739], [116.9112876, -1.1484851], [116.9112155, -1.1484451], [116.9111034, -1.148309], [116.9110153, -1.1481665], [116.9108935, -1.1479919], [116.9107478, -1.14767], [116.9107221, -1.1475611], [116.9107253, -1.1474346], [116.9107454, -1.1473049], [116.9107654, -1.1472304], [116.9108094, -1.1471615], [116.9108679, -1.1470951], [116.9108935, -1.147043], [116.9108903, -1.1470038], [116.9108663, -1.1469614], [116.910807, -1.1469117], [116.9107558, -1.1468821], [116.9107077, -1.1468733], [116.9106364, -1.1469069], [116.9105788, -1.1469902], [116.9105427, -1.1470727], [116.9104867, -1.1473337], [116.9104338, -1.1477821], [116.9103906, -1.1481152], [116.9103698, -1.1482882], [116.9103377, -1.1484211], [116.9103041, -1.1485044], [116.9102902, -1.1485314], [116.9102656, -1.1485476], [116.910248, -1.148554], [116.9102224, -1.1485492], [116.9101695, -1.1484851], [116.9100734, -1.148333], [116.9099405, -1.1480608], [116.9098476, -1.1478237], [116.9097915, -1.147497], [116.9097675, -1.1473289], [116.9096858, -1.1471415], [116.9095817, -1.1469445], [116.9095192, -1.1468228], [116.9094904, -1.1467011], [116.909516, -1.1466018], [116.909556, -1.1465282], [116.9096073, -1.1464513], [116.9096377, -1.1463392], [116.9096313, -1.1462351], [116.9095897, -1.146131], [116.909484, -1.1459276], [116.9094247, -1.1457499], [116.9093526, -1.1455817], [116.9092837, -1.1453751], [116.9092549, -1.1451253], [116.9092405, -1.1448979], [116.9092053, -1.1447233], [116.9091444, -1.1445215], [116.9090691, -1.144339], [116.9090082, -1.1442445], [116.9088833, -1.1441548], [116.9087616, -1.1441276], [116.9087055, -1.1441692], [116.9086751, -1.1442109], [116.9086462, -1.1443005], [116.9086927, -1.14456], [116.9087488, -1.1448338], [116.9087872, -1.1451397], [116.9088064, -1.1454087], [116.9087295, -1.1457419], [116.9086799, -1.1459629], [116.9086174, -1.1462127], [116.9085678, -1.1464161], [116.9084861, -1.1465618], [116.90839, -1.1466307], [116.9083115, -1.1466643], [116.9081337, -1.1466947], [116.9079607, -1.1466627], [116.9077124, -1.146605], [116.9075618, -1.1466066], [116.9074577, -1.1466499], [116.9074097, -1.146738], [116.9074193, -1.1469157], [116.9074705, -1.1470502], [116.9076067, -1.14722], [116.9078041, -1.1473995], [116.9079971, -1.1474679], [116.9082989, -1.1475152], [116.9086271, -1.1476328], [116.9087008, -1.1477152], [116.9087481, -1.147824], [116.908785, -1.1479609], [116.9088061, -1.1481644], [116.9088025, -1.1483468], [116.9087341, -1.14851], [116.9087078, -1.1486012], [116.9087183, -1.1487345], [116.9087797, -1.1488854], [116.908799, -1.1490591], [116.9087745, -1.1493152], [116.9086534, -1.1497223], [116.9085972, -1.1498644], [116.9085042, -1.150224], [116.9084884, -1.1503275], [116.9085288, -1.150417], [116.9086236, -1.1504609], [116.9088201, -1.150424], [116.9093272, -1.1503714], [116.9099133, -1.1502293], [116.9101256, -1.1501889], [116.9102309, -1.1502047], [116.9102607, -1.150224], [116.910352, -1.1503398], [116.9103976, -1.1504661], [116.910438, -1.1505959], [116.9105257, -1.1509907], [116.9105485, -1.1511977], [116.9105625, -1.1514521], [116.9104906, -1.151731], [116.9104274, -1.1518731], [116.9104222, -1.1519907], [116.9104555, -1.1521135], [116.9105941, -1.1522363], [116.9107213, -1.1523223], [116.9107801, -1.1524205], [116.9108073, -1.1525644], [116.910745, -1.152931], [116.9107029, -1.1530503], [116.9106134, -1.1531416], [116.910531, -1.1532661], [116.9104573, -1.153438], [116.9104344, -1.1535538], [116.910452, -1.1536345], [116.9105503, -1.1537582], [116.9106441, -1.15386], [116.9106801, -1.153963], [116.9106924, -1.1540916], [116.9107433, -1.1543907], [116.9107231, -1.1545231], [116.9106582, -1.1546547], [116.9105985, -1.1547442], [116.9104511, -1.1549091], [116.9103151, -1.1550345], [116.9102204, -1.1550723], [116.9101493, -1.1550626], [116.9100309, -1.1549942], [116.9098141, -1.1548538], [116.9096474, -1.1546889], [116.9095702, -1.1546082], [116.9095123, -1.1544942], [116.9094632, -1.1543319], [116.9094246, -1.1541196], [116.9094334, -1.1540354], [116.9094325, -1.1539223], [116.9094228, -1.1537942], [116.9093886, -1.1537144], [116.9093588, -1.1536556], [116.9093272, -1.1535266], [116.9093189, -1.1531622], [116.9093079, -1.1528337], [116.9093127, -1.1526205], [116.9093184, -1.152531], [116.9093535, -1.1524648], [116.9093956, -1.152424], [116.9094207, -1.1523556], [116.9094272, -1.1523135], [116.9094097, -1.1522854], [116.9093711, -1.1522556], [116.9092307, -1.1521819], [116.9091307, -1.1521082], [116.9090763, -1.152017], [116.9090728, -1.1518977], [116.9091237, -1.1517381], [116.9092228, -1.1515495], [116.9092851, -1.1514907], [116.9094044, -1.1514582], [116.9094834, -1.1514249], [116.9095483, -1.1513758], [116.9095676, -1.1512968], [116.9095632, -1.1512547], [116.9095325, -1.1512021], [116.9094886, -1.1511679], [116.9094492, -1.1511407], [116.9093272, -1.1511056], [116.9092404, -1.1510924], [116.9091395, -1.151081], [116.9090552, -1.1510337], [116.9089947, -1.1509766], [116.9089526, -1.1509609], [116.9088508, -1.1509451], [116.9087982, -1.1509459], [116.9087069, -1.150967], [116.908606, -1.151031], [116.9085297, -1.1511205], [116.9084727, -1.1512486], [116.9083463, -1.1515784], [116.9083147, -1.1517047], [116.908334, -1.1518091], [116.9083235, -1.1519196], [116.9082963, -1.1519889], [116.9082647, -1.1521152], [116.9082401, -1.1522582], [116.9082086, -1.152353], [116.9081498, -1.1524249], [116.908034, -1.152503], [116.9079138, -1.1525582], [116.9078199, -1.1525793], [116.9077058, -1.1525503], [116.9076014, -1.152474], [116.9074953, -1.1523775], [116.9073952, -1.1522275], [116.9073514, -1.1521117], [116.9073128, -1.1517986], [116.9072636, -1.1516696], [116.9071829, -1.1515521], [116.9070689, -1.1514442], [116.9069873, -1.1513775], [116.9068943, -1.1512328], [116.9068478, -1.1511144], [116.906839, -1.1510038], [116.9068478, -1.1508828], [116.9068636, -1.1507074], [116.9068899, -1.1506249], [116.9069329, -1.1505661], [116.9069873, -1.1505337], [116.907061, -1.1504758], [116.9070811, -1.1504205], [116.907075, -1.150381], [116.9070522, -1.1503582], [116.906975, -1.1503293], [116.9068495, -1.1502872], [116.9067109, -1.1502416], [116.9066468, -1.1502337], [116.9065889, -1.1502249], [116.9065328, -1.1502337], [116.9064863, -1.1502565], [116.9064565, -1.1502977], [116.906431, -1.1503652], [116.9064108, -1.150424], [116.9063863, -1.15046], [116.9063547, -1.1505117], [116.9063003, -1.1505424], [116.9062608, -1.150531], [116.9062397, -1.1504995], [116.9062327, -1.1504126], [116.9062327, -1.1502793], [116.9062327, -1.1501056], [116.9062178, -1.1497389], [116.9061704, -1.1495977], [116.9060897, -1.1494802], [116.906009, -1.149403], [116.905923, -1.1493293], [116.9058142, -1.1492591], [116.9056967, -1.1491942], [116.9055229, -1.1490714], [116.9054334, -1.1489766], [116.9053317, -1.1488924], [116.9052071, -1.1488574], [116.9050369, -1.1488766], [116.9049728, -1.1489056], [116.9048026, -1.1490556], [116.9047105, -1.1492109], [116.904607, -1.1493258], [116.9044525, -1.1494372], [116.9043122, -1.1495293], [116.9042648, -1.1495986], [116.904263, -1.1497617], [116.904292, -1.1498661], [116.9044131, -1.1499538], [116.9046456, -1.1500231], [116.9047614, -1.1500468], [116.9049105, -1.1500468], [116.90505, -1.1500977], [116.9051202, -1.1502038], [116.9051246, -1.1502854], [116.9051158, -1.1503995], [116.9050764, -1.1506503], [116.9050702, -1.1507389], [116.9051, -1.1508266], [116.9051895, -1.1509459], [116.905286, -1.1510933], [116.9054089, -1.1512363], [116.9055703, -1.1515135], [116.9056528, -1.1516723], [116.905716, -1.1517837], [116.9057721, -1.1518916], [116.9058379, -1.1519451], [116.905909, -1.1519538], [116.9059932, -1.1520082], [116.9060213, -1.1520749], [116.9060248, -1.1521521], [116.9060072, -1.1522345], [116.9059248, -1.1523381], [116.9058265, -1.15241], [116.9057089, -1.1524872], [116.905623, -1.1525784], [116.9056072, -1.1526468], [116.9056194, -1.152717], [116.9056914, -1.1527854], [116.905759, -1.1528107], [116.9058362, -1.1527995], [116.905909, -1.1527968], [116.9059809, -1.1528091], [116.9060213, -1.1528547], [116.9060458, -1.1529152], [116.9060818, -1.1530793], [116.9060055, -1.1532626], [116.9059502, -1.153381], [116.9059142, -1.1534731], [116.9058353, -1.1535293], [116.9057932, -1.1535731], [116.9057809, -1.1536152], [116.9057967, -1.1536363], [116.9058405, -1.1536521], [116.9058985, -1.1536661], [116.9059774, -1.1536784], [116.9060283, -1.1537012], [116.9060581, -1.1537591], [116.9060669, -1.1538073], [116.9060669, -1.1538573], [116.9060344, -1.1539337], [116.9059274, -1.1539968], [116.9058634, -1.1540302], [116.9057888, -1.1541231], [116.9056984, -1.1543047], [116.905651, -1.1544135], [116.9056528, -1.1544731], [116.9056686, -1.1545275], [116.9057212, -1.1545977], [116.9059055, -1.1547609], [116.9059862, -1.1548959], [116.9060283, -1.1550065], [116.9061143, -1.1551451], [116.9062073, -1.1552749], [116.906302, -1.1554398], [116.9063687, -1.155603], [116.9064565, -1.1558626], [116.9064775, -1.1559486], [116.9065424, -1.1560819], [116.9066056, -1.1561573], [116.90676, -1.1563258], [116.9068811, -1.1565205], [116.9069829, -1.1567293], [116.9071557, -1.1568872], [116.9072487, -1.1570073], [116.9073154, -1.1570512], [116.907426, -1.1570573], [116.9075707, -1.1570363], [116.9076795, -1.1570714], [116.9079489, -1.1572214], [116.9080506, -1.1573082], [116.9080866, -1.1573705], [116.9080787, -1.1574205], [116.9080498, -1.1574582], [116.9079603, -1.1575179], [116.9078927, -1.1576065], [116.9078111, -1.1577521], [116.9076567, -1.1578696], [116.9075576, -1.1579477], [116.907447, -1.1580187], [116.9073847, -1.1580503], [116.9073031, -1.1580354], [116.9072364, -1.1579994], [116.9071224, -1.1578837], [116.9070241, -1.1577635], [116.9069688, -1.1576459], [116.9069574, -1.1575801], [116.9069513, -1.1575038], [116.9069355, -1.1574512], [116.9068987, -1.1574108], [116.9066635, -1.1572977], [116.9064433, -1.1572275], [116.9063512, -1.1571889], [116.9061836, -1.1570942], [116.9058212, -1.1568468], [116.9054282, -1.1565556], [116.9051027, -1.1563214], [116.905029, -1.1562538], [116.9050123, -1.1562073], [116.9050114, -1.1561538], [116.905036, -1.1560977], [116.9051658, -1.1557863], [116.9051764, -1.1556933], [116.9051395, -1.1555802], [116.9050097, -1.155417], [116.904936, -1.1553284], [116.9049, -1.1552433], [116.904893, -1.15511], [116.9048465, -1.1548433], [116.9047947, -1.1546986], [116.9046201, -1.15441], [116.9045113, -1.1542959], [116.904406, -1.1542258], [116.9042894, -1.1541986], [116.9042025, -1.154203], [116.9040849, -1.1542065], [116.9039814, -1.1541889], [116.9038033, -1.1541047], [116.903637, -1.1540315], [116.9033045, -1.1539152], [116.9032567, -1.1538863], [116.9032334, -1.1538543], [116.9032212, -1.153817], [116.9032106, -1.1537714], [116.9031997, -1.153742], [116.9031883, -1.1537218], [116.903179, -1.1537174], [116.903129, -1.1537188], [116.903058, -1.1537411], [116.9029979, -1.1537516], [116.9029448, -1.1537477], [116.9029145, -1.1537407], [116.9028711, -1.1537157], [116.9027851, -1.1537003], [116.9027513, -1.1537082], [116.9026741, -1.1537683], [116.9025337, -1.1539192], [116.9024554, -1.1539672], [116.9024239, -1.1539795], [116.902385, -1.1539852], [116.9023609, -1.1539775], [116.9023129, -1.1539563], [116.9021591, -1.153867], [116.902103, -1.1538135], [116.902088, -1.1537236], [116.9021038, -1.1536521], [116.9021394, -1.1535933], [116.9021894, -1.1535205], [116.9022188, -1.1534859], [116.9022508, -1.1534657], [116.9022863, -1.1534552], [116.9023425, -1.1534446], [116.902392, -1.1534218], [116.9024605, -1.1533674], [116.9024938, -1.1533052], [116.9025219, -1.1532736], [116.902571, -1.1532402], [116.9026219, -1.153231], [116.9026947, -1.1532407], [116.902807, -1.1532718], [116.9029071, -1.1533056], [116.9029821, -1.1532933], [116.9030141, -1.1532631], [116.9030365, -1.1532069], [116.9030413, -1.1531499], [116.9030654, -1.1530832], [116.9031154, -1.1530095], [116.9031624, -1.1529749], [116.9032383, -1.1529481], [116.9034528, -1.1529034], [116.9035067, -1.1528788], [116.9035379, -1.1528464], [116.9035704, -1.1527819], [116.9035769, -1.1527131], [116.9035418, -1.152524], [116.9035138, -1.1524486], [116.9034857, -1.1524117], [116.9034085, -1.1523802], [116.9032576, -1.1523644], [116.903176, -1.1523477], [116.9031189, -1.1522881], [116.9030781, -1.152231], [116.9030492, -1.1521815], [116.9029645, -1.1521095], [116.9028996, -1.1520775], [116.9028527, -1.1520578], [116.9028184, -1.1520258], [116.9027886, -1.1519709], [116.9027934, -1.151917], [116.9028461, -1.1518249], [116.9028671, -1.15176], [116.9028636, -1.1517135], [116.902847, -1.1516863], [116.9028031, -1.1516696], [116.9027206, -1.1516898], [116.9025873, -1.1517547], [116.9024249, -1.151803], [116.9023355, -1.1517995], [116.902274, -1.1517626], [116.9022319, -1.1517091], [116.9022284, -1.1516407], [116.9022468, -1.1514609], [116.9023565, -1.1512284], [116.902403, -1.1510872], [116.9024039, -1.1510117], [116.9023688, -1.1508275], [116.9022626, -1.1502942], [116.9021609, -1.149624], [116.9021293, -1.1490345], [116.9021223, -1.1485363], [116.9021644, -1.1477784], [116.9021082, -1.14741], [116.9020731, -1.1472837], [116.9019713, -1.1471117], [116.9015511, -1.1466459], [116.9012896, -1.1464328], [116.90118, -1.1463284], [116.9011229, -1.1462582], [116.9010396, -1.1462021], [116.9009361, -1.1461916], [116.9008825, -1.1462126], [116.9008167, -1.1462854], [116.9007781, -1.1463924], [116.9007816, -1.1465538], [116.9008799, -1.1468205], [116.9009501, -1.1469714], [116.9009922, -1.1471433], [116.9010027, -1.1473538], [116.9008623, -1.1481679], [116.9007886, -1.1489995], [116.9007606, -1.1506591], [116.9007781, -1.1509363], [116.9007887, -1.1512223], [116.9007922, -1.1514328], [116.9007693, -1.1515854], [116.9007079, -1.1517345], [116.9006342, -1.1518837], [116.9005983, -1.1519679], [116.900557, -1.1520714], [116.9004982, -1.1521398], [116.9004675, -1.1521688], [116.9004096, -1.1521872], [116.900357, -1.1521889], [116.9002912, -1.1521784], [116.9002517, -1.1521775], [116.9002219, -1.1521889], [116.9001999, -1.1522293], [116.9002008, -1.1522819], [116.900221, -1.1523442], [116.9003114, -1.1525223], [116.9003403, -1.1526073], [116.9003859, -1.1527258], [116.9004017, -1.1528003], [116.9004184, -1.1528714], [116.9004605, -1.1529495], [116.9005254, -1.1530451], [116.9005711, -1.1531337], [116.9006009, -1.1532573], [116.9006141, -1.1533214], [116.9006114, -1.1533898], [116.900607, -1.1534354], [116.9006167, -1.1534819], [116.900622, -1.1535319], [116.900607, -1.1535749], [116.9005781, -1.1536161], [116.9005421, -1.1536337], [116.9004886, -1.1536459], [116.9004596, -1.1536389], [116.9004359, -1.1536179], [116.900407, -1.1535819], [116.9003675, -1.1535345], [116.9003149, -1.1534661], [116.9003026, -1.1534275], [116.9003008, -1.1533916], [116.900328, -1.1533284], [116.9003596, -1.1532609], [116.9003719, -1.1532065], [116.9003644, -1.1531556], [116.9003359, -1.1530968], [116.9002824, -1.1530258], [116.9001762, -1.1528968], [116.9001368, -1.1527565], [116.9001096, -1.1526986], [116.900049, -1.1526205], [116.9000166, -1.1525933], [116.8999288, -1.1525266], [116.8997928, -1.1523968], [116.8997174, -1.1522924], [116.8996814, -1.1521758], [116.8996726, -1.1521038], [116.8996516, -1.1520152], [116.8995612, -1.1518512], [116.8993875, -1.1516293], [116.8993629, -1.1515951], [116.8993445, -1.1515275], [116.8993489, -1.1514731], [116.8993805, -1.1513924], [116.8994235, -1.151281], [116.8994296, -1.1512056], [116.8994191, -1.1511775], [116.8993814, -1.1511503], [116.8992857, -1.1511407], [116.8991892, -1.1511337], [116.8991287, -1.1511152], [116.8990791, -1.1510929], [116.8990462, -1.1510477], [116.8990287, -1.1509837], [116.8990291, -1.1509363], [116.8990453, -1.1508797], [116.8990892, -1.1507902], [116.8991335, -1.1507087], [116.8991629, -1.1506179], [116.8991603, -1.1505135], [116.8991076, -1.1503907], [116.8989743, -1.1502854], [116.898783, -1.1502065], [116.8985479, -1.1501503], [116.8981934, -1.1501749], [116.8978936, -1.1502226], [116.8977749, -1.1502481], [116.8977161, -1.1502556], [116.8976876, -1.1502543], [116.8976284, -1.1502328], [116.8975512, -1.1501652], [116.8974968, -1.1500521], [116.8974318, -1.149903], [116.8973774, -1.149831], [116.8973195, -1.1498012], [116.8972371, -1.1498012], [116.8971827, -1.1498152], [116.8971107, -1.1498837], [116.8969756, -1.150017], [116.8967703, -1.1502626], [116.8965492, -1.1505126], [116.8962325, -1.1508758], [116.8960473, -1.1510977], [116.895993, -1.1511872], [116.8959772, -1.1512381], [116.8959763, -1.1512828]], [[116.9146528, -1.1605503], [116.91468, -1.1604415], [116.9147862, -1.1601415], [116.914807, -1.1600606], [116.9148226, -1.1600387], [116.9148386, -1.1600323], [116.9148549, -1.1600365], [116.9148696, -1.1600505], [116.9148812, -1.1600812], [116.9148867, -1.1601545], [116.9149003, -1.1603613], [116.9149077, -1.1604056], [116.9149305, -1.1604643], [116.9149507, -1.1605051], [116.9149762, -1.1605494], [116.9149911, -1.1606516], [116.9149792, -1.1607244], [116.9149551, -1.1607657], [116.9149301, -1.1607898], [116.9149046, -1.1608029], [116.9148761, -1.16081], [116.9148235, -1.1608122], [116.9147559, -1.1607972], [116.9146967, -1.1607538], [116.9146599, -1.1606762], [116.9146555, -1.1606205], [116.9146528, -1.1605503]]]}}, {"type": "Feature", "properties": {"name": "Bendungan Manggar", "kind": "dam", "source": "OpenStreetMap relation 18256027"}, "geometry": {"type": "Polygon", "coordinates": [[[116.9176371, -1.1722414], [116.9176472, -1.1722756], [116.917676, -1.1723051], [116.9177391, -1.1723064], [116.9180294, -1.1722145], [116.9181079, -1.1721985], [116.9181501, -1.172242], [116.918183, -1.172295], [116.9182151, -1.1723705], [116.9182239, -1.1723901], [116.918244, -1.1724338], [116.9182628, -1.1724988], [116.9182634, -1.1725377], [116.9182581, -1.1725605], [116.9182426, -1.1725839], [116.9181072, -1.1726852], [116.9179329, -1.1727904], [116.9177755, -1.1728783], [116.9178356, -1.1729621], [116.9179013, -1.1729902], [116.9181159, -1.1730009], [116.9182554, -1.1729768], [116.9184405, -1.1729124], [116.9185182, -1.1728776], [116.9184163, -1.1725665], [116.918364, -1.1721039], [116.9183734, -1.171821], [116.9184338, -1.1714697], [116.91847, -1.1714563], [116.918529, -1.1714751], [116.9186014, -1.1714778], [116.9186832, -1.1714429], [116.9189528, -1.1712217], [116.9199827, -1.1703836], [116.9205433, -1.1699278], [116.9210127, -1.1695765], [116.9213131, -1.1693324], [116.9215518, -1.1690884], [116.9217101, -1.1688551], [116.9217905, -1.1685896], [116.9218147, -1.1683563], [116.9217932, -1.1681632], [116.9216806, -1.1679246], [116.9215465, -1.1677959], [116.9211146, -1.1671978], [116.9208115, -1.1666535], [116.9207847, -1.1664014], [116.9207659, -1.1661681], [116.9207498, -1.1659884], [116.9206881, -1.1658248], [116.9197306, -1.1644652], [116.91939, -1.164012], [116.9193605, -1.1639222], [116.9193725, -1.1638096], [116.9193605, -1.1637573], [116.9193028, -1.1636701], [116.919215, -1.1636172], [116.9191559, -1.1637037], [116.9191553, -1.1637197], [116.9191586, -1.1637425], [116.919164, -1.1637694], [116.9191626, -1.1637908], [116.9191546, -1.163821], [116.9191298, -1.1638994], [116.9190641, -1.1640945], [116.9190466, -1.1641434], [116.919045, -1.1641954], [116.9190611, -1.1642876], [116.9190996, -1.1643043], [116.919166, -1.1643405], [116.9192015, -1.1643808], [116.9192612, -1.1644572], [116.9203073, -1.166083], [116.9203408, -1.1661634], [116.9203609, -1.166266], [116.9203784, -1.1664517], [116.9204065, -1.1667969], [116.9204337, -1.1669464], [116.9204602, -1.1670366], [116.9205192, -1.1671603], [116.9207089, -1.1674647], [116.921116, -1.1680841], [116.9211756, -1.1682222], [116.9212058, -1.1683181], [116.9212152, -1.1684059], [116.9212145, -1.1684931], [116.9211964, -1.1686117], [116.9211448, -1.1687224], [116.9210382, -1.1688598], [116.9208779, -1.1689899], [116.9201785, -1.1695215], [116.919001, -1.1703904], [116.9188736, -1.1704762], [116.9186993, -1.1706123], [116.9185591, -1.1707604], [116.9184364, -1.1709267], [116.9183698, -1.1710323], [116.9183121, -1.1709941], [116.9182581, -1.1710467], [116.9182262, -1.1710854], [116.9182027, -1.1711003], [116.9181461, -1.1711633], [116.9181119, -1.1712337], [116.9180073, -1.1715515], [116.9179362, -1.1717064], [116.9178081, -1.1718814], [116.9176707, -1.1721086], [116.9176371, -1.1722414]]]}}]}