{"type": "FeatureCollection", "name": "Bendungan Tapin", "features": [{"type": "Feature", "properties": {"name": "Waduk Tapin", "kind": "reservoir", "source": "OpenStreetMap way 790965466"}, "geometry": {"type": "Polygon", "coordinates": [[[115.331153, -2.948037], [115.331518, -2.948187], [115.331454, -2.948315], [115.331175, -2.948422], [115.331239, -2.948615], [115.331454, -2.94868], [115.33169, -2.948513], [115.33184, -2.948513], [115.331818, -2.948749], [115.331883, -2.949027], [115.33214, -2.94877], [115.332162, -2.948556], [115.332226, -2.948384], [115.332419, -2.948256], [115.332569, -2.948041], [115.332827, -2.947956], [115.332956, -2.948127], [115.33332, -2.948106], [115.333471, -2.947913], [115.33375, -2.947699], [115.33405, -2.947613], [115.334307, -2.947699], [115.334583, -2.947874], [115.33499, -2.947853], [115.334969, -2.94766], [115.335119, -2.94751], [115.335312, -2.947531], [115.335419, -2.947746], [115.335634, -2.947853], [115.335827, -2.947767], [115.335698, -2.947531], [115.335891, -2.947381], [115.335999, -2.947531], [115.336192, -2.947596], [115.336471, -2.947424], [115.336514, -2.947167], [115.336621, -2.94706], [115.33675, -2.947189], [115.336836, -2.947381], [115.337007, -2.947424], [115.337093, -2.947189], [115.33705, -2.946953], [115.337136, -2.946739], [115.337308, -2.946696], [115.337522, -2.947039], [115.337651, -2.947124], [115.337844, -2.946974], [115.338187, -2.946867], [115.338659, -2.946846], [115.339024, -2.946846], [115.339239, -2.946546], [115.339689, -2.946267], [115.340033, -2.946181], [115.34014, -2.946396], [115.340226, -2.946846], [115.340183, -2.947124], [115.340376, -2.947103], [115.340655, -2.946953], [115.34087, -2.946589], [115.341106, -2.946331], [115.34147, -2.94616], [115.341513, -2.94601], [115.34147, -2.945667], [115.341621, -2.94556], [115.3419, -2.945624], [115.342136, -2.945774], [115.3425, -2.945689], [115.342629, -2.945539], [115.342779, -2.945324], [115.343058, -2.945303], [115.343337, -2.945324], [115.343423, -2.945539], [115.34353, -2.945731], [115.343681, -2.945731], [115.343852, -2.945474], [115.344153, -2.94556], [115.344346, -2.945753], [115.34441, -2.946053], [115.344153, -2.946246], [115.343895, -2.946546], [115.343895, -2.946889], [115.343616, -2.94736], [115.343509, -2.947981], [115.343723, -2.948324], [115.343828, -2.948769], [115.344064, -2.949154], [115.344171, -2.94969], [115.344107, -2.950097], [115.343785, -2.950697], [115.343785, -2.95089], [115.343978, -2.95104], [115.3443, -2.950997], [115.344536, -2.950826], [115.344836, -2.950762], [115.344858, -2.950997], [115.344708, -2.951147], [115.344708, -2.951597], [115.344557, -2.95209], [115.344429, -2.952412], [115.344193, -2.952754], [115.344279, -2.953033], [115.344708, -2.952669], [115.34503, -2.952326], [115.345158, -2.95179], [115.345587, -2.951576], [115.345974, -2.951404], [115.346274, -2.951104], [115.34666, -2.950976], [115.347004, -2.950933], [115.347175, -2.951062], [115.347261, -2.95089], [115.347454, -2.950847], [115.347626, -2.95104], [115.347948, -2.950997], [115.348119, -2.950847], [115.348077, -2.95059], [115.348012, -2.950333], [115.348077, -2.950012], [115.348227, -2.949776], [115.348377, -2.94969], [115.348549, -2.949733], [115.348849, -2.949733], [115.348849, -2.949454], [115.348742, -2.94924], [115.34887, -2.949026], [115.349192, -2.948983], [115.349514, -2.949004], [115.349729, -2.949112], [115.349707, -2.949326], [115.3496, -2.949454], [115.349385, -2.949604], [115.349407, -2.94984], [115.349579, -2.950054], [115.34975, -2.95044], [115.3496, -2.950654], [115.349471, -2.950847], [115.349729, -2.951083], [115.349875, -2.95141], [115.349833, -2.951667], [115.34979, -2.951839], [115.34994, -2.951946], [115.350369, -2.951732], [115.350777, -2.95186], [115.35112, -2.952053], [115.351206, -2.952396], [115.351013, -2.95276], [115.350669, -2.952825], [115.350369, -2.952867], [115.350047, -2.953146], [115.349918, -2.953446], [115.350112, -2.953575], [115.350498, -2.95366], [115.350562, -2.954046], [115.350755, -2.953725], [115.350927, -2.953617], [115.35142, -2.95366], [115.351592, -2.953725], [115.351807, -2.953982], [115.352, -2.954517], [115.351893, -2.954775], [115.351614, -2.955139], [115.351742, -2.955246], [115.352043, -2.955139], [115.352257, -2.954603], [115.352399, -2.95469], [115.352528, -2.955204], [115.352614, -2.956018], [115.352657, -2.956254], [115.352936, -2.956383], [115.352978, -2.956597], [115.352764, -2.956876], [115.352485, -2.957176], [115.352592, -2.95739], [115.352592, -2.957626], [115.352914, -2.957776], [115.353279, -2.957797], [115.353365, -2.957518], [115.353515, -2.957154], [115.353772, -2.956918], [115.354051, -2.956918], [115.354287, -2.957133], [115.354352, -2.957411], [115.354051, -2.957583], [115.354008, -2.957904], [115.354159, -2.958076], [115.354223, -2.958376], [115.354459, -2.958483], [115.354438, -2.95814], [115.354631, -2.958097], [115.354888, -2.958011], [115.354867, -2.957711], [115.355124, -2.957604], [115.35551, -2.957497], [115.355317, -2.957411], [115.355146, -2.957133], [115.355382, -2.95694], [115.355661, -2.956897], [115.356068, -2.957111], [115.356068, -2.957476], [115.356326, -2.957604], [115.356669, -2.95769], [115.357034, -2.957861], [115.35742, -2.957883], [115.357656, -2.958097], [115.357849, -2.957861], [115.357678, -2.957476], [115.357635, -2.957047], [115.357442, -2.956918], [115.357291, -2.956618], [115.357506, -2.956233], [115.357485, -2.956018], [115.357291, -2.955911], [115.35712, -2.955847], [115.356812, -2.955544], [115.356683, -2.955179], [115.356704, -2.954879], [115.356919, -2.954772], [115.35709, -2.954429], [115.356833, -2.954365], [115.356661, -2.954108], [115.356769, -2.953851], [115.35649, -2.953465], [115.356533, -2.953037], [115.356661, -2.952737], [115.356704, -2.952394], [115.356554, -2.952051], [115.356554, -2.951901], [115.356897, -2.951665], [115.357176, -2.951687], [115.357477, -2.951579], [115.357541, -2.951365], [115.35782, -2.951258], [115.358185, -2.951237], [115.358399, -2.951322], [115.358421, -2.951815], [115.358429, -2.952317], [115.358214, -2.952424], [115.357978, -2.952789], [115.357935, -2.953089], [115.357849, -2.953346], [115.358171, -2.953281], [115.35845, -2.95311], [115.358471, -2.953539], [115.358235, -2.954246], [115.357999, -2.954503], [115.358128, -2.954653], [115.358128, -2.955017], [115.358235, -2.955317], [115.35827, -2.955845], [115.358463, -2.955866], [115.358635, -2.956016], [115.358828, -2.956616], [115.358656, -2.957088], [115.35842, -2.957366], [115.358227, -2.957924], [115.357863, -2.958395], [115.357584, -2.958824], [115.357541, -2.959359], [115.357712, -2.960002], [115.357948, -2.960195], [115.358549, -2.960495], [115.358807, -2.960731], [115.358914, -2.960559], [115.358721, -2.960109], [115.358292, -2.959445], [115.358034, -2.959274], [115.357927, -2.958824], [115.358099, -2.958545], [115.358487, -2.957963], [115.359131, -2.957513], [115.359496, -2.956977], [115.359539, -2.956485], [115.359517, -2.956077], [115.359539, -2.955542], [115.359735, -2.955223], [115.359949, -2.95503], [115.360271, -2.955159], [115.360271, -2.954901], [115.360078, -2.954687], [115.360314, -2.95443], [115.360421, -2.954151], [115.360378, -2.954001], [115.360099, -2.953873], [115.359649, -2.953637], [115.359413, -2.953316], [115.359305, -2.952973], [115.359284, -2.952566], [115.359327, -2.952223], [115.359358, -2.952035], [115.359465, -2.951585], [115.359251, -2.951135], [115.359251, -2.950642], [115.359487, -2.950513], [115.35998, -2.950213], [115.360453, -2.949935], [115.360603, -2.950299], [115.360753, -2.950492], [115.36101, -2.950578], [115.361504, -2.950642], [115.361783, -2.950449], [115.361761, -2.950106], [115.361654, -2.949828], [115.361719, -2.949549], [115.361976, -2.949699], [115.362212, -2.950256], [115.362298, -2.95062], [115.362534, -2.95077], [115.362598, -2.950535], [115.36247, -2.950106], [115.362427, -2.94957], [115.362663, -2.949506], [115.362883, -2.949688], [115.363183, -2.949988], [115.363613, -2.95016], [115.363999, -2.950203], [115.363977, -2.950053], [115.363827, -2.94986], [115.363591, -2.949667], [115.363527, -2.94941], [115.363784, -2.949388], [115.364235, -2.949217], [115.364492, -2.949153], [115.364728, -2.949345], [115.364814, -2.949581], [115.364771, -2.949774], [115.3649, -2.950117], [115.365007, -2.949817], [115.365265, -2.949431], [115.365415, -2.949153], [115.365737, -2.948788], [115.366145, -2.948617], [115.366531, -2.948595], [115.366595, -2.94836], [115.366638, -2.948145], [115.366938, -2.947931], [115.367132, -2.948038], [115.367346, -2.947888], [115.367411, -2.947717], [115.367582, -2.94761], [115.367775, -2.947781], [115.367926, -2.947867], [115.36799, -2.947631], [115.368226, -2.947502], [115.368505, -2.947567], [115.36887, -2.947545], [115.36917, -2.947374], [115.369277, -2.947117], [115.369535, -2.94701], [115.369685, -2.947267], [115.369859, -2.948568], [115.369559, -2.948889], [115.36958, -2.949168], [115.369795, -2.949339], [115.370095, -2.949297], [115.37031, -2.949361], [115.37031, -2.949597], [115.370117, -2.949982], [115.369923, -2.950754], [115.369859, -2.951289], [115.370009, -2.951525], [115.370353, -2.951504], [115.37046, -2.951739], [115.370889, -2.951911], [115.371404, -2.951654], [115.371511, -2.951439], [115.371404, -2.951268], [115.371189, -2.951247], [115.371039, -2.951268], [115.371018, -2.950968], [115.371104, -2.950689], [115.3709347, -2.9504616], [115.3709091, -2.9504271], [115.3706771, -2.950712], [115.3705207, -2.9508162], [115.37036, -2.950755], [115.370425, -2.950455], [115.370639, -2.950241], [115.370897, -2.949641], [115.37094, -2.949277], [115.370407, -2.948257], [115.370343, -2.947893], [115.370407, -2.947785], [115.370493, -2.947614], [115.370321, -2.947357], [115.37015, -2.947314], [115.370085, -2.947121], [115.370235, -2.946885], [115.370214, -2.946478], [115.370021, -2.946071], [115.369484, -2.946007], [115.369184, -2.946178], [115.368862, -2.946521], [115.368776, -2.946328], [115.368433, -2.946135], [115.368347, -2.946157], [115.368326, -2.946457], [115.368326, -2.946735], [115.368047, -2.947057], [115.367746, -2.946864], [115.367382, -2.946757], [115.366995, -2.946757], [115.366588, -2.947185], [115.366116, -2.947443], [115.365815, -2.947335], [115.365558, -2.947271], [115.365343, -2.947443], [115.365343, -2.94785], [115.364571, -2.948364], [115.364077, -2.948793], [115.363541, -2.948835], [115.363326, -2.948728], [115.363326, -2.94845], [115.36339, -2.94815], [115.363712, -2.947807], [115.36397, -2.947593], [115.364506, -2.947421], [115.364742, -2.947185], [115.365043, -2.946628], [115.365279, -2.946307], [115.365536, -2.94575], [115.365643, -2.944914], [115.365407, -2.945128], [115.365343, -2.945621], [115.365086, -2.945985], [115.364828, -2.946071], [115.364549, -2.945985], [115.364206, -2.946093], [115.36412, -2.946328], [115.364184, -2.946543], [115.36397, -2.946907], [115.363455, -2.946885], [115.363197, -2.946821], [115.362961, -2.947271], [115.362682, -2.947293], [115.362639, -2.947743], [115.362275, -2.948021], [115.361841, -2.948463], [115.361605, -2.948763], [115.361283, -2.948871], [115.361133, -2.948463], [115.360875, -2.948206], [115.360553, -2.948185], [115.360231, -2.948399], [115.360146, -2.948785], [115.359952, -2.949042], [115.359631, -2.948999], [115.35933, -2.949278], [115.358923, -2.949342], [115.358751, -2.949235], [115.358536, -2.949342], [115.358365, -2.949192], [115.358386, -2.948913], [115.358622, -2.948742], [115.358622, -2.948442], [115.358408, -2.948056], [115.358086, -2.947692], [115.357764, -2.947478], [115.357528, -2.947435], [115.357463, -2.947713], [115.357721, -2.947906], [115.357828, -2.948185], [115.357828, -2.948613], [115.357721, -2.949235], [115.357635, -2.949621], [115.357378, -2.949706], [115.357099, -2.949556], [115.357077, -2.949192], [115.357013, -2.948892], [115.356627, -2.949063], [115.356648, -2.949363], [115.356509, -2.949569], [115.356316, -2.949955], [115.355887, -2.950447], [115.355715, -2.950898], [115.355737, -2.951176], [115.355844, -2.951498], [115.355608, -2.951476], [115.355522, -2.951262], [115.355394, -2.95109], [115.355157, -2.951369], [115.355243, -2.951583], [115.355436, -2.95184], [115.355265, -2.952076], [115.354921, -2.952162], [115.354771, -2.952205], [115.354728, -2.952505], [115.354728, -2.952633], [115.35505, -2.952698], [115.355007, -2.952998], [115.354921, -2.953319], [115.354557, -2.953769], [115.354278, -2.954048], [115.354085, -2.953962], [115.354085, -2.953598], [115.354106, -2.95319], [115.35387, -2.952719], [115.353591, -2.952462], [115.353291, -2.951969], [115.353462, -2.951733], [115.353484, -2.951519], [115.353269, -2.951326], [115.352862, -2.951219], [115.352454, -2.950898], [115.352583, -2.950533], [115.352754, -2.950255], [115.353355, -2.949997], [115.353891, -2.949505], [115.354556, -2.949165], [115.354899, -2.948822], [115.35492, -2.948265], [115.354963, -2.947751], [115.354749, -2.947365], [115.354599, -2.947129], [115.354255, -2.947022], [115.353793, -2.947149], [115.353471, -2.947535], [115.353085, -2.947771], [115.352785, -2.947749], [115.352763, -2.947535], [115.352914, -2.947364], [115.352914, -2.947149], [115.352592, -2.947064], [115.35242, -2.947235], [115.352163, -2.947021], [115.352055, -2.946657], [115.352077, -2.946314], [115.351841, -2.946035], [115.351283, -2.946507], [115.351068, -2.946314], [115.350768, -2.946442], [115.350467, -2.946699], [115.349952, -2.946657], [115.349738, -2.946549], [115.349437, -2.946657], [115.349437, -2.946871], [115.349223, -2.946957], [115.348922, -2.946871], [115.348536, -2.946978], [115.34815, -2.946999], [115.347935, -2.946978], [115.347764, -2.947192], [115.347571, -2.947321], [115.34727, -2.947321], [115.347163, -2.947514], [115.34682, -2.947664], [115.346562, -2.947557], [115.346541, -2.947235], [115.346626, -2.946871], [115.34682, -2.946785], [115.347056, -2.946935], [115.347356, -2.946871], [115.347656, -2.946635], [115.348043, -2.946228], [115.347914, -2.946078], [115.347678, -2.946121], [115.347442, -2.945949], [115.347173, -2.945949], [115.34698, -2.945863], [115.34698, -2.945627], [115.347152, -2.945477], [115.347087, -2.945241], [115.34713, -2.945048], [115.347538, -2.944984], [115.347688, -2.94477], [115.347624, -2.94447], [115.347366, -2.944384], [115.347066, -2.944534], [115.346637, -2.944427], [115.346401, -2.944084], [115.346036, -2.94387], [115.345843, -2.943634], [115.345843, -2.943334], [115.345671, -2.943163], [115.345671, -2.942841], [115.345478, -2.942713], [115.345328, -2.942541], [115.345328, -2.942156], [115.345049, -2.941963], [115.34477, -2.941791], [115.344062, -2.942027], [115.343976, -2.94222], [115.34389, -2.942584], [115.343676, -2.942627], [115.343418, -2.942627], [115.342796, -2.942863], [115.34236, -2.942861], [115.342038, -2.942668], [115.341695, -2.942496], [115.341094, -2.942282], [115.340686, -2.941982], [115.340214, -2.941382], [115.339893, -2.941018], [115.339506, -2.941018], [115.33927, -2.940846], [115.339227, -2.940546], [115.339227, -2.940096], [115.339034, -2.939818], [115.338476, -2.940418], [115.3382958, -2.9405304], [115.338133, -2.940632], [115.337704, -2.940439], [115.337446, -2.940396], [115.335987, -2.941789], [115.336588, -2.942518], [115.336974, -2.942711], [115.33706, -2.943053], [115.336867, -2.943353], [115.336511, -2.943684], [115.336146, -2.94377], [115.335975, -2.943877], [115.335953, -2.94407], [115.335996, -2.944412], [115.335782, -2.944627], [115.335417, -2.944755], [115.335181, -2.94497], [115.334988, -2.945441], [115.334988, -2.945848], [115.334795, -2.945998], [115.334494, -2.946041], [115.334494, -2.945762], [115.334258, -2.94557], [115.334086, -2.945762], [115.333893, -2.94617], [115.333614, -2.94632], [115.333228, -2.946277], [115.333078, -2.946362], [115.333099, -2.946662], [115.332992, -2.946812], [115.332756, -2.946791], [115.332541, -2.946534], [115.332413, -2.94632], [115.332198, -2.946384], [115.332155, -2.946598], [115.332005, -2.94677], [115.33179, -2.94677], [115.331554, -2.946748], [115.33149, -2.946962], [115.331757, -2.947495], [115.331647, -2.947715], [115.331346, -2.947672], [115.331153, -2.947865], [115.331153, -2.948037]]]}}, {"type": "Feature", "properties": {"name": "Bendungan Tapin", "kind": "dam", "source": "OpenStreetMap way 908672626"}, "geometry": {"type": "Polygon", "coordinates": [[[115.335286, -2.941241], [115.335458, -2.941648], [115.335673, -2.941798], [115.3358873, -2.9417919], [115.335987, -2.941789], [115.337446, -2.940396], [115.3373967, -2.9403638], [115.3370456, -2.9401342], [115.336698, -2.9399726], [115.3358883, -2.9397282], [115.335522, -2.940319], [115.335308, -2.940812], [115.335286, -2.941241]]]}}]}