{"type": "FeatureCollection", "name": "Bendungan Sepaku Semoi", "features": [{"type": "Feature", "properties": {"name": "Waduk Sepaku Semoi", "kind": "reservoir", "source": "OpenStreetMap way 1238111951"}, "geometry": {"type": "Polygon", "coordinates": [[[116.8421113, -0.9074346], [116.8421228, -0.9076487], [116.842179, -0.9077336], [116.8422593, -0.9077899], [116.8423156, -0.907888], [116.8423351, -0.9080272], [116.8423377, -0.9080826], [116.8422827, -0.9082612], [116.8421796, -0.9084603], [116.8433758, -0.9099392], [116.8435023, -0.9098675], [116.8435109, -0.9098075], [116.8435897, -0.9097233], [116.843751, -0.9096145], [116.8438448, -0.9095782], [116.8441428, -0.9095661], [116.8445137, -0.9095903], [116.8447245, -0.9094444], [116.8451121, -0.9090508], [116.8451234, -0.9090136], [116.8451832, -0.9089763], [116.8454927, -0.9085368], [116.8458698, -0.9081922], [116.8458818, -0.9080891], [116.8459187, -0.9080374], [116.8459309, -0.9079726], [116.8459802, -0.9079467], [116.8460296, -0.9079597], [116.8460543, -0.9079986], [116.8461034, -0.9081665], [116.8460903, -0.9087387], [116.8461267, -0.9087764], [116.8461874, -0.9087764], [116.8463334, -0.9087262], [116.8465037, -0.9087136], [116.8465758, -0.908789], [116.8467443, -0.9088891], [116.8467929, -0.9088766], [116.8469563, -0.9085749], [116.8470443, -0.908448], [116.847094, -0.9084098], [116.8472164, -0.9084098], [116.8473837, -0.9085496], [116.8475643, -0.9086255], [116.8480626, -0.9086507], [116.8480813, -0.9084989], [116.8478639, -0.9084353], [116.8478579, -0.9082693], [116.8479827, -0.908218], [116.8481418, -0.9082309], [116.8482413, -0.9082052], [116.848432, -0.9080764], [116.8485798, -0.9080764], [116.8486195, -0.9080246], [116.8486423, -0.9078297], [116.8485121, -0.9077119], [116.8484965, -0.9075277], [116.8485893, -0.9074218], [116.8487428, -0.9073553], [116.8488413, -0.9073819], [116.849009, -0.9075013], [116.8491436, -0.9075409], [116.8491871, -0.9078297], [116.8492695, -0.9078949], [116.8493198, -0.9078819], [116.8493481, -0.9078297], [116.8493561, -0.907712], [116.8494236, -0.9076332], [116.8495231, -0.9076332], [116.8497017, -0.9077382], [116.8498237, -0.9077644], [116.8498991, -0.9077513], [116.8500225, -0.9076069], [116.8503752, -0.9072755], [116.8505667, -0.9072354], [116.8507422, -0.9072354], [116.8509355, -0.9071819], [116.8509924, -0.9071148], [116.8511278, -0.9070206], [116.8512159, -0.9070206], [116.8515133, -0.9069386], [116.8515289, -0.9068741], [116.8515679, -0.9068354], [116.8516418, -0.9068354], [116.851702, -0.9068612], [116.8517549, -0.9070157], [116.8518234, -0.9071054], [116.8518709, -0.907131], [116.8519206, -0.9071182], [116.8519438, -0.9069386], [116.8519161, -0.9067836], [116.8518575, -0.9067317], [116.8518031, -0.9066015], [116.8517339, -0.9065099], [116.8515471, -0.906523], [116.8513782, -0.9066797], [116.851351, -0.9067317], [116.8512269, -0.9067447], [116.8511438, -0.9066666], [116.8511293, -0.9064311], [116.8510331, -0.9063521], [116.8508837, -0.9063521], [116.8508205, -0.9063785], [116.8507637, -0.9065753], [116.8507247, -0.9066275], [116.8506376, -0.9066406], [116.8505262, -0.9066405], [116.8503803, -0.9065491], [116.8503576, -0.9064705], [116.8503612, -0.9063389], [116.850237, -0.9063257], [116.8500867, -0.9063652], [116.8501166, -0.9066926], [116.8500518, -0.9068353], [116.849878, -0.9068998], [116.8498165, -0.9068998], [116.8497186, -0.9068611], [116.8495969, -0.9067316], [116.8495127, -0.9065098], [116.8495135, -0.906431], [116.8496637, -0.906352], [116.8496894, -0.9062992], [116.8496954, -0.9058591], [116.8498309, -0.9052598], [116.8499363, -0.9050661], [116.8501173, -0.9049687], [116.850284, -0.9049548], [116.8503488, -0.9049268], [116.8506178, -0.9049269], [116.8508001, -0.9048429], [116.8509858, -0.9046883], [116.8510899, -0.9046601], [116.8513333, -0.9046883], [116.851361, -0.904646], [116.8513696, -0.9044617], [116.8513981, -0.9044047], [116.8516225, -0.9043191], [116.8516956, -0.9041612], [116.8516986, -0.9041036], [116.8516264, -0.9039879], [116.851588, -0.9039734], [116.8515393, -0.9039008], [116.8515319, -0.9037842], [116.851561, -0.9037257], [116.8516273, -0.903711], [116.8517632, -0.903623], [116.8521461, -0.9035009], [116.8521806, -0.9034644], [116.8522872, -0.9034278], [116.8524062, -0.9034034], [116.8526314, -0.9033054], [116.8526782, -0.9032562], [116.8529283, -0.9031329], [116.8532169, -0.9030834], [116.8533124, -0.9029965], [116.8533356, -0.9029093], [116.8534431, -0.9027339], [116.8535036, -0.9026962], [116.8535276, -0.9026458], [116.8536247, -0.9025826], [116.8536978, -0.9025573], [116.8540394, -0.9025573], [116.8542228, -0.9025066], [116.8543701, -0.9024303], [116.8545315, -0.9022642], [116.8546669, -0.9022386], [116.855035, -0.9022514], [116.8552076, -0.9022258], [116.8552948, -0.9021872], [116.8554214, -0.9020712], [116.8554606, -0.9020065], [116.8554666, -0.9018244], [116.8555587, -0.9016672], [116.8555421, -0.9014295], [116.8554702, -0.9013365], [116.8554473, -0.9012698], [116.8554486, -0.9012297], [116.855488, -0.9011761], [116.8557798, -0.9010956], [116.8560186, -0.9010956], [116.8561582, -0.9010687], [116.8564545, -0.9009337], [116.8567169, -0.9007571], [116.8570115, -0.9007025], [116.8573533, -0.9005243], [116.8575314, -0.9005243], [116.8576373, -0.9004692], [116.857668, -0.9004001], [116.8576838, -0.9001918], [116.8577137, -0.900136], [116.858048, -0.900122], [116.8581714, -0.9001779], [116.8584121, -0.9002058], [116.8587462, -0.9001918], [116.8588089, -0.9002058], [116.8588417, -0.9002615], [116.8589795, -0.9002893], [116.8591661, -0.900094], [116.8593548, -0.9000099], [116.859483, -0.8998973], [116.8594908, -0.8998267], [116.8594352, -0.8996278], [116.8594121, -0.899405], [116.8593049, -0.8992535], [116.859304, -0.8990592], [116.8594111, -0.8989755], [116.859532, -0.8989755], [116.8595992, -0.8990174], [116.8596125, -0.8990732], [116.8597327, -0.8991705], [116.8599467, -0.8991843], [116.8599871, -0.8991566], [116.8600285, -0.8990453], [116.8600301, -0.8989055], [116.8600038, -0.8988493], [116.8597487, -0.8986656], [116.8596814, -0.8985662], [116.8594644, -0.8985804], [116.8594373, -0.8986231], [116.8592619, -0.8987364], [116.8591548, -0.8988633], [116.8590893, -0.8990592], [116.8590908, -0.899212], [116.8590394, -0.8994049], [116.8589203, -0.8994598], [116.8588669, -0.8994461], [116.8587858, -0.8993637], [116.8587306, -0.8992535], [116.8586869, -0.8990592], [116.8585078, -0.8988492], [116.8584631, -0.8986656], [116.8584889, -0.8986088], [116.8585699, -0.8985946], [116.8586794, -0.8986514], [116.8587608, -0.8986656], [116.8588281, -0.8986372], [116.8591778, -0.8983227], [116.8593134, -0.8981638], [116.8593817, -0.8981348], [116.8594227, -0.8980912], [116.8595049, -0.8979161], [116.8596151, -0.8978574], [116.8597951, -0.8976952], [116.8598371, -0.8976212], [116.859885, -0.8972594], [116.8599451, -0.897162], [116.8599453, -0.8971131], [116.8597535, -0.8970518], [116.8597055, -0.897015], [116.8596693, -0.8969657], [116.8596568, -0.8968296], [116.8597532, -0.8967799], [116.8600914, -0.8967923], [116.8601399, -0.8967674], [116.8601547, -0.8964662], [116.8600953, -0.8962627], [116.8601109, -0.8958364], [116.8600866, -0.895771], [116.8599749, -0.8958233], [116.8599252, -0.8958755], [116.8598507, -0.8960829], [116.8597893, -0.8963647], [116.8597042, -0.8965041], [116.8595951, -0.8965671], [116.8594129, -0.8965671], [116.859364, -0.8965419], [116.8592283, -0.8964028], [116.8591145, -0.896173], [116.8590347, -0.8958494], [116.8590428, -0.8956263], [116.8591984, -0.8952129], [116.8592193, -0.8949144], [116.8592437, -0.8948459], [116.8592285, -0.8946668], [116.8592022, -0.8946114], [116.8591378, -0.8942217], [116.8591354, -0.894089], [116.8591868, -0.893866], [116.8592135, -0.8938061], [116.8594632, -0.8938211], [116.8595461, -0.8937911], [116.8596429, -0.893731], [116.8596703, -0.8936557], [116.859656, -0.8935952], [116.8594192, -0.8935952], [116.8592497, -0.8934432], [116.8592764, -0.8933515], [116.8593453, -0.8932593], [116.8594276, -0.8930739], [116.8595532, -0.8929024], [116.8596652, -0.8926348], [116.8596649, -0.8925713], [116.8596219, -0.8925395], [116.8595362, -0.8925395], [116.8594939, -0.892603], [116.8594372, -0.8926348], [116.859228, -0.8929337], [116.8591606, -0.8931359], [116.8591189, -0.8931668], [116.8591063, -0.8932439], [116.8590111, -0.8933974], [116.8588464, -0.8935345], [116.8587536, -0.893716], [116.8587454, -0.8939257], [116.8587885, -0.8939852], [116.8587923, -0.8941334], [116.858714, -0.8942804], [116.8589493, -0.8943828], [116.8590222, -0.8946003], [116.8590275, -0.8948584], [116.8589625, -0.8949721], [116.8588879, -0.8952255], [116.8588354, -0.8952674], [116.8587689, -0.8952814], [116.8587036, -0.8953371], [116.8586287, -0.8955034], [116.8585759, -0.8955172], [116.8585095, -0.8955172], [116.8582624, -0.8953232], [116.8581822, -0.8953232], [116.8581573, -0.8953649], [116.858162, -0.8954757], [116.858217, -0.8955172], [116.858274, -0.8956135], [116.8580498, -0.8956409], [116.8579981, -0.8956683], [116.8580006, -0.8957229], [116.8581887, -0.8957911], [116.8583075, -0.8957911], [116.8585042, -0.8957502], [116.858538, -0.8959671], [116.8584236, -0.8960747], [116.8583883, -0.8961817], [116.8583938, -0.8963278], [116.8586727, -0.8964992], [116.8587002, -0.8965516], [116.8587033, -0.896656], [116.8587436, -0.896708], [116.8587379, -0.8969532], [116.8586127, -0.8970427], [116.8586139, -0.8970809], [116.8586563, -0.8972079], [116.8586603, -0.897334], [116.8586873, -0.8973842], [116.8588554, -0.8975091], [116.858911, -0.8977074], [116.858862, -0.8977566], [116.858628, -0.8978913], [116.8585447, -0.898013], [116.8583951, -0.898013], [116.8582814, -0.8979765], [116.8582272, -0.8978791], [116.8582251, -0.8978302], [116.8582469, -0.8977566], [116.8583087, -0.897732], [116.8583146, -0.8975713], [116.8581456, -0.8974592], [116.858118, -0.8974092], [116.8580402, -0.8973716], [116.8579736, -0.8973088], [116.8579412, -0.8971698], [116.8579738, -0.8970554], [116.8579346, -0.8962615], [116.8576523, -0.8961148], [116.8574821, -0.8961148], [116.8573756, -0.8960881], [116.8572654, -0.8960075], [116.8572311, -0.895886], [116.8572539, -0.8958318], [116.8574344, -0.8957638], [116.8574715, -0.8957229], [116.8574931, -0.8956408], [116.8574666, -0.8954204], [116.8574198, -0.8953092], [116.8572924, -0.8951974], [116.8572232, -0.8949578], [116.8571095, -0.8948725], [116.8569714, -0.8948298], [116.8569538, -0.8947726], [116.8567826, -0.8946578], [116.8566003, -0.8945858], [116.8565459, -0.8945858], [116.8564874, -0.8947009], [116.856321, -0.8948155], [116.8564512, -0.8949152], [116.8566188, -0.8949861], [116.8567901, -0.8951131], [116.8568573, -0.8951131], [116.857011, -0.8951974], [116.8570733, -0.8953231], [116.857082, -0.895448], [116.8570661, -0.8955997], [116.8569904, -0.8956545], [116.85686, -0.8956819], [116.8568916, -0.8957502], [116.8569597, -0.8957774], [116.8570598, -0.895886], [116.857094, -0.8963675], [116.8570438, -0.8963939], [116.8569138, -0.8963938], [116.8568518, -0.8964334], [116.8567248, -0.8966299], [116.8564613, -0.8967209], [116.8564576, -0.8968244], [116.8566762, -0.8968244], [116.8568631, -0.8967469], [116.8569226, -0.896682], [116.8570221, -0.8966299], [116.8571911, -0.8966429], [116.8573262, -0.8967339], [116.8574768, -0.8970809], [116.8573191, -0.8972078], [116.8573317, -0.8973967], [116.8574411, -0.8975215], [116.8574703, -0.8975837], [116.857438, -0.8976703], [116.8573658, -0.8977196], [116.8571794, -0.8975712], [116.8571479, -0.8974841], [116.8570964, -0.8974717], [116.8570739, -0.8975091], [116.857085, -0.8978301], [116.8571637, -0.897879], [116.8571611, -0.898099], [116.8570907, -0.8982906], [116.8571033, -0.8984223], [116.8572907, -0.8987262], [116.857411, -0.8988409], [116.8576258, -0.8989264], [116.85803, -0.8989548], [116.8581226, -0.8990116], [116.8582785, -0.8991669], [116.8583032, -0.899223], [116.8583352, -0.8994322], [116.8583064, -0.8994877], [116.8580933, -0.8994877], [116.8578528, -0.8995153], [116.8577985, -0.8995567], [116.8576921, -0.8995567], [116.8574952, -0.8994183], [116.8573637, -0.899293], [116.8571509, -0.8991528], [116.8569104, -0.8988122], [116.8567887, -0.8986831], [116.8565981, -0.898582], [116.8564754, -0.8985675], [116.8562576, -0.898582], [116.8562746, -0.8988694], [116.8563573, -0.8990257], [116.8563597, -0.899265], [116.8563469, -0.8993209], [116.856189, -0.8995014], [116.8561899, -0.8995704], [116.8562171, -0.8996117], [116.8563899, -0.8996392], [116.8564698, -0.8996804], [116.8566289, -0.8996804], [116.8567614, -0.899598], [116.8568147, -0.8994876], [116.856868, -0.8994738], [116.8569212, -0.8995015], [116.8569473, -0.8996255], [116.8569335, -0.8997488], [116.8569067, -0.899817], [116.8568538, -0.8998442], [116.8567878, -0.8999526], [116.8566432, -0.9000471], [116.8565383, -0.9000739], [116.8559081, -0.9000605], [116.8557211, -0.8999391], [116.8556801, -0.8998849], [116.855533, -0.8998169], [116.8554784, -0.8997624], [116.8554594, -0.8995842], [116.8555113, -0.8995428], [116.855494, -0.8994183], [116.8554051, -0.8991527], [116.8553086, -0.8990822], [116.8552698, -0.8991245], [116.8552482, -0.8992649], [116.8552657, -0.8993765], [116.8553364, -0.8994876], [116.8553113, -0.899529], [116.8552596, -0.8995704], [116.855114, -0.8995842], [116.8550233, -0.8996392], [116.8549595, -0.899694], [116.8549128, -0.8998305], [116.8548474, -0.8998441], [116.8545827, -0.8998305], [116.8545585, -0.8998713], [116.8546018, -0.899939], [116.854861, -0.9001275], [116.8549601, -0.9002877], [116.8552264, -0.9004202], [116.8552694, -0.9005255], [116.8552356, -0.9006564], [116.8550468, -0.9007734], [116.8547428, -0.9008769], [116.8545877, -0.900864], [116.8545076, -0.9008123], [116.8544241, -0.9007085], [116.8544025, -0.9005648], [116.8544131, -0.9005255], [116.8544894, -0.9004992], [116.8544871, -0.9004597], [116.8543906, -0.9003673], [116.8542553, -0.9002877], [116.8540082, -0.9003009], [116.8540165, -0.9004201], [116.8540471, -0.900486], [116.8541856, -0.9006172], [116.854202, -0.9006694], [116.8540466, -0.900851], [116.8539861, -0.9010821], [116.8539277, -0.9011585], [116.853842, -0.9013734], [116.8538078, -0.9014236], [116.8536385, -0.9015236], [116.8535616, -0.9015111], [116.8535068, -0.9014611], [116.8534452, -0.9013356], [116.8534365, -0.9012346], [116.8535193, -0.9011585], [116.85363, -0.9011076], [116.8536602, -0.9010054], [116.8537547, -0.9009026], [116.8537507, -0.900851], [116.8537209, -0.9007993], [116.8535513, -0.9007734], [116.8534836, -0.9007344], [116.8533328, -0.900486], [116.8531909, -0.900354], [116.8532119, -0.9001424], [116.8532535, -0.9000342], [116.8532616, -0.8999373], [116.8532954, -0.8999252], [116.8534275, -0.8997415], [116.8534966, -0.8997415], [116.8536125, -0.8997784], [116.8536683, -0.8996921], [116.8536671, -0.8996301], [116.8536195, -0.8995678], [116.8535933, -0.8994298], [116.8536156, -0.8993793], [116.8536843, -0.8993159], [116.8536678, -0.8990593], [116.853582, -0.8989162], [116.853534, -0.8988901], [116.853516, -0.8991239], [116.8534837, -0.8992394], [116.8533838, -0.8994298], [116.8532061, -0.8996673], [116.8531608, -0.8996921], [116.8531291, -0.8997661], [116.8530841, -0.8997907], [116.8530423, -0.8998886], [116.8529535, -0.8999494], [116.8527707, -0.8999494], [116.8526893, -0.8999251], [116.852521, -0.8997906], [116.8524275, -0.899766], [116.851922, -0.8994926], [116.8518343, -0.899417], [116.8517008, -0.8992265], [116.8516504, -0.899188], [116.8515941, -0.8992137], [116.8515814, -0.8993284], [116.8516234, -0.8994044], [116.8517522, -0.8995427], [116.8518335, -0.8996796], [116.8520412, -0.8998274], [116.8521358, -0.8998641], [116.8522099, -0.8999372], [116.8522117, -0.9001183], [116.852399, -0.9002021], [116.8526148, -0.900214], [116.8527531, -0.9002616], [116.8530258, -0.9005551], [116.8530567, -0.9007511], [116.8530053, -0.9008424], [116.8528105, -0.9009217], [116.852712, -0.900933], [116.8526395, -0.9010117], [116.8526545, -0.9010789], [116.8527265, -0.9011901], [116.852979, -0.9014532], [116.8529708, -0.9015073], [116.8529099, -0.9015827], [116.8526095, -0.901764], [116.8525355, -0.9017746], [116.8524594, -0.9017534], [116.8523327, -0.9016256], [116.852289, -0.9016149], [116.8521825, -0.9016256], [116.8520725, -0.9017215], [116.8520101, -0.9017428], [116.8520741, -0.9019036], [116.852141, -0.9019992], [116.8521471, -0.9020585], [116.8521218, -0.9021175], [116.8520452, -0.9021645], [116.8519072, -0.9021997], [116.8517987, -0.9022696], [116.8517283, -0.9024083], [116.8516189, -0.9025226], [116.8514594, -0.9026357], [116.8514257, -0.9027031], [116.8513844, -0.9027143], [116.8511283, -0.9030666], [116.8510057, -0.9031422], [116.850855, -0.9031745], [116.8505352, -0.9031852], [116.8504656, -0.9030882], [116.8504356, -0.9030013], [116.8504357, -0.9028917], [116.8505274, -0.9027811], [116.8504667, -0.9026918], [116.8503748, -0.9027365], [116.8502435, -0.9028917], [116.8502358, -0.9032173], [116.8500291, -0.9033765], [116.8497891, -0.9036473], [116.8496651, -0.9037395], [116.8495821, -0.9038612], [116.8495205, -0.9040114], [116.8495012, -0.9040114], [116.8493209, -0.9042475], [116.8491465, -0.904354], [116.848908, -0.904592], [116.8488989, -0.9048524], [116.8489385, -0.9048891], [116.8489807, -0.9050974], [116.8487675, -0.905284], [116.8486868, -0.9052928], [116.8485414, -0.9051866], [116.8484407, -0.9049892], [116.8484109, -0.9048707], [116.8481994, -0.9047043], [116.8480401, -0.904695], [116.8480725, -0.9049801], [116.8479994, -0.9050614], [116.8479628, -0.9050614], [116.847844, -0.9049891], [116.8476267, -0.9049437], [116.8476384, -0.9050973], [116.8475229, -0.9052485], [116.8474993, -0.9053365], [116.8475723, -0.9054063], [116.8478129, -0.9054584], [116.8479299, -0.9055553], [116.8479313, -0.9056801], [116.8479105, -0.9057297], [116.8478362, -0.9057791], [116.8478169, -0.9059016], [116.8479132, -0.9059381], [116.8482645, -0.9056802], [116.8484581, -0.9056678], [116.8485006, -0.905705], [116.8484881, -0.9058651], [116.8483697, -0.9060351], [116.8482739, -0.9062501], [116.8481693, -0.9063913], [116.8481277, -0.9064146], [116.8481071, -0.9064728], [116.8479729, -0.9065538], [116.8477036, -0.9065538], [116.8476317, -0.9065768], [116.847591, -0.9065998], [116.8475337, -0.9067595], [116.8474051, -0.9068947], [116.8472554, -0.9069727], [116.8469839, -0.9070282], [116.8469578, -0.9071053], [116.8469693, -0.9073122], [116.8470122, -0.9075471], [116.8470097, -0.9076836], [116.8469658, -0.9077771], [116.8468735, -0.9078698], [116.8468259, -0.9078903], [116.8466893, -0.9078903], [116.8464737, -0.9076312], [116.8464353, -0.9073981], [116.8464852, -0.9071382], [116.8466679, -0.907006], [116.8467011, -0.9068946], [116.8466674, -0.9068497], [116.8465243, -0.9068497], [116.846486, -0.906748], [116.8464739, -0.9065882], [116.8463924, -0.9064726], [116.846349, -0.9064493], [116.846245, -0.9064493], [116.8460331, -0.9065189], [116.8459548, -0.9064609], [116.8458797, -0.9064376], [116.8458497, -0.9064493], [116.8458201, -0.9065651], [116.8457629, -0.906611], [116.8455597, -0.9064608], [116.845374, -0.9064724], [116.8453293, -0.9065304], [116.845066, -0.9065764], [116.8449081, -0.9061902], [116.8448896, -0.9060586], [116.8449235, -0.9059983], [116.8450091, -0.9059255], [116.8452659, -0.9059377], [116.8454687, -0.9058524], [116.8456394, -0.9058524], [116.8459972, -0.9059135], [116.8460706, -0.9059013], [116.8461775, -0.905655], [116.8463045, -0.9054921], [116.8463889, -0.9051725], [116.8463723, -0.9049504], [116.8463492, -0.9049372], [116.8461366, -0.9054288], [116.8460942, -0.9054415], [116.8460074, -0.9054415], [116.8457296, -0.9053779], [116.8452865, -0.9054033], [116.8452195, -0.9053012], [116.8452051, -0.9050944], [116.8451481, -0.9049896], [116.8451921, -0.9048973], [116.8452428, -0.9048575], [116.8454095, -0.9048575], [116.8454258, -0.9048043], [116.8454107, -0.9046701], [116.8454637, -0.9046431], [116.8454915, -0.9045889], [116.8455926, -0.904589], [116.8456572, -0.9045618], [116.8456434, -0.9043145], [116.8457009, -0.9040905], [116.8457628, -0.9040198], [116.845739, -0.9038913], [116.8456598, -0.9037905], [116.8456279, -0.9037035], [116.845603, -0.9034538], [116.8458065, -0.9031082], [116.8458738, -0.9030624], [116.8459228, -0.9030777], [116.8461775, -0.9032897], [116.8463795, -0.903254], [116.8465366, -0.9030824], [116.8466533, -0.9030025], [116.8467375, -0.9029759], [116.8468995, -0.9030026], [116.8470719, -0.9030026], [116.8472642, -0.9029224], [116.8475975, -0.9029224], [116.8476777, -0.903056], [116.8476746, -0.9032542], [116.8476551, -0.9033589], [116.8475648, -0.9035018], [116.8474841, -0.9035792], [116.8474881, -0.9036562], [116.8476119, -0.9037202], [116.8476601, -0.9037202], [116.8477797, -0.9034241], [116.8478256, -0.9033589], [116.8479189, -0.9032542], [116.8480397, -0.9032148], [116.8481682, -0.9034111], [116.8481823, -0.903476], [116.8482812, -0.9035406], [116.848304, -0.903489], [116.8483113, -0.9033067], [116.8483797, -0.9031092], [116.8483765, -0.9029761], [116.8483505, -0.9029225], [116.8482506, -0.9028822], [116.8482019, -0.9029091], [116.8481785, -0.9029493], [116.8480333, -0.9030294], [116.8479826, -0.9029894], [116.8479267, -0.9028149], [116.8476579, -0.9026248], [116.8476304, -0.9025701], [116.8476272, -0.9025014], [116.8478275, -0.9021959], [116.8479269, -0.9021539], [116.8480934, -0.902224], [116.848133, -0.9022799], [116.8482995, -0.9023911], [116.8484641, -0.9024602], [116.8485008, -0.9024188], [116.8485347, -0.902224], [116.8485721, -0.902196], [116.8487992, -0.9021961], [116.8488618, -0.9021399], [116.8488987, -0.9020129], [116.8488974, -0.901842], [116.8487687, -0.9017414], [116.848766, -0.9015094], [116.8487148, -0.9015386], [116.8486518, -0.9016258], [116.8485903, -0.9017846], [116.8483879, -0.9018705], [116.848133, -0.9018705], [116.8480811, -0.9018419], [116.8480119, -0.9016287], [116.8480086, -0.9014003], [116.8481161, -0.901385], [116.8482513, -0.9014616], [116.8484126, -0.9014921], [116.8483987, -0.9013544], [116.8483304, -0.901169], [116.8483424, -0.900824], [116.8484242, -0.9006648], [116.8484377, -0.9005365], [116.8484371, -0.9002116], [116.8483954, -0.9002279], [116.8483268, -0.9004396], [116.8483009, -0.9007446], [116.8482202, -0.9009345], [116.8481932, -0.9009659], [116.8480575, -0.901013], [116.8480039, -0.9010755], [116.8479518, -0.9012155], [116.8478985, -0.9012619], [116.8478611, -0.9014309], [116.8478681, -0.9018091], [116.8477899, -0.9018838], [116.8477137, -0.9020321], [116.8476784, -0.9022084], [116.8475884, -0.9022813], [116.8474198, -0.9023394], [116.8472359, -0.9023248], [116.8471419, -0.9022667], [116.8470757, -0.9022521], [116.8470382, -0.9022958], [116.8470279, -0.9026553], [116.8469411, -0.9027405], [116.8466056, -0.9027546], [116.8464858, -0.9026979], [116.8463749, -0.9025839], [116.846267, -0.9025267], [116.845864, -0.9023681], [116.8456559, -0.9023826], [116.8456465, -0.9024259], [116.8455875, -0.9024979], [116.8455506, -0.9026693], [116.8454405, -0.9027403], [116.8452709, -0.9027261], [116.8451055, -0.9026266], [116.8450881, -0.9025837], [116.8450041, -0.9025265], [116.8448807, -0.902469], [116.8447601, -0.9024402], [116.8446834, -0.9024546], [116.8446021, -0.9025407], [116.8445942, -0.9025837], [116.8446285, -0.902655], [116.8446982, -0.9026976], [116.8447612, -0.9027967], [116.8448266, -0.9030348], [116.8447582, -0.903769], [116.8447237, -0.9037956], [116.8444875, -0.9036087], [116.8443942, -0.9035683], [116.844349, -0.9036086], [116.8442943, -0.9037689], [116.8442992, -0.9039013], [116.8443078, -0.9039671], [116.8443554, -0.9040457], [116.8443706, -0.9041628], [116.844241, -0.9043946], [116.8437331, -0.9043689], [116.8435385, -0.9043047], [116.8433553, -0.9041627], [116.8431813, -0.9040847], [116.8428237, -0.9036754], [116.8427836, -0.903662], [116.8427632, -0.9036887], [116.8427909, -0.9039143], [116.8429456, -0.9042273], [116.8430877, -0.9044072], [116.8431017, -0.9045597], [116.843006, -0.9047107], [116.842932, -0.9047732], [116.8427272, -0.9048478], [116.8426666, -0.9048478], [116.8426225, -0.9049345], [116.8426532, -0.905033], [116.8427226, -0.905082], [116.8428166, -0.9050697], [116.8431149, -0.9048479], [116.8432419, -0.9048106], [116.8432842, -0.9047732], [116.8434137, -0.9047483], [116.8434542, -0.9046982], [116.8436836, -0.9046857], [116.8438428, -0.9047733], [116.8439127, -0.9048356], [116.8439847, -0.9049963], [116.8440262, -0.9050331], [116.8440717, -0.9052645], [116.8440428, -0.9053128], [116.844033, -0.9054088], [116.8440575, -0.9055755], [116.8440394, -0.9056935], [116.8439927, -0.9057755], [116.8439211, -0.9058454], [116.8438642, -0.9058571], [116.8438686, -0.9059613], [116.8439266, -0.9061106], [116.843896, -0.9062131], [116.843855, -0.9062471], [116.8436023, -0.9062584], [116.8435714, -0.906281], [116.8435153, -0.9063599], [116.8434538, -0.9065386], [116.8434652, -0.906605], [116.8435355, -0.9066822], [116.8437514, -0.906748], [116.8440522, -0.9067809], [116.8441739, -0.9068354], [116.8442263, -0.9070131], [116.8441722, -0.9071743], [116.8441978, -0.9072471], [116.844379, -0.9074061], [116.8445185, -0.9076206], [116.8445278, -0.9078183], [116.844501, -0.9078743], [116.8443467, -0.9078743], [116.8442698, -0.9078463], [116.8441551, -0.9077056], [116.844104, -0.9075921], [116.8440394, -0.9075351], [116.8439745, -0.9075208], [116.8439355, -0.9075494], [116.8439352, -0.9078323], [116.8438966, -0.9078883], [116.8437428, -0.9079719], [116.8436283, -0.9080827], [116.843514, -0.9081379], [116.8433364, -0.9081928], [116.8432727, -0.9081928], [116.8432212, -0.9081654], [116.8431692, -0.9081241], [116.8431677, -0.908055], [116.8431793, -0.9079996], [116.8433177, -0.9078602], [116.8433116, -0.9075207], [116.8430476, -0.9073627], [116.8428093, -0.9072614], [116.8427569, -0.9072614], [116.8426499, -0.9072032], [116.8426467, -0.9071156], [116.8426703, -0.9070423], [116.8426395, -0.9069242], [116.8423741, -0.9066104], [116.8423901, -0.9069686], [116.84245, -0.9071302], [116.8424118, -0.9071595], [116.8422147, -0.9071594], [116.8421382, -0.9072032], [116.8421435, -0.9073048], [116.8421113, -0.9074346]]]}}, {"type": "Feature", "properties": {"name": "Bendungan Sepaku Semoi", "kind": "dam", "source": "OpenStreetMap way 1238111950"}, "geometry": {"type": "Polygon", "coordinates": [[[116.8416437, -0.9096075], [116.8435455, -0.9118452], [116.8440369, -0.9117191], [116.8442714, -0.9115221], [116.844247, -0.9109283], [116.8433758, -0.9099392], [116.8421796, -0.9084603], [116.8416437, -0.9096075]]]}}]}