{"type": "FeatureCollection", "name": "Bendungan Benanga", "features": [{"type": "Feature", "properties": {"name": "Waduk Benanga", "kind": "reservoir", "source": "OpenStreetMap way 245965608"}, "geometry": {"type": "Polygon", "coordinates": [[[117.1924694, -0.4089734], [117.1929483, -0.4091302], [117.1929942, -0.4092613], [117.1928503, -0.4094187], [117.192791, -0.4095229], [117.1928559, -0.4095657], [117.1929003, -0.409523], [117.1929248, -0.4095428], [117.192954, -0.4095734], [117.1929333, -0.4096018], [117.1929539, -0.4096242], [117.1929723, -0.4096496], [117.1929927, -0.4096757], [117.1929769, -0.4097078], [117.1930067, -0.4097165], [117.1930047, -0.4097684], [117.1929996, -0.4098009], [117.1930197, -0.4098428], [117.1930104, -0.409884], [117.1930103, -0.4099269], [117.193025, -0.4099703], [117.1930296, -0.4100116], [117.193028, -0.41005], [117.1930021, -0.4100789], [117.1929699, -0.4101035], [117.1929151, -0.4101118], [117.192877, -0.4101305], [117.1928536, -0.410168], [117.192851, -0.4101944], [117.1928227, -0.4102159], [117.1927959, -0.4102356], [117.192809, -0.4102695], [117.1927926, -0.4103052], [117.1927788, -0.4103437], [117.1927768, -0.4103872], [117.1927897, -0.4104469], [117.1928138, -0.4105166], [117.1928268, -0.4105362], [117.1928384, -0.4105627], [117.1928276, -0.4105853], [117.1927574, -0.4106086], [117.1927581, -0.4106306], [117.1927548, -0.4106479], [117.192788, -0.4107257], [117.1927421, -0.4107425], [117.1927508, -0.4107654], [117.1928315, -0.4107481], [117.192858, -0.4107169], [117.1928765, -0.410698], [117.1928965, -0.4106833], [117.1929259, -0.4106653], [117.1929642, -0.4106632], [117.1930037, -0.4106751], [117.1930493, -0.4106864], [117.1930801, -0.4107015], [117.1931041, -0.4107081], [117.1931157, -0.4107407], [117.1931411, -0.4107527], [117.1931641, -0.4107672], [117.1931912, -0.4107797], [117.1932181, -0.4107884], [117.193243, -0.4107845], [117.1932589, -0.410773], [117.1932486, -0.4107451], [117.1932366, -0.4107073], [117.193246, -0.4106694], [117.193314, -0.4106066], [117.1933808, -0.4106345], [117.1934234, -0.4106867], [117.1934203, -0.410758], [117.193397, -0.4108132], [117.1933417, -0.4108287], [117.1933751, -0.4108728], [117.1934158, -0.4109022], [117.1934212, -0.410989], [117.1934293, -0.411059], [117.1934777, -0.4110866], [117.1934975, -0.4111264], [117.1935503, -0.411121], [117.1936109, -0.4110921], [117.193653, -0.411073], [117.193691, -0.4110971], [117.1937039, -0.4111353], [117.1938055, -0.411118], [117.1938156, -0.4110747], [117.1938591, -0.4110503], [117.1938879, -0.4110089], [117.1939145, -0.4109724], [117.1938713, -0.410868], [117.1938964, -0.410831], [117.1938907, -0.4107942], [117.1938629, -0.4107009], [117.1938701, -0.4106209], [117.1937917, -0.4106093], [117.1937408, -0.4105348], [117.1937344, -0.4104541], [117.1937648, -0.4104074], [117.1938507, -0.4103267], [117.1939017, -0.4102643], [117.1939547, -0.4102158], [117.1939888, -0.4101847], [117.1940237, -0.4101528], [117.1940759, -0.4101631], [117.1941087, -0.4101454], [117.1941701, -0.4101064], [117.1941454, -0.4100695], [117.1942235, -0.4100306], [117.1942869, -0.4100442], [117.1943408, -0.4100406], [117.1944213, -0.410051], [117.1944977, -0.4100749], [117.1945413, -0.4100121], [117.1945434, -0.409944], [117.1945361, -0.4098738], [117.1945825, -0.4098326], [117.19453, -0.409742], [117.1944424, -0.409768], [117.1943539, -0.4097595], [117.1942809, -0.4097234], [117.1942779, -0.4096056], [117.1942447, -0.4095441], [117.1941997, -0.4095094], [117.1941835, -0.4094456], [117.1941759, -0.4094155], [117.1941612, -0.4093577], [117.1941798, -0.4093097], [117.1941533, -0.4091742], [117.1942153, -0.4091023], [117.194296, -0.4090811], [117.1943452, -0.4091021], [117.1943398, -0.409161], [117.19439, -0.4091813], [117.1944324, -0.4092389], [117.1945088, -0.4092664], [117.1945885, -0.4093121], [117.1945791, -0.4093743], [117.1946041, -0.4093788], [117.1946257, -0.4093544], [117.1946751, -0.4093612], [117.1946866, -0.4093394], [117.1947105, -0.4093144], [117.1947213, -0.4092773], [117.194736, -0.4092421], [117.1947345, -0.4092086], [117.1947502, -0.4091936], [117.1947754, -0.4091853], [117.1948038, -0.4091925], [117.1948107, -0.4092156], [117.1948395, -0.4092121], [117.1948604, -0.4091477], [117.1949093, -0.4091561], [117.1949486, -0.4091042], [117.1950439, -0.409098], [117.1951453, -0.4090168], [117.195255, -0.4089216], [117.1953037, -0.4087268], [117.1952712, -0.4086536], [117.195327, -0.4086393], [117.1953811, -0.4086521], [117.1954655, -0.4085186], [117.1956704, -0.4083059], [117.195846, -0.4080206], [117.195937, -0.4078353], [117.1957407, -0.4076976], [117.1957208, -0.4075589], [117.1955959, -0.4074582], [117.1954433, -0.4069697], [117.1950356, -0.4068624], [117.1945206, -0.4063475], [117.1943931, -0.4062281], [117.1943624, -0.4060788], [117.1945002, -0.4057922], [117.1947205, -0.4055434], [117.1948891, -0.4054302], [117.1951149, -0.4053987], [117.1953748, -0.4053996], [117.1955768, -0.4053755], [117.1957208, -0.4053051], [117.1958723, -0.405133], [117.1960106, -0.404985], [117.1961, -0.4048878], [117.1960512, -0.4048005], [117.196098, -0.4046106], [117.1961879, -0.4044929], [117.1961762, -0.4043138], [117.1961233, -0.4041909], [117.196104, -0.404112], [117.1960275, -0.4041107], [117.196004, -0.4042431], [117.1960406, -0.4044481], [117.1960569, -0.4045528], [117.1960275, -0.4046451], [117.1960208, -0.4046998], [117.1959944, -0.4047152], [117.1959703, -0.4046961], [117.1959329, -0.4047386], [117.195942, -0.4047746], [117.1959523, -0.4048304], [117.1959432, -0.4048921], [117.1959658, -0.404919], [117.1959388, -0.4049564], [117.1959306, -0.4049863], [117.1959003, -0.4050008], [117.1958849, -0.4049732], [117.195847, -0.4049681], [117.1958161, -0.4049987], [117.1958153, -0.4050676], [117.1958016, -0.4051295], [117.1957751, -0.4051708], [117.1957294, -0.4052191], [117.1957036, -0.4052431], [117.1956805, -0.4052523], [117.1956599, -0.4052882], [117.1956281, -0.4053194], [117.1955926, -0.4053327], [117.1955621, -0.4053288], [117.1955232, -0.4053195], [117.195508, -0.4053053], [117.1954947, -0.4053107], [117.1954783, -0.4053173], [117.1954613, -0.405295], [117.195448, -0.4052843], [117.1954318, -0.4052914], [117.1954322, -0.4053032], [117.1954133, -0.4053113], [117.1953957, -0.4053188], [117.1953834, -0.4053302], [117.1953198, -0.4053344], [117.19528, -0.4053099], [117.1952245, -0.4052767], [117.1951849, -0.4052837], [117.1951594, -0.4052969], [117.1951768, -0.4053228], [117.1951469, -0.4053376], [117.1951177, -0.4053403], [117.1950954, -0.4053629], [117.1950656, -0.4053863], [117.1950153, -0.4053817], [117.1949439, -0.4053732], [117.1949456, -0.4053204], [117.1949297, -0.4052913], [117.1949177, -0.4052562], [117.1948855, -0.4052712], [117.1948448, -0.4052756], [117.1948209, -0.4052549], [117.1947927, -0.4052322], [117.1947984, -0.4052623], [117.1947549, -0.4052888], [117.1947385, -0.4053258], [117.1947073, -0.4053365], [117.1946748, -0.405338], [117.194647, -0.405355], [117.1946444, -0.4053857], [117.194625, -0.4054013], [117.1945845, -0.4054109], [117.1945525, -0.4054332], [117.1945371, -0.4054798], [117.1945192, -0.4055362], [117.1944706, -0.4055603], [117.1944429, -0.4055856], [117.194395, -0.405615], [117.1943501, -0.4056543], [117.1943171, -0.4056832], [117.194279, -0.4057165], [117.1942603, -0.4057969], [117.1942304, -0.4058717], [117.1941208, -0.4058685], [117.1940147, -0.4058586], [117.1939281, -0.4058318], [117.193847, -0.405825], [117.1938152, -0.4058643], [117.1937871, -0.4059222], [117.1937591, -0.4059877], [117.1937149, -0.406015], [117.1936083, -0.4060302], [117.1934747, -0.4060493], [117.193337, -0.406069], [117.1931903, -0.40609], [117.1931429, -0.4061921], [117.1930386, -0.4064166], [117.1929435, -0.4064142], [117.1929198, -0.4066726], [117.1929113, -0.4066908], [117.1928956, -0.4068843], [117.1928078, -0.4068814], [117.1927665, -0.4071101], [117.1928062, -0.4073126], [117.1928201, -0.4076308], [117.1927949, -0.4078462], [117.1927623, -0.4079763], [117.1927614, -0.4080538], [117.1927284, -0.4081665], [117.1926992, -0.4082992], [117.1929653, -0.4083582], [117.1929094, -0.4087034], [117.1929077, -0.4087703], [117.1929977, -0.4088165], [117.1929728, -0.408917], [117.1929388, -0.4089073], [117.1928602, -0.4088848], [117.1928619, -0.4088546], [117.1927227, -0.4088077], [117.1927137, -0.4088262], [117.1925399, -0.4087695], [117.1925046, -0.4088716], [117.1924694, -0.4089734]]]}}]}