{"type": "FeatureCollection", "name": "Waduk Riam Kanan", "features": [{"type": "Feature", "id": 1281, "geometry": {"type": "Polygon", "coordinates": [[[115.09936195000012, -3.449057939999932], [115.09498983000003, -3.4513193799999726], [115.09016543000007, -3.4541838699999516], [115.08745170000009, -3.458103699999981], [115.0851902600001, -3.463078869999947], [115.08323034000011, -3.46730021999997], [115.07840594000004, -3.4700139499999523], [115.07267696000008, -3.4754414099999735], [115.0701139900001, -3.478607419999946], [115.06664645000001, -3.4862963199999513], [115.06634493000001, -3.4897638599999254], [115.06574188000002, -3.494135979999953], [115.06498806000002, -3.499261909999973], [115.06363120000003, -3.502729449999947], [115.06061595000006, -3.505593939999926], [115.05639459000008, -3.508458429999962], [115.04984719000004, -3.5109600099999625], [115.04974396000011, -3.510910939999974], [115.04969916000005, -3.5108885399999394], [115.04960040000003, -3.510840749999943], [115.0494657800001, -3.5107766499999684], [115.04937433000009, -3.5107352099999503], [115.04932606000011, -3.5107122599999343], [115.04932012000006, -3.510726259999956], [115.04928622000011, -3.51077190999996], [115.04928030000008, -3.51077958999997], [115.04927497000006, -3.510786469999971], [115.04926269000009, -3.5108044199999426], [115.04925741000011, -3.5108121099999607], [115.0389061300001, -3.514941219999969], [115.03483553000001, -3.517504189999954], [115.03061418000004, -3.5188610499999413], [115.0241313900001, -3.5181072399999493], [115.01538715000004, -3.516901139999959], [115.00894977000007, -3.517080119999946], [115.00891121000006, -3.517052719999981], [115.00890013000003, -3.517045459999963], [115.00887742000009, -3.517031069999973], [115.00884413000006, -3.517007539999952], [115.00881584000001, -3.5170241799999644], [115.00875343000007, -3.517060879999974], [115.00867902000005, -3.517103039999938], [115.00814099000002, -3.517419319999931], [115.00804143000005, -3.5174793999999565], [115.00803654000003, -3.517482339999958], [115.00802815000009, -3.5174873799999773], [115.0079801600001, -3.5175155899999595], [115.00779494000005, -3.518039339999973], [115.00816164000003, -3.518749249999928], [115.00817972000004, -3.518765119999955], [115.00818164000009, -3.518767329999946], [115.00822320000009, -3.518813269999953], [115.00832041000001, -3.5189165599999797], [115.00868062000006, -3.5192897599999355], [115.00227046000009, -3.5276983299999642], [114.99999871000011, -3.5326880199999664], [114.99637006000012, -3.5372732199999746], [114.99387839000008, -3.544540149999932], [114.9909974300001, -3.555633739999962], [114.99164883000003, -3.5616009599999643], [114.99191988000007, -3.5694148999999697], [114.99255263000009, -3.5780913399999577], [114.99244537000004, -3.5792712599999277], [114.99440686000003, -3.584420189999946], [114.99857505000011, -3.5876076199999716], [115.0096084600001, -3.5895691199999646], [115.01146840000001, -3.589465799999971], [115.01623753000001, -3.5902565299999765], [115.02395952000006, -3.5909067999999706], [115.03464419000011, -3.5866841299999805], [115.03917110000009, -3.58525850999996], [115.04417523000006, -3.5833554299999264], [115.0503657800001, -3.5833686899999293], [115.05631523000011, -3.584816769999975], [115.06011373000001, -3.5900879399999326], [115.06247758000006, -3.5982268299999305], [115.0672067700001, -3.607316879999928], [115.07586672000002, -3.6116164599999365], [115.08688089000009, -3.6108921999999666], [115.0967148200001, -3.605231079999953], [115.11250852, -3.596143149999932], [115.12443059000009, -3.588093489999949], [115.13368223000009, -3.5758513899999684], [115.13966233000008, -3.5622566899999697], [115.14400103000003, -3.550751929999933], [115.14982681000004, -3.5396986499999343], [115.1505868800001, -3.5316256999999496], [115.14701873000001, -3.523262089999946], [115.14299023000001, -3.519445619999942], [115.13686056000006, -3.517729309999936], [115.1290145700001, -3.517729309999936], [115.12288489000002, -3.517729309999936], [115.11945227000001, -3.5172389299999622], [115.11700040000005, -3.514051499999937], [115.11700040000005, -3.505469949999963], [115.11651003000009, -3.5003210299999523], [115.11724559000004, -3.4973787799999627], [115.11896190000004, -3.492720229999975], [115.1179811500001, -3.4851194299999406], [115.11528409000005, -3.4789897499999256], [115.11454853000009, -3.4748215699999605], [115.11651003000009, -3.4706533899999386], [115.12043302000006, -3.4682015199999796], [115.12607232000005, -3.4667303999999604], [115.12925976000008, -3.4669755799999393], [115.13710574000004, -3.4667303999999604], [115.1415191100001, -3.4659948399999507], [115.1434806100001, -3.461336279999955], [115.13960965000001, -3.4555902499999434], [115.13819574000001, -3.453873359999932], [115.13637786000004, -3.452964419999944], [115.13279260000002, -3.4525099499999783], [115.12814691000005, -3.452055489999964], [115.12515451000002, -3.451732209999932], [115.1251526100001, -3.451731999999936], [115.12513952000006, -3.451730589999954], [115.1177549900001, -3.4495102299999303], [115.11368440000001, -3.4495102299999303], [115.11021686000004, -3.4499625199999286], [115.10418635000008, -3.4501132799999255], [115.09936195000012, -3.449057939999932]]]}, "properties": {"OBJECTID": 1281, "NAMOBJ": "Riamkanan", "OTODAN": null, "FCODE": "DA03010140", "REMARK": "Air Danau/Situ", "KODLCO": null, "SRS_ID": " ", "LCODE": "50404", "METADATA": "RBI100000020142014", "VOLTAP": null, "DTA": null, "VLCSDN": null, "QUAAR": null, "CRH": null, "KPTS": null, "NAMWS": null, "NAMDAS": null, "LOKASI": null, "SDN": null, "SHAPE_Length": 0.5857721171073095, "SHAPE_Area": 0.014739707370900744, "name": "Waduk Riam Kanan", "kind": "reservoir", "source": "BIG RBI layer 876 Danau (area)"}}]}